{"version": 0.6, "generator": "Overpass API 0.7.62.8 e802775f", "osm3s": {"timestamp_osm_base": "2025-09-13T03:05:08Z", "copyright": "The data included in this document is from www.openstreetmap.org. The data is made available under ODbL."}, "elements": [{"type": "node", "id": 1715141548, "lat": -17.3833891, "lon": -66.1102387}, {"type": "node", "id": 1715141585, "lat": -17.3824488, "lon": -66.1101939}, {"type": "node", "id": 1715141594, "lat": -17.3834606, "lon": -66.1095108, "tags": {"entrance": "main"}}, {"type": "node", "id": 1715141600, "lat": -17.3835221, "lon": -66.1095671}, {"type": "node", "id": 1715141611, "lat": -17.3827173, "lon": -66.1093085}, {"type": "node", "id": 1715141619, "lat": -17.3832432, "lon": -66.1104023}, {"type": "node", "id": 1715143504, "lat": -17.3832923, "lon": -66.1102123}, {"type": "node", "id": 1862412412, "lat": -17.3594893, "lon": -66.1714593, "tags": {"amenity": "pharmacy"}}, {"type": "node", "id": 2030548726, "lat": -17.3855168, "lon": -66.0982472, "tags": {"amenity": "pharmacy"}}, {"type": "node", "id": 2086047269, "lat": -17.3864812, "lon": -66.1664981}, {"type": "node", "id": 2126673297, "lat": -17.3731287, "lon": -66.1499948, "tags": {"addr:city": "Cochabamba", "addr:street": "Avenida Am\u00e9rica", "amenity": "pharmacy", "healthcare": "pharmacy", "name": "Gamma"}}, {"type": "node", "id": 2126674133, "lat": -17.3738565, "lon": -66.1437043}, {"type": "node", "id": 2164812163, "lat": -17.3875584, "lon": -66.150562}, {"type": "node", "id": 2164839484, "lat": -17.386505, "lon": -66.1468662}, {"type": "node", "id": 2312198365, "lat": -17.3838984, "lon": -66.1594844}, {"type": "node", "id": 2327839010, "lat": -17.3860819, "lon": -66.157766}, {"type": "node", "id": 2340084691, "lat": -17.3857425, "lon": -66.239728}, {"type": "node", "id": 2340084692, "lat": -17.3856034, "lon": -66.2404818}, {"type": "node", "id": 2340084693, "lat": -17.3849744, "lon": -66.2403953}, {"type": "node", "id": 2340084694, "lat": -17.3850335, "lon": -66.2394013}, {"type": "node", "id": 2357109621, "lat": -17.3737568, "lon": -66.1244159}, {"type": "node", "id": 2357109623, "lat": -17.3737963, "lon": -66.1243718}, {"type": "node", "id": 2357109625, "lat": -17.3737759, "lon": -66.1243031}, {"type": "node", "id": 2357109629, "lat": -17.3735039, "lon": -66.1240898}, {"type": "node", "id": 2357110128, "lat": -17.3605824, "lon": -66.174765}, {"type": "node", "id": 2357110130, "lat": -17.3604763, "lon": -66.1746502}, {"type": "node", "id": 2357110131, "lat": -17.360645, "lon": -66.1742714}, {"type": "node", "id": 2357110132, "lat": -17.3607444, "lon": -66.1743255}, {"type": "node", "id": 2357110133, "lat": -17.3608411, "lon": -66.1744331}, {"type": "node", "id": 2357110134, "lat": -17.3609085, "lon": -66.1745429}, {"type": "node", "id": 2357140534, "lat": -17.3787326, "lon": -66.1887883}, {"type": "node", "id": 2357140537, "lat": -17.3789374, "lon": -66.1885919}, {"type": "node", "id": 2357140539, "lat": -17.3789714, "lon": -66.1885416}, {"type": "node", "id": 2357140541, "lat": -17.3790033, "lon": -66.1884862}, {"type": "node", "id": 2357140543, "lat": -17.3789242, "lon": -66.1883697}, {"type": "node", "id": 2357140545, "lat": -17.3786385, "lon": -66.1883148}, {"type": "node", "id": 2357140549, "lat": -17.3786254, "lon": -66.1884255}, {"type": "node", "id": 2357140551, "lat": -17.3786226, "lon": -66.1885039}, {"type": "node", "id": 2357140553, "lat": -17.3786505, "lon": -66.1886359}, {"type": "node", "id": 2357140554, "lat": -17.3786891, "lon": -66.1887128}, {"type": "node", "id": 2357140575, "lat": -17.3756172, "lon": -66.1867763}, {"type": "node", "id": 2361168048, "lat": -17.3736221, "lon": -66.1625922, "tags": {"addr:city": "Cochabamba", "addr:housenumber": "1533", "addr:neighbourhood": "Portales", "addr:street": "Avenida Libertador Sim\u00f3n Bol\u00edvar", "amenity": "pharmacy", "branch": "Agencia Libertador", "brand": "FarmaEl\u00edas", "brand:wikidata": "Q81969487", "contact:phone": "+591 4 4416565;+591 4 4416566", "delivery": "yes", "drive_through": "no", "healthcare": "pharmacy", "name": "FarmaEl\u00edas", "opening_hours": "Mo-Su 08:00-20:00", "operator": "FarmaEl\u00edas"}}, {"type": "node", "id": 2361168050, "lat": -17.3834611, "lon": -66.1489969}, {"type": "node", "id": 2361168051, "lat": -17.3833684, "lon": -66.1489562}, {"type": "node", "id": 2361168056, "lat": -17.3835233, "lon": -66.1491089}, {"type": "node", "id": 2361168099, "lat": -17.3801743, "lon": -66.1414948}, {"type": "node", "id": 2361168100, "lat": -17.3802238, "lon": -66.141894}, {"type": "node", "id": 2380942804, "lat": -17.3734739, "lon": -66.1508571, "tags": {"addr:city": "Cochabamba", "addr:neighbourhood": "Recoleta", "addr:street": "Avenida Am\u00e9rica", "amenity": "pharmacy", "branch": "Sucursal Am\u00e9rica", "brand": "Farmacorp", "brand:wikidata": "Q81968937", "contact:facebook": "https://www.facebook.com/Farmacorp/", "dispensing": "yes", "drive_through": "yes", "healthcare": "pharmacy", "level": "0", "name": "Farmacorp", "opening_hours": "Mo-Su 07:00-23:00; PH Off", "operator": "Farmacorp", "payment:cash": "yes", "payment:credit_cards": "yes", "payment:debit_cards": "yes", "website": "https://www.farmacorp.com/", "wheelchair": "limited"}}, {"type": "node", "id": 2380943053, "lat": -17.3768402, "lon": -66.1538791}, {"type": "node", "id": 2389106970, "lat": -17.3746418, "lon": -66.1426281, "tags": {"addr:city": "Cochabamba", "addr:street": "Avenida General Galindo", "amenity": "pharmacy", "dispensing": "no", "drive_through": "no", "healthcare": "pharmacy", "name": "Farmacia Tarija"}}, {"type": "node", "id": 2398009475, "lat": -17.3798142, "lon": -66.1452734}, {"type": "node", "id": 2398009476, "lat": -17.3795721, "lon": -66.1453519}, {"type": "node", "id": 2398009478, "lat": -17.3783712, "lon": -66.1456893}, {"type": "node", "id": 2398009479, "lat": -17.3786776, "lon": -66.1453323}, {"type": "node", "id": 2398009480, "lat": -17.3788431, "lon": -66.1443353}, {"type": "node", "id": 2398009481, "lat": -17.3790995, "lon": -66.1443839}, {"type": "node", "id": 2398009482, "lat": -17.3794584, "lon": -66.1442602}, {"type": "node", "id": 2400357928, "lat": -17.3830789, "lon": -66.1091598, "tags": {"amenity": "pharmacy", "healthcare": "pharmacy"}}, {"type": "node", "id": 2400365639, "lat": -17.3863117, "lon": -66.1104714, "tags": {"amenity": "pharmacy", "healthcare": "pharmacy"}}, {"type": "node", "id": 2409436984, "lat": -17.3713908, "lon": -66.1756308}, {"type": "node", "id": 2409436986, "lat": -17.3719744, "lon": -66.1759756, "tags": {"addr:city": "Cochabamba", "addr:street": "Avenida Melchor Perez de Olgu\u00edn", "amenity": "pharmacy", "healthcare": "pharmacy", "name": "Soto"}}, {"type": "node", "id": 2422613364, "lat": -17.3761803, "lon": -66.163191}, {"type": "node", "id": 2442129464, "lat": -17.3785162, "lon": -66.1456548}, {"type": "node", "id": 2442129477, "lat": -17.3788161, "lon": -66.1455706}, {"type": "node", "id": 2442129478, "lat": -17.3783036, "lon": -66.1454269}, {"type": "node", "id": 2442129579, "lat": -17.3796581, "lon": -66.1448243, "tags": {"access": "permissive", "addr:city": "Cochabamba", "addr:neighbourhood": "Seminario San Luis", "addr:street": "Avenida Ram\u00f3n Rivero", "entrance": "main", "level": "0", "wheelchair": "yes"}}, {"type": "node", "id": 2442129582, "lat": -17.3796933, "lon": -66.1449298}, {"type": "node", "id": 2466178442, "lat": -17.3835181, "lon": -66.1528845, "tags": {"addr:city": "Cochabamba", "addr:housenumber": "899", "addr:neighbourhood": "Central Santa Mar\u00eda", "addr:street": "Avenida Salamanca", "amenity": "pharmacy", "branch": "Sucursal 1", "brand": "Farmacia Cosmos", "contact:facebook": "https://facebook.com/farmaciacosmoscbba/", "contact:whatsapp": "+591 77597511", "delivery": "yes", "dispensing": "yes", "drive_through": "no", "healthcare": "pharmacy", "level": "0", "name": "Farmacia Cosmos", "operator": "Farmacia Cosmos", "payment:cash": "yes", "phone": "+591 4 4256089;+591 4 4662366;+591 77597511", "wheelchair": "yes"}}, {"type": "node", "id": 2468432968, "lat": -17.3645163, "lon": -66.1793825}, {"type": "node", "id": 2529997029, "lat": -17.3702188, "lon": -66.1717529, "tags": {"addr:city": "Cochabamba", "addr:neighbourhood": "Pulacayo", "addr:street": "Avenida Abraham Lincoln", "amenity": "pharmacy", "dispensing": "yes", "drive_through": "no", "healthcare": "pharmacy", "name": "Farmacia Lincoln", "operator": "Farmacia Lincoln"}}, {"type": "node", "id": 2533649356, "lat": -17.3863704, "lon": -66.149802, "tags": {"addr:city": "Cochabamba", "addr:neighbourhood": "Seminario San Luis", "addr:street": "Calle Federico Blanco", "amenity": "pharmacy", "drive_through": "no", "healthcare": "pharmacy", "name": "Farmacia Andaluc\u00eda", "operator": "Farmacia Andaluc\u00eda"}}, {"type": "node", "id": 2534660754, "lat": -17.3856073, "lon": -66.1474373, "tags": {"addr:city": "Cochabamba", "addr:neighbourhood": "Seminario San Luis", "addr:street": "Avenida Aniceto Arce", "amenity": "pharmacy", "drive_through": "no", "healthcare": "pharmacy", "name": "Farmapolis", "opening_hours": "Mo-Su 09:00-21:00"}}, {"type": "node", "id": 2543003477, "lat": -17.3767163, "lon": -66.1727952, "tags": {"addr:city": "Cochabamba", "addr:neighbourhood": "Verbo Divino", "addr:street": "Avenida Juan de la Rosa", "amenity": "pharmacy", "brand": "Farmacia Hipermaxi", "brand:wikidata": "Q81970238", "dispensing": "yes", "drive_through": "no", "healthcare": "pharmacy", "level": "0", "name": "Farmacia Hipermaxi", "operator": "Hipermaxi", "payment:cash": "yes", "wheelchair": "yes"}}, {"type": "node", "id": 2548048767, "lat": -17.3726178, "lon": -66.1578945, "tags": {"addr:city": "Cochabamba", "addr:housenumber": "179", "addr:street": "Avenida Am\u00e9rica", "amenity": "pharmacy", "contact:phone": "+591 4 4456766", "drive_through": "no", "healthcare": "pharmacy", "name": "MAXIFarma"}}, {"type": "node", "id": 2555201654, "lat": -17.3732694, "lon": -66.1570319, "tags": {"addr:city": "Cochabamba", "addr:neighbourhood": "Portales", "addr:street": "Plazuela Charles de Gaulle", "amenity": "pharmacy", "drive_through": "no", "healthcare": "pharmacy", "name": "Farmacia Margarita", "wheelchair": "yes"}}, {"type": "node", "id": 2555283458, "lat": -17.3757664, "lon": -66.1638882, "tags": {"addr:city": "Cochabamba", "addr:street": "Calle Te\u00f3filo Vargas", "amenity": "clinic", "contact:phone": "+591 4 4400868", "healthcare": "clinic", "healthcare:speciality": "phlebology", "name": "Centro de Flebolog\u00eda LASER"}}, {"type": "node", "id": 2563978054, "lat": -17.3534349, "lon": -66.2433597, "tags": {"amenity": "doctors", "healthcare": "doctor", "healthcare:speciality": "general", "name": "Centro M\u00e9dico Callajchullpa"}}, {"type": "node", "id": 2590032426, "lat": -17.3880758, "lon": -66.1450056}, {"type": "node", "id": 2590640017, "lat": -17.3835332, "lon": -66.1491279}, {"type": "node", "id": 2590640024, "lat": -17.385748, "lon": -66.1512677, "tags": {"addr:city": "Cochabamba", "addr:neighbourhood": "Central Santa Mar\u00eda", "addr:street": "Avenida Oquendo", "amenity": "pharmacy", "branch": "Sucursal Oquendo", "brand": "Farmacorp", "brand:wikidata": "Q81968937", "drive_through": "no", "healthcare": "pharmacy", "level": "0", "name": "Farmacorp", "opening_hours": "24/7", "operator": "Farmacorp", "payment:cash": "yes", "payment:credit_cards": "yes", "payment:debit_cards": "yes", "website": "https://www.farmacorp.com/", "wheelchair": "yes"}}, {"type": "node", "id": 2590640169, "lat": -17.3866367, "lon": -66.1466575}, {"type": "node", "id": 2600878716, "lat": -17.3869865, "lon": -66.1566558, "tags": {"addr:city": "Cochabamba", "addr:housenumber": "567", "addr:neighbourhood": "Barba de Padilla", "addr:street": "Avenida Jos\u00e9 Ballivi\u00e1n", "amenity": "pharmacy", "brand": "Farmacias Bolivia", "brand:wikidata": "Q81970584", "craft": "dressmaker", "drive_through": "no", "healthcare": "pharmacy", "name": "Farmacias Bolivia"}}, {"type": "node", "id": 2606184739, "lat": -17.3724375, "lon": -66.160941, "tags": {"addr:city": "Cochabamba", "addr:neighbourhood": "Santa Ana de Cala Cala", "addr:street": "Avenida Am\u00e9rica", "amenity": "pharmacy", "dispensing": "yes", "drive_through": "no", "healthcare": "pharmacy", "level": "0", "name": "MaxiFarma", "operator": "MaxiFarma"}}, {"type": "node", "id": 2606203551, "lat": -17.3720746, "lon": -66.1499703, "tags": {"addr:city": "Cochabamba", "addr:neighbourhood": "Queru Queru Central", "addr:street": "Avenida Julio Rodr\u00edguez Morales", "amenity": "pharmacy", "drive_through": "no", "healthcare": "pharmacy", "name": "Farmacia Carla"}}, {"type": "node", "id": 2616493621, "lat": -17.3774052, "lon": -66.1541714, "tags": {"amenity": "pharmacy", "name": "Med Fast"}}, {"type": "node", "id": 2631125214, "lat": -17.3686698, "lon": -66.1642415, "tags": {"addr:city": "Cochabamba", "addr:neighbourhood": "Santa Ana de Cala Cala", "addr:street": "Calle Man C\u00e9sped", "amenity": "pharmacy", "drive_through": "no", "healthcare": "pharmacy", "name": "Farmacia San El\u00edas", "operator": "Farmacia San El\u00edas"}}, {"type": "node", "id": 2658456901, "lat": -17.3777409, "lon": -66.1758524, "tags": {"addr:city": "Cochabamba", "addr:housenumber": "1508", "addr:neighbourhood": "Verbo Divino", "addr:street": "Avenida Melchor P\u00e9rez de Olgu\u00edn", "amenity": "pharmacy", "branch": "Melchor P\u00e9rez de Olgu\u00edn", "brand": "FarmaEl\u00edas", "brand:wikidata": "Q81969487", "contact:facebook": "https://www.facebook.com/farmaciaseliasbo/", "delivery": "yes", "drive_through": "no", "healthcare": "pharmacy", "level": "0", "name": "FarmaEl\u00edas", "opening_hours": "Mo-Su 08:00-22:00", "operator": "FarmaEl\u00edas", "phone": "+591 65366949", "website": "https://www.farmaelias.com/"}}, {"type": "node", "id": 2690527962, "lat": -17.3840669, "lon": -66.1436045, "tags": {"addr:city": "Cochabamba", "addr:neighbourhood": "Urbanizaci\u00f3n Muyurina Incacollo", "addr:street": "Calle An\u00edbal Capriles", "amenity": "pharmacy", "drive_through": "no", "healthcare": "pharmacy", "name": "Farmacia Maranatha", "operator": "Farmacia Maranatha"}}, {"type": "node", "id": 2886226412, "lat": -17.3597876, "lon": -66.1583168}, {"type": "node", "id": 2886226414, "lat": -17.359865, "lon": -66.1580742}, {"type": "node", "id": 2938502765, "lat": -17.3526905, "lon": -66.2004557}, {"type": "node", "id": 2956787178, "lat": -17.382517, "lon": -66.1099892}, {"type": "node", "id": 2956787182, "lat": -17.3826663, "lon": -66.1094982}, {"type": "node", "id": 2956787206, "lat": -17.3832668, "lon": -66.1103222}, {"type": "node", "id": 2956787209, "lat": -17.3833445, "lon": -66.1102256}, {"type": "node", "id": 3250373479, "lat": -17.3867006, "lon": -66.1469707}, {"type": "node", "id": 3268302881, "lat": -17.3789626, "lon": -66.1883851}, {"type": "node", "id": 3268302882, "lat": -17.378998, "lon": -66.1884233}, {"type": "node", "id": 3278551958, "lat": -17.3464058, "lon": -66.1654735}, {"type": "node", "id": 3280635025, "lat": -17.3464733, "lon": -66.1749242}, {"type": "node", "id": 3280635027, "lat": -17.3466479, "lon": -66.1746042}, {"type": "node", "id": 3280635030, "lat": -17.3467079, "lon": -66.1751118}, {"type": "node", "id": 3280635031, "lat": -17.3467225, "lon": -66.175119}, {"type": "node", "id": 3280635033, "lat": -17.3467381, "lon": -66.1751184}, {"type": "node", "id": 3280635036, "lat": -17.3467505, "lon": -66.1751116}, {"type": "node", "id": 3280635037, "lat": -17.3467612, "lon": -66.1750952}, {"type": "node", "id": 3280635039, "lat": -17.346876, "lon": -66.17478}, {"type": "node", "id": 3280635040, "lat": -17.3468833, "lon": -66.1747922}, {"type": "node", "id": 3280635041, "lat": -17.3468839, "lon": -66.1748463}, {"type": "node", "id": 3280635042, "lat": -17.3468878, "lon": -66.1748057}, {"type": "node", "id": 3280635043, "lat": -17.3468891, "lon": -66.1748245}, {"type": "node", "id": 3290784339, "lat": -17.3735105, "lon": -66.1240727}, {"type": "node", "id": 3290784340, "lat": -17.373515, "lon": -66.1243757}, {"type": "node", "id": 3290784341, "lat": -17.3735181, "lon": -66.1243968}, {"type": "node", "id": 3290784344, "lat": -17.3735246, "lon": -66.1240612}, {"type": "node", "id": 3290784345, "lat": -17.3735286, "lon": -66.124409}, {"type": "node", "id": 3290784346, "lat": -17.3735478, "lon": -66.1240465}, {"type": "node", "id": 3290784347, "lat": -17.3735815, "lon": -66.1240438}, {"type": "node", "id": 3290784348, "lat": -17.3736105, "lon": -66.124069}, {"type": "node", "id": 3290784350, "lat": -17.3737732, "lon": -66.1244089}, {"type": "node", "id": 3290784351, "lat": -17.3737886, "lon": -66.1243347}, {"type": "node", "id": 3290784352, "lat": -17.37379, "lon": -66.1243907}, {"type": "node", "id": 3290784353, "lat": -17.373796, "lon": -66.1243538}, {"type": "node", "id": 3306972560, "lat": -17.3863197, "lon": -66.1561112}, {"type": "node", "id": 3306972615, "lat": -17.3850089, "lon": -66.1534438, "tags": {"addr:city": "Cochabamba", "addr:neighbourhood": "Central Santa Mar\u00eda", "addr:street": "Avenida Salamanca", "amenity": "pharmacy", "drive_through": "no", "healthcare": "pharmacy", "name": "Farmacia Minerva"}}, {"type": "node", "id": 3539964202, "lat": -17.356987, "lon": -66.1778029}, {"type": "node", "id": 3539964203, "lat": -17.3570434, "lon": -66.1777146}, {"type": "node", "id": 3539964204, "lat": -17.3571935, "lon": -66.1778178}, {"type": "node", "id": 3539964205, "lat": -17.3571338, "lon": -66.177906}, {"type": "node", "id": 3541016175, "lat": -17.3526322, "lon": -66.1822732, "tags": {"addr:street": "Avenida Circunvalaci\u00f3n Beijing", "amenity": "pharmacy", "name": "Armon\u00eda"}}, {"type": "node", "id": 3545077555, "lat": -17.3557801, "lon": -66.1863209, "tags": {"addr:street": "Avenida Sim\u00f3n Lopez", "amenity": "pharmacy"}}, {"type": "node", "id": 3545077556, "lat": -17.3555381, "lon": -66.186621, "tags": {"addr:street": "Avenida Sim\u00f3n Lopez", "amenity": "pharmacy"}}, {"type": "node", "id": 3546321669, "lat": -17.3521242, "lon": -66.200422}, {"type": "node", "id": 3546321681, "lat": -17.3524463, "lon": -66.1998181}, {"type": "node", "id": 3546321692, "lat": -17.3525892, "lon": -66.2006363}, {"type": "node", "id": 3546321695, "lat": -17.3526684, "lon": -66.2005155}, {"type": "node", "id": 3546321696, "lat": -17.3526805, "lon": -66.2004827}, {"type": "node", "id": 3546321699, "lat": -17.352784, "lon": -66.1999298}, {"type": "node", "id": 3546321700, "lat": -17.3528021, "lon": -66.1999544}, {"type": "node", "id": 3546321701, "lat": -17.3528203, "lon": -66.1999921}, {"type": "node", "id": 3546321702, "lat": -17.3528203, "lon": -66.2000233}, {"type": "node", "id": 3548854844, "lat": -17.3524179, "lon": -66.1906499, "tags": {"addr:street": "Avenida Sim\u00f3n Lopez", "amenity": "pharmacy", "name": "Se\u00f1or de Malta"}}, {"type": "node", "id": 3548854846, "lat": -17.3538282, "lon": -66.1888674, "tags": {"addr:street": "Avenida Sim\u00f3n Lopez", "amenity": "pharmacy", "healthcare": "pharmacy", "name": "Jhon"}}, {"type": "node", "id": 3548854848, "lat": -17.3544814, "lon": -66.1880527, "tags": {"addr:city": "Cochabamba", "addr:street": "Avenida Sim\u00f3n Lopez", "amenity": "pharmacy", "healthcare": "pharmacy", "name": "Farmacia El Descuento"}}, {"type": "node", "id": 3548854851, "lat": -17.3552612, "lon": -66.187014, "tags": {"addr:street": "Avenida Sim\u00f3n Lopez", "amenity": "pharmacy", "name": "Tordoya"}}, {"type": "node", "id": 3548854852, "lat": -17.3581849, "lon": -66.1839705, "tags": {"addr:street": "Avenida Sim\u00f3n Lopez", "amenity": "pharmacy", "name": "Perez"}}, {"type": "node", "id": 3548854853, "lat": -17.3607429, "lon": -66.1825445, "tags": {"addr:city": "Cochabamba", "addr:street": "Avenida Sim\u00f3n Lopez", "amenity": "pharmacy"}}, {"type": "node", "id": 3548854865, "lat": -17.3665284, "lon": -66.1666432, "tags": {"addr:city": "Cochabamba", "addr:neighbourhood": "Santa Ana de Cala Cala", "addr:street": "Avenida Sim\u00f3n L\u00f3pez", "amenity": "pharmacy", "drive_through": "no", "healthcare": "pharmacy", "name": "CVCD Farma"}}, {"type": "node", "id": 3552731014, "lat": -17.3790518, "lon": -66.188213, "tags": {"addr:street": "Avenida Thunupa", "amenity": "pharmacy"}}, {"type": "node", "id": 3552731026, "lat": -17.3535868, "lon": -66.18859, "tags": {"addr:street": "Avenida Sim\u00f3n Lopez", "amenity": "pharmacy", "healthcare": "pharmacy"}}, {"type": "node", "id": 3552802044, "lat": -17.3785303, "lon": -66.1525701, "tags": {"addr:city": "Cochabamba", "addr:neighbourhood": "Recoleta", "addr:street": "Calle Aniceto Padilla", "amenity": "pharmacy", "drive_through": "no", "healthcare": "pharmacy", "name": "Farmacia Portales", "operator": "Farmacia Portales"}}, {"type": "node", "id": 3555280368, "lat": -17.3552673, "lon": -66.178561, "tags": {"addr:street": "Avenida Circunvalaci\u00f3n Beijing", "amenity": "pharmacy", "fax": "+59144300561", "phone": "+59170367021"}}, {"type": "node", "id": 3557291793, "lat": -17.3590298, "lon": -66.1729179, "tags": {"addr:street": "Avenida Circunvalaci\u00f3n Beijing", "amenity": "pharmacy", "name": "Elias"}}, {"type": "node", "id": 3570780098, "lat": -17.3589511, "lon": -66.1722674, "tags": {"addr:street": "Avenida Circunvalaci\u00f3n Beijing", "amenity": "pharmacy"}}, {"type": "node", "id": 3570780099, "lat": -17.3587566, "lon": -66.1726844, "tags": {"addr:street": "Avenida Circunvalaci\u00f3n Beijing", "amenity": "pharmacy"}}, {"type": "node", "id": 3570780100, "lat": -17.3578196, "lon": -66.1747015, "tags": {"addr:street": "Avenida Circunvalaci\u00f3n Beijing", "amenity": "pharmacy"}}, {"type": "node", "id": 3570780102, "lat": -17.3570272, "lon": -66.1759567, "tags": {"amenity": "pharmacy", "healthcare": "pharmacy"}}, {"type": "node", "id": 3570780104, "lat": -17.3521969, "lon": -66.1823062, "tags": {"addr:street": "Avenida Circunvalaci\u00f3n Beijing", "amenity": "pharmacy", "healthcare": "pharmacy"}}, {"type": "node", "id": 3588910512, "lat": -17.3850474, "lon": -66.0981823, "tags": {"amenity": "pharmacy", "name": "Leslie"}}, {"type": "node", "id": 3595544604, "lat": -17.3681604, "lon": -66.1635599, "tags": {"addr:city": "Cochabamba", "addr:housenumber": "2020", "addr:neighbourhood": "Santa Ana de Cala Cala", "addr:street": "Avenida Atahuallpa", "amenity": "pharmacy", "branch": "Cala Cala", "brand": "Farmacias Ch\u00e1vez", "brand:wikidata": "Q81969919", "contact:facebook": "https://www.facebook.com/farmaciaschavezsa/", "dispensing": "yes", "drive_through": "no", "healthcare": "pharmacy", "level": "0", "name": "Farmacias Ch\u00e1vez", "operator": "Farmacias Ch\u00e1vez", "operator:type": "private", "payment:cash": "yes", "phone": "+591 4 4522795;+591 69203074", "website": "https://www.farmaciachavez.com.bo/", "wheelchair": "no"}}, {"type": "node", "id": 3618530397, "lat": -17.3482427, "lon": -66.1761673, "tags": {"addr:city": "Cochabamba", "addr:street": "Avenida Beijing Norte", "amenity": "pharmacy", "healthcare": "pharmacy", "name": "El Cristo"}}, {"type": "node", "id": 3631893558, "lat": -17.3839682, "lon": -66.1472283, "tags": {"addr:city": "Cochabamba", "addr:neighbourhood": "Seminario San Luis", "addr:street": "Avenida Papa Paulo III", "amenity": "pharmacy", "dispensing": "yes", "drive_through": "no", "healthcare": "pharmacy", "name": "Farmavida", "operator": "Farmavida"}}, {"type": "node", "id": 3658367018, "lat": -17.3833512, "lon": -66.1687444, "tags": {"addr:street": "Avenida Mart\u00edn de la Rocha", "amenity": "pharmacy", "name": "Rioja"}}, {"type": "node", "id": 3658367019, "lat": -17.3818213, "lon": -66.1659488, "tags": {"addr:street": "Avenida Felix Aranibar", "amenity": "pharmacy"}}, {"type": "node", "id": 3660442431, "lat": -17.338086, "lon": -66.266039, "tags": {"amenity": "pharmacy", "name": "Madisson"}}, {"type": "node", "id": 3660442433, "lat": -17.3386328, "lon": -66.2658686, "tags": {"amenity": "pharmacy", "name": "Primer Auxilio"}}, {"type": "node", "id": 3660714339, "lat": -17.3772925, "lon": -66.1567944, "tags": {"addr:city": "Cochabamba", "addr:housenumber": "1274", "addr:neighbourhood": "Portales", "addr:street": "Avenida Santa Cruz", "amenity": "pharmacy", "drive_through": "no", "healthcare": "pharmacy", "name": "Pharma Box", "operator": "Pharma Box"}}, {"type": "node", "id": 3660714365, "lat": -17.3764356, "lon": -66.1537943, "tags": {"addr:city": "Cochabamba", "addr:neighbourhood": "Recoleta", "addr:street": "Calle Potos\u00ed", "amenity": "clinic", "contact:email": "acdoctorcardona@gmail.com", "contact:phone": "+591 4 4488770", "contact:website": "http://institutodeneurocirugiaycolumnavertebral.com/", "healthcare": "clinic", "healthcare:speciality": "neurology;neurosurgery", "name": "Instituto Nacional de Neurolog\u00eda, Neurocirug\u00eda y Columna Vertebral", "short_name": "INCOV"}}, {"type": "node", "id": 3660714367, "lat": -17.3781217, "lon": -66.1539423, "tags": {"amenity": "pharmacy", "name": "La Luz"}}, {"type": "node", "id": 3660714381, "lat": -17.3720457, "lon": -66.1723177, "tags": {"addr:city": "Cochabamba", "addr:street": "Avenida Am\u00e9rica", "amenity": "pharmacy", "healthcare": "pharmacy", "name": "Farmacia Rosedal"}}, {"type": "node", "id": 3660714386, "lat": -17.3726214, "lon": -66.1644494, "tags": {"addr:city": "Cochabamba", "addr:neighbourhood": "Adela Zamudio", "addr:street": "Avenida Am\u00e9rica", "amenity": "pharmacy", "drive_through": "no", "healthcare": "pharmacy", "name": "Farmacia Zafiro"}}, {"type": "node", "id": 3660714390, "lat": -17.3607889, "lon": -66.1709502, "tags": {"amenity": "pharmacy"}}, {"type": "node", "id": 3664675393, "lat": -17.3807284, "lon": -66.1681547}, {"type": "node", "id": 3665025226, "lat": -17.3521027, "lon": -66.1834033, "tags": {"amenity": "pharmacy", "healthcare": "pharmacy", "name": "Farmacia Genesis"}}, {"type": "node", "id": 3666046541, "lat": -17.3369752, "lon": -66.2178625, "tags": {"addr:city": "Tiquipaya", "addr:street": "Calle Gualberto Villaroel", "amenity": "pharmacy", "dispensing": "yes", "healthcare": "pharmacy", "name": "Farmacia Angelica"}}, {"type": "node", "id": 3666046546, "lat": -17.3504036, "lon": -66.1929622, "tags": {"addr:street": "Avenida Sim\u00f3n Lopez", "amenity": "pharmacy", "name": "Farmacia Despertad"}}, {"type": "node", "id": 3666046548, "lat": -17.3547865, "lon": -66.1871351, "tags": {"addr:street": "Avenida Sim\u00f3n Lopez", "amenity": "pharmacy", "healthcare": "pharmacy", "name": "Farmacia Jesus Obrero"}}, {"type": "node", "id": 3666046554, "lat": -17.3563576, "lon": -66.1850278, "tags": {"addr:street": "Avenida Sim\u00f3n Lopez", "amenity": "pharmacy", "name": "Uriel"}}, {"type": "node", "id": 3666105797, "lat": -17.3564369, "lon": -66.1854495, "tags": {"amenity": "pharmacy", "name": "San Jose"}}, {"type": "node", "id": 3666107334, "lat": -17.3386305, "lon": -66.2223983, "tags": {"amenity": "pharmacy", "healthcare": "pharmacy"}}, {"type": "node", "id": 3669195894, "lat": -17.364591, "lon": -66.1791092, "tags": {"addr:city": "Cochabamba", "addr:street": "Calle Daniel Pe\u00f1a Sarmiento", "amenity": "pharmacy", "drive_through": "no", "healthcare": "pharmacy", "opening_hours": "24/7", "operator": "Pro Salud", "wheelchair": "limited"}}, {"type": "node", "id": 3673632978, "lat": -17.3657609, "lon": -66.1707562, "tags": {"addr:street": "Avenida Sim\u00f3n Lopez", "amenity": "pharmacy", "name": "Jozab"}}, {"type": "node", "id": 3673632984, "lat": -17.3648366, "lon": -66.1767732, "tags": {"addr:city": "Cochabamba", "addr:street": "Avenida Sim\u00f3n L\u00f3pez", "amenity": "pharmacy", "drive_through": "no", "healthcare": "pharmacy"}}, {"type": "node", "id": 3674260504, "lat": -17.3596163, "lon": -66.1718952, "tags": {"amenity": "pharmacy", "name": "Anael"}}, {"type": "node", "id": 3676912929, "lat": -17.3650426, "lon": -66.1613767, "tags": {"addr:street": "Avenida Circunvalaci\u00f3n Beijing", "amenity": "pharmacy", "name": "PuntoFarma"}}, {"type": "node", "id": 3682578947, "lat": -17.3687052, "lon": -66.1456764, "tags": {"addr:city": "Cochabamba", "addr:street": "Avenida Circunvalaci\u00f3n Beijing", "amenity": "pharmacy", "healthcare": "pharmacy", "name": "Farmacia Del Norte"}}, {"type": "node", "id": 3682578950, "lat": -17.3684809, "lon": -66.1461432, "tags": {"addr:street": "Avenida Circunvalaci\u00f3n Beijing", "amenity": "pharmacy", "name": "Los Apostoles"}}, {"type": "node", "id": 3682578958, "lat": -17.3669282, "lon": -66.1523259, "tags": {"addr:street": "Avenida Circunvalaci\u00f3n Beijing", "amenity": "pharmacy", "dispensing": "yes", "healthcare": "pharmacy", "name": "FarmaLux"}}, {"type": "node", "id": 3682578960, "lat": -17.3720506, "lon": -66.1427855, "tags": {"addr:city": "Cochabamba", "addr:housenumber": "1399", "addr:street": "Avenida General Galindo", "amenity": "pharmacy", "healthcare": "pharmacy"}}, {"type": "node", "id": 3688559586, "lat": -17.3860024, "lon": -66.1489794}, {"type": "node", "id": 3688559589, "lat": -17.3861089, "lon": -66.149107}, {"type": "node", "id": 3688559591, "lat": -17.3861226, "lon": -66.1490908}, {"type": "node", "id": 3688559593, "lat": -17.3861537, "lon": -66.1488003}, {"type": "node", "id": 3688559601, "lat": -17.3862618, "lon": -66.1489285}, {"type": "node", "id": 3688559602, "lat": -17.386275, "lon": -66.1489128}, {"type": "node", "id": 3688559606, "lat": -17.3863834, "lon": -66.1493616}, {"type": "node", "id": 3688559607, "lat": -17.386379, "lon": -66.1490372}, {"type": "node", "id": 3688559610, "lat": -17.3864311, "lon": -66.1493051}, {"type": "node", "id": 3688559611, "lat": -17.3864306, "lon": -66.1491418}, {"type": "node", "id": 3688559614, "lat": -17.3865095, "lon": -66.1493778}, {"type": "node", "id": 3688559616, "lat": -17.3865026, "lon": -66.1490565}, {"type": "node", "id": 3688560631, "lat": -17.3866586, "lon": -66.1492012}, {"type": "node", "id": 3719989224, "lat": -17.3725483, "lon": -66.1588122, "tags": {"addr:city": "Cochabamba", "addr:neighbourhood": "Santa Ana de Cala Cala", "addr:street": "Avenida Am\u00e9rica", "amenity": "pharmacy", "drive_through": "no", "healthcare": "pharmacy", "level": "0", "name": "Farmacia Panamericana", "operator": "Farmacia Panamericana", "payment:cash": "yes"}}, {"type": "node", "id": 3775062999, "lat": -17.3778539, "lon": -66.1594924, "tags": {"addr:city": "Cochabamba", "addr:neighbourhood": "Portales", "addr:street": "Calle Aniceto Padilla", "amenity": "pharmacy", "healthcare": "pharmacy", "level": "0", "name": "Erika", "payment:cash": "yes"}}, {"type": "node", "id": 3903679041, "lat": -17.3700447, "lon": -66.1870931, "tags": {"amenity": "pharmacy"}}, {"type": "node", "id": 3903679055, "lat": -17.3708799, "lon": -66.18504, "tags": {"addr:city": "Cochabamba", "addr:street": "Avenida Am\u00e9rica", "amenity": "pharmacy"}}, {"type": "node", "id": 3903679056, "lat": -17.3670429, "lon": -66.185769, "tags": {"addr:city": "Cochabamba", "addr:street": "Calle Jos\u00e9 Mar\u00eda Velasco", "amenity": "pharmacy"}}, {"type": "node", "id": 3916389728, "lat": -17.3866432, "lon": -66.1768997, "tags": {"addr:city": "Cochabamba", "addr:neighbourhood": "Excombatientes", "addr:street": "Avenida Gabriel Ren\u00e9 Moreno", "amenity": "pharmacy", "drive_through": "no", "healthcare": "pharmacy"}}, {"type": "node", "id": 3916390341, "lat": -17.3873526, "lon": -66.1773034, "tags": {"amenity": "pharmacy", "healthcare": "pharmacy"}}, {"type": "node", "id": 3921428713, "lat": -17.3823868, "lon": -66.1526685, "tags": {"addr:city": "Cochabamba", "addr:street": "Calle La Paz", "amenity": "pharmacy", "drive_through": "no", "healthcare": "pharmacy", "name": "Farmacia Saturno"}}, {"type": "node", "id": 3921428751, "lat": -17.3844092, "lon": -66.1511623, "tags": {"addr:city": "Cochabamba", "addr:housenumber": "668", "addr:neighbourhood": "Seminario San Luis", "addr:street": "Avenida Oquendo", "amenity": "clinic", "email": "centro.londres@gmail.com", "healthcare": "clinic", "healthcare:speciality": "diagnostic_radiology", "level": "0", "name": "Centro de Diagn\u00f3stico M\u00e9dico Londres", "operator": "Centro de Diagn\u00f3stico M\u00e9dico Londres", "operator:type": "private", "phone": "+591 4 4530440;+591 4 4221867;+591 4 4533090", "wheelchair": "yes"}}, {"type": "node", "id": 3928838408, "lat": -17.3784912, "lon": -66.1648436}, {"type": "node", "id": 3952902662, "lat": -17.3859363, "lon": -66.1522391, "tags": {"addr:city": "Cochabamba", "addr:housenumber": "0612", "addr:street": "Calle 16 de Julio", "amenity": "clinic", "healthcare": "clinic", "healthcare:speciality": "ophthalmology", "level": "0", "name": "Instituto Oftalmol\u00f3gico Cochabamba", "operator": "Instituto Oftalmol\u00f3gico Cochabamba", "operator:type": "private"}}, {"type": "node", "id": 3975212317, "lat": -17.384204, "lon": -66.1465567, "tags": {"addr:city": "Cochabamba", "addr:neighbourhood": "Seminario San Luis", "addr:street": "Avenida Papa Paulo III", "amenity": "pharmacy", "dispensing": "yes", "drive_through": "no", "healthcare": "pharmacy", "name": "Farmacias Nacionales", "opening_hours": "Mo-Sa 08:00-23:00", "operator": "Farmacias Nacionales"}}, {"type": "node", "id": 3994628934, "lat": -17.3543988, "lon": -66.158249, "tags": {"addr:city": "Cochabamba", "addr:street": "Avenida Atahuallpa", "amenity": "pharmacy"}}, {"type": "node", "id": 4010507122, "lat": -17.3531907, "lon": -66.1590127, "tags": {"addr:city": "Cochabamba", "addr:street": "Avenida Segunda Circunvalaci\u00f3n", "amenity": "pharmacy", "healthcare": "pharmacy"}}, {"type": "node", "id": 4027317746, "lat": -17.3854156, "lon": -66.1479062, "tags": {"addr:city": "Cochabamba", "addr:neighbourhood": "Seminario San Luis", "addr:street": "Calle Germ\u00e1n Urquidi", "amenity": "pharmacy", "dispensing": "yes", "drive_through": "no", "healthcare": "pharmacy", "name": "Farmacia Ni\u00f1o de la Luz", "operator": "Farmacia Ni\u00f1o de la Luz"}}, {"type": "node", "id": 4035040243, "lat": -17.377354, "lon": -66.1654136, "tags": {"addr:city": "Cochabamba", "addr:neighbourhood": "Magisterio 6 de Junio", "addr:street": "Calle Obispo Anaya", "amenity": "pharmacy", "dispensing": "yes", "drive_through": "no", "healthcare": "pharmacy", "name": "Farmacia Savin", "operator": "Farmacia Savin"}}, {"type": "node", "id": 4100989049, "lat": -17.3742114, "lon": -66.1813251, "tags": {"addr:city": "Cochabamba", "addr:street": "Pasaje Suiza", "amenity": "pharmacy", "healthcare": "pharmacy"}}, {"type": "node", "id": 4106073594, "lat": -17.3847603, "lon": -66.1508623, "tags": {"addr:city": "Cochabamba", "addr:neighbourhood": "Seminario San Luis", "addr:street": "Avenida Oquendo", "amenity": "pharmacy", "brand": "Farmacia Hipermaxi", "brand:wikidata": "Q81970238", "drive_through": "no", "healthcare": "pharmacy", "level": "0", "name": "Farmacia Hipermaxi", "opening_hours": "Mo-Su 09:00-21:00", "operator": "Hipermaxi"}}, {"type": "node", "id": 4106074892, "lat": -17.3854734, "lon": -66.151431, "tags": {"addr:city": "Cochabamba", "addr:housenumber": "609", "addr:neighbourhood": "Central Santa Mar\u00eda", "addr:street": "Avenida Oquendo", "amenity": "pharmacy", "drive_through": "no", "healthcare": "pharmacy", "level": "0", "name": "Farmacia Maine", "wheelchair": "no"}}, {"type": "node", "id": 4106074980, "lat": -17.3869676, "lon": -66.1506787, "tags": {"addr:city": "Cochabamba", "addr:housenumber": "452", "addr:neighbourhood": "Seminario San Luis", "addr:street": "Avenida Oquendo", "amenity": "pharmacy", "drive_through": "no", "healthcare": "pharmacy", "name": "Farmacia Oquendo"}}, {"type": "node", "id": 4106075093, "lat": -17.3874741, "lon": -66.1537457}, {"type": "node", "id": 4108810943, "lat": -17.3751269, "lon": -66.1798918, "tags": {"addr:city": "Cochabamba", "addr:street": "Avenida Juan de la Rosa", "amenity": "pharmacy", "name": "Sibeles"}}, {"type": "node", "id": 4113183444, "lat": -17.3821578, "lon": -66.1538887, "tags": {"addr:city": "Cochabamba", "addr:neighbourhood": "Central Santa Mar\u00eda", "addr:street": "Calle Juan Cris\u00f3stomo Carrillo", "amenity": "pharmacy", "dispensing": "yes", "drive_through": "no", "healthcare": "pharmacy", "name": "Farmacia Flor de Angel", "operator": "Farmacia Flor de Angel"}}, {"type": "node", "id": 4113183472, "lat": -17.3829637, "lon": -66.1529869, "tags": {"addr:city": "Cochabamba", "addr:neighbourhood": "Central Santa Mar\u00eda", "addr:street": "Calle Juan Cris\u00f3stomo Carrillo", "amenity": "doctors", "healthcare": "doctor", "name": "Dr. Jaime Mara\u00f1on", "phone": "+591 4 4520506"}}, {"type": "node", "id": 4129426665, "lat": -17.3888354, "lon": -66.1497388, "tags": {"access": "private", "addr:city": "Cochabamba", "addr:neighbourhood": "Seminario San Luis", "addr:street": "Avenida Aniceto Arce", "barrier": "gate", "entrance": "yes", "level": "0", "wheelchair": "yes"}}, {"type": "node", "id": 4129426680, "lat": -17.3881183, "lon": -66.1504412}, {"type": "node", "id": 4173546439, "lat": -17.3862427, "lon": -66.1872341, "tags": {"addr:street": "Calle Adrian Pati\u00f1o", "amenity": "pharmacy", "name": "Adrian Pati\u00f1o"}}, {"type": "node", "id": 4218223058, "lat": -17.3880467, "lon": -66.144866}, {"type": "node", "id": 4238852902, "lat": -17.3382589, "lon": -66.217313, "tags": {"addr:city": "Tiquipaya", "addr:street": "Calle Pablo Jaimes", "amenity": "doctors", "healthcare": "doctor", "name": "Consultorio Medico", "phone": "+591-70732645"}}, {"type": "node", "id": 4238852981, "lat": -17.3371029, "lon": -66.2177508}, {"type": "node", "id": 4238852982, "lat": -17.3368232, "lon": -66.2176467}, {"type": "node", "id": 4238852984, "lat": -17.3369314, "lon": -66.2173387}, {"type": "node", "id": 4238852985, "lat": -17.3372111, "lon": -66.2174428}, {"type": "node", "id": 4244817735, "lat": -17.3776846, "lon": -66.1606369, "tags": {"addr:city": "Cochabamba", "addr:neighbourhood": "Portales", "addr:street": "Calle Aniceto Padilla", "amenity": "pharmacy", "healthcare": "pharmacy", "name": "Farmacia F\u00e1tima", "operator": "Farmacia F\u00e1tima"}}, {"type": "node", "id": 4259123119, "lat": -17.3871661, "lon": -66.1597827, "tags": {"addr:city": "Cochabamba", "addr:street": "Avenida Ayacucho", "amenity": "pharmacy", "drive_through": "no", "healthcare": "pharmacy", "name": "Mundo Farma"}}, {"type": "node", "id": 4283931389, "lat": -17.3763185, "lon": -66.1760933, "tags": {"addr:city": "Cochabamba", "addr:neighbourhood": "Jos\u00e9 Mart\u00ed", "addr:street": "Avenida Juan de la Rosa", "amenity": "pharmacy", "brand": "Farmacorp", "brand:wikidata": "Q81968937", "drive_through": "no", "healthcare": "pharmacy", "level": "0", "name": "Farmacorp", "operator": "Farmacorp", "wheelchair": "no"}}, {"type": "node", "id": 4289864133, "lat": -17.3780393, "lon": -66.152546}, {"type": "node", "id": 4337896203, "lat": -17.3560836, "lon": -66.1773855, "tags": {"addr:street": "Avenida Circunvalaci\u00f3n Beijing", "amenity": "pharmacy", "name": "Nuvia"}}, {"type": "node", "id": 4352882594, "lat": -17.3678767, "lon": -66.1477021, "tags": {"addr:street": "Avenida Circunvalaci\u00f3n Beijing", "amenity": "pharmacy", "name": "Carla"}}, {"type": "node", "id": 4358224373, "lat": -17.3728842, "lon": -66.1545113, "tags": {"amenity": "pharmacy", "name": "Farmacias Bolivia", "operator": "Farmacias Bolivia"}}, {"type": "node", "id": 4394293089, "lat": -17.3378459, "lon": -66.2661809, "tags": {"amenity": "pharmacy", "name": "Se\u00f1or de Buen Viaje"}}, {"type": "node", "id": 4409416092, "lat": -17.373586, "lon": -66.1594456, "tags": {"addr:housenumber": "227", "addr:street": "Calle Buenos Aires", "amenity": "clinic", "healthcare": "clinic", "healthcare:speciality": "nephrology", "name": "NEFRODIAL", "phone": "+591 4 4487613", "website": "http://nefrodial.com.bo"}}, {"type": "node", "id": 4414265836, "lat": -17.3871775, "lon": -66.1532891, "tags": {"amenity": "pharmacy", "healthcare": "pharmacy", "name": "Farmacia Evan's"}}, {"type": "node", "id": 4423979189, "lat": -17.3701562, "lon": -66.1513202, "tags": {"addr:city": "Cochabamba", "addr:street": "Avenida Pando", "amenity": "pharmacy", "healthcare": "pharmacy", "name": "Farmacia Pando"}}, {"type": "node", "id": 4433676992, "lat": -17.3527675, "lon": -66.1896411, "tags": {"amenity": "pharmacy", "name": "Pharma"}}, {"type": "node", "id": 4437402917, "lat": -17.3794497, "lon": -66.1453926}, {"type": "node", "id": 4469546009, "lat": -17.3877812, "lon": -66.1531683, "tags": {"addr:city": "Cochabamba", "addr:neighbourhood": "Central Santa Mar\u00eda", "addr:street": "Calle Antezana", "amenity": "pharmacy", "drive_through": "no", "healthcare": "pharmacy", "name": "Farmacia Col\u00f3n 2"}}, {"type": "node", "id": 4478187050, "lat": -17.3854621, "lon": -66.1656094}, {"type": "node", "id": 4491060718, "lat": -17.3875379, "lon": -66.158745, "tags": {"addr:city": "Cochabamba", "addr:neighbourhood": "Barba de Padilla", "addr:street": "Calle Mariano Baptista", "amenity": "pharmacy", "drive_through": "no", "healthcare": "pharmacy", "name": "Farmacia Atenas"}}, {"type": "node", "id": 4491060789, "lat": -17.3866065, "lon": -66.1587207, "tags": {"addr:city": "Cochabamba", "addr:neighbourhood": "Barba de Padilla", "addr:street": "Calle Baptista", "amenity": "pharmacy", "healthcare": "pharmacy", "name": "Farmacia Oruro"}}, {"type": "node", "id": 4491061048, "lat": -17.3845045, "lon": -66.1546801}, {"type": "node", "id": 4534512109, "lat": -17.3456037, "lon": -66.2040575, "tags": {"addr:city": "Tiquipaya", "addr:street": "Avenida Ecol\u00f3gica", "amenity": "pharmacy", "healthcare": "pharmacy", "name": "Farmacia Farmacys"}}, {"type": "node", "id": 4557864359, "lat": -17.3791488, "lon": -66.1540032, "tags": {"amenity": "doctors", "healthcare": "doctor", "name": "APS"}}, {"type": "node", "id": 4576606489, "lat": -17.3660351, "lon": -66.1473284, "tags": {"addr:city": "Cochabamba", "addr:street": "Calle Los Lirios", "amenity": "pharmacy", "healthcare": "pharmacy", "name": "Farmacia Mas Vida"}}, {"type": "node", "id": 4586488270, "lat": -17.3856408, "lon": -66.2404577}, {"type": "node", "id": 4588039250, "lat": -17.3569715, "lon": -66.1766498, "tags": {"amenity": "pharmacy"}}, {"type": "node", "id": 4588039251, "lat": -17.3562175, "lon": -66.1772693, "tags": {"amenity": "pharmacy"}}, {"type": "node", "id": 4590982290, "lat": -17.3732556, "lon": -66.1573384, "tags": {"addr:city": "Cochabamba", "addr:housenumber": "161", "addr:street": "Avenida Am\u00e9rica", "amenity": "doctors", "description": "servicios m\u00e9dicos y ambulancias", "email": "medicar161@outlook.com", "emergency": "yes", "healthcare": "doctor", "name": "MEDICAR", "opening_hours": "24/7", "phone": "+591 4 4248381", "website": "http://www.medicar.com.bo"}}, {"type": "node", "id": 4603068800, "lat": -17.387786, "lon": -66.1540947, "tags": {"addr:city": "Cochabamba", "addr:housenumber": "N0454", "addr:neighbourhood": "Central Santa Mar\u00eda", "addr:street": "Calle Jos\u00e9 Miguel Lanza", "amenity": "doctors", "healthcare": "doctor", "name": "San Francisco de As\u00eds"}}, {"type": "node", "id": 4607916615, "lat": -17.370505, "lon": -66.1236192}, {"type": "node", "id": 4608664730, "lat": -17.3704303, "lon": -66.1236195}, {"type": "node", "id": 4608664733, "lat": -17.3703137, "lon": -66.1236238}, {"type": "node", "id": 4613497302, "lat": -17.3638619, "lon": -66.1793015, "tags": {"addr:city": "Cochabamba", "addr:street": "Avenida Sim\u00f3n L\u00f3pez", "amenity": "pharmacy", "branch": "Sucursal Sim\u00f3n L\u00f3pez", "brand": "Farmacorp", "brand:wikidata": "Q81968937", "check_date": "2024-07-26", "contact:website": "https://www.farmacorp.com/", "drive_through": "no", "name": "Farmacorp", "opening_hours": "24/7", "operator": "Farmacorp SA"}}, {"type": "node", "id": 4625415445, "lat": -17.3814939, "lon": -66.1533362, "tags": {"addr:city": "Cochabamba", "addr:housenumber": "761", "addr:neighbourhood": "Central Santa Mar\u00eda", "addr:street": "Avenida Papa Paulo III", "amenity": "doctors", "description": "consultorio de acupuntura y homeopat\u00eda", "healthcare": "alternative", "healthcare:speciality": "acupuncture", "name": "ACUHOMED"}}, {"type": "node", "id": 4635262519, "lat": -17.3762079, "lon": -66.1689736, "tags": {"addr:city": "Cochabamba", "addr:neighbourhood": "Salom\u00f3n Klein", "addr:street": "Avenida Jaime Mendoza", "amenity": "pharmacy", "drive_through": "no", "healthcare": "pharmacy", "name": "Farmacia Tu Soluci\u00f3n"}}, {"type": "node", "id": 4635262792, "lat": -17.377908, "lon": -66.1613388, "tags": {"addr:city": "Cochabamba", "addr:neighbourhood": "Magisterio 6 de Junio", "addr:street": "Avenida Libertador Sim\u00f3n Bol\u00edvar", "amenity": "pharmacy", "brand": "Farmacorp", "brand:wikidata": "Q81968937", "dispensing": "yes", "drive_through": "no", "healthcare": "pharmacy", "name": "Farmacorp", "operator": "Farmacorp"}}, {"type": "node", "id": 4647984245, "lat": -17.3855583, "lon": -66.1490747, "tags": {"addr:city": "Cochabamba", "addr:neighbourhood": "Seminario San Luis", "addr:street": "Calle Venezuela", "amenity": "pharmacy", "drive_through": "no", "healthcare": "pharmacy", "name": "Farmacia La Luz"}}, {"type": "node", "id": 4648025693, "lat": -17.3841863, "lon": -66.1589324, "tags": {"addr:city": "Cochabamba", "addr:neighbourhood": "Barba de Padilla", "addr:street": "Avenida Jos\u00e9 Ballivi\u00e1n", "amenity": "pharmacy", "brand": "Farmacia Hipermaxi", "brand:wikidata": "Q81970238", "dispensing": "yes", "drive_through": "no", "healthcare": "pharmacy", "name": "Farmacia Hipermaxi", "operator": "Hipermaxi"}}, {"type": "node", "id": 4650379532, "lat": -17.3725721, "lon": -66.1723717, "tags": {"amenity": "clinic", "healthcare": "clinic", "healthcare:speciality": "physiotherapy", "name": "Fisio Sana"}}, {"type": "node", "id": 4655848255, "lat": -17.3828915, "lon": -66.1455661, "tags": {"addr:city": "Cochabamba", "addr:street": "Avenida Aniceto Arce", "amenity": "pharmacy", "drive_through": "no", "healthcare": "pharmacy", "opening_hours": "08:00-21:00"}}, {"type": "node", "id": 4665940077, "lat": -17.3713948, "lon": -66.1755549}, {"type": "node", "id": 4665940078, "lat": -17.3714037, "lon": -66.1753888}, {"type": "node", "id": 4665940079, "lat": -17.3715104, "lon": -66.1753969}, {"type": "node", "id": 4768582722, "lat": -17.3761185, "lon": -66.1617961, "tags": {"addr:city": "Cochabamba", "addr:street": "Avenida Libertador Sim\u00f3n Bol\u00edvar", "amenity": "pharmacy", "drive_through": "no", "healthcare": "pharmacy", "name": "Farmacia La Esmeralda"}}, {"type": "node", "id": 4787417906, "lat": -17.3876139, "lon": -66.1530806, "tags": {"addr:city": "Cochabamba", "addr:street": "Calle Antezana", "amenity": "pharmacy", "drive_through": "no", "healthcare": "pharmacy", "name": "Farmacia La Salud"}}, {"type": "node", "id": 4789262942, "lat": -17.3872051, "lon": -66.1541052, "tags": {"addr:city": "Cochabamba", "addr:neighbourhood": "Central Santa Mar\u00eda", "addr:street": "Calle Coronel Eduardo Paccieri", "amenity": "pharmacy", "drive_through": "no", "healthcare": "pharmacy", "name": "Farmadermia", "operator": "Farmadermia"}}, {"type": "node", "id": 4789262945, "lat": -17.3860242, "lon": -66.1540889, "tags": {"addr:city": "Cochabamba", "addr:housenumber": "674", "addr:neighbourhood": "Central Santa Mar\u00eda", "addr:street": "Avenida Salamanca", "amenity": "doctors", "branch": "Central", "brand": "Audioprot", "contact:whatsapp": "+591 78301202", "description": "Centro audiol\u00f3gico especializado en diagn\u00f3stico y rehabilitaci\u00f3n auditiva, provisto de equipos e insumos m\u00e9dicos de \u00faltima tecnolog\u00eda.", "email": "oir@audioprot.com;info@audioprot.net", "healthcare": "audiologist", "healthcare:speciality": "otolaryngology", "level": "0", "name": "Audioprot", "opening_hours": "Mo-Fr 08:30-12:30,14:30-18:30; Sa 09:00-12:30", "operator": "Audioprot", "operator:type": "private", "payment:cash": "yes", "phone": "+591 4 4250774;+591 78301202", "website": "https://www.audioprot.com/", "wheelchair": "no"}}, {"type": "node", "id": 4790009224, "lat": -17.3781878, "lon": -66.1736906, "tags": {"addr:city": "Cochabamba", "addr:housenumber": "1395", "addr:neighbourhood": "Verbo Divino", "addr:street": "Avenida Gabriel Ren\u00e9 Moreno", "amenity": "clinic", "contact:facebook": "https://www.facebook.com/centrodesaludannieatai/", "emergency": "yes", "healthcare": "clinic", "healthcare:speciality": "general;nursery;gynaecology;paediatrics;cardiology;trauma;orthopaedics;neurology;gastroenterology;urology;endocrinology;diagnostic_radiology;psychiatry;nutrition;physiotherapy;psychology;otolaryngology", "level": "0", "name": "Centro Medicos Unidos Annie Attai", "opening_hours": "Mo-Fr 07:00-20:00; Sa 07:00-12:00; Su,PH \"by appointment\"", "operator": "Centro Medicos Unidos Annie Attai", "operator:type": "private", "payment:cash": "yes", "website": "https://medicosunidosaa.com.bo/", "wheelchair": "yes"}}, {"type": "node", "id": 4790144723, "lat": -17.36093, "lon": -66.284298, "tags": {"addr:city": "Quillacollo", "amenity": "hospital", "healthcare": "hospital", "healthcare:speciality": "general", "name": "Hospital San Jos\u00e9 Obrero"}}, {"type": "node", "id": 4792471056, "lat": -17.3453226, "lon": -66.2046447, "tags": {"addr:city": "Tiquipaya", "addr:neighbourhood": "Trojes", "addr:street": "Avenida Ecol\u00f3gica", "amenity": "pharmacy", "healthcare": "pharmacy", "name": "El Buen Pastor"}}, {"type": "node", "id": 4806293648, "lat": -17.3735441, "lon": -66.1244144}, {"type": "node", "id": 4806920996, "lat": -17.3846692, "lon": -66.1529691, "tags": {"addr:city": "Cochabamba", "addr:housenumber": "834", "addr:neighbourhood": "Central Santa Mar\u00eda", "addr:street": "Plaza Constituci\u00f3n", "amenity": "doctors", "contact:phone": "+591 4 4 4663344;+591 4 4663634;+591 4 4663400;+591 75990038", "email": "info@dynamicadiagnostico.com", "healthcare": "centre", "healthcare:speciality": "diagnostic_radiology;radiology", "level": "2", "name": "Dynamica", "opening_hours": "Mo-Fr 08:00-20:00; Sa 08:00-12:00", "operator": "Dr. E. Rodrigo Encinas Escobar", "reservation": "yes", "website": "https://www.dynamicadiagnostico.com/", "wheelchair": "yes"}}, {"type": "node", "id": 4806920997, "lat": -17.3868926, "lon": -66.1520794, "tags": {"addr:city": "Cochabamba", "addr:neighbourhood": "Central Santa Mar\u00eda", "addr:street": "Calle 16 de Julio", "amenity": "pharmacy", "drive_through": "no", "healthcare": "pharmacy", "name": "BioFarma", "operator": "BioFarma"}}, {"type": "node", "id": 4829411522, "lat": -17.3458004, "lon": -66.1916994, "tags": {"amenity": "pharmacy"}}, {"type": "node", "id": 4829411523, "lat": -17.3465122, "lon": -66.1906318, "tags": {"amenity": "pharmacy"}}, {"type": "node", "id": 4831829276, "lat": -17.3821833, "lon": -66.1200719, "tags": {"amenity": "pharmacy", "healthcare": "pharmacy"}}, {"type": "node", "id": 4868995984, "lat": -17.3879019, "lon": -66.1579569, "tags": {"amenity": "pharmacy", "healthcare": "pharmacy"}}, {"type": "node", "id": 4892045617, "lat": -17.3887293, "lon": -66.1109212, "tags": {"amenity": "pharmacy"}}, {"type": "node", "id": 4892048321, "lat": -17.3722182, "lon": -66.1639809, "tags": {"addr:city": "Cochabamba", "addr:housenumber": "236", "addr:neighbourhood": "Santa Ana de Cala Cala", "addr:street": "Avenida Am\u00e9rica", "amenity": "pharmacy", "branch": "Sucursal Adela Zamudio", "brand": "Farmacorp", "brand:wikidata": "Q81968937", "contact:website": "https://www.farmacorp.com/", "drive_through": "no", "healthcare": "pharmacy", "level": "0", "name": "Farmacorp", "opening_hours": "24/7", "operator": "Farmacorp"}}, {"type": "node", "id": 4903478550, "lat": -17.3679401, "lon": -66.1943627, "tags": {"amenity": "pharmacy", "name": "Divino Maestro"}}, {"type": "node", "id": 4920061351, "lat": -17.3696688, "lon": -66.1886303, "tags": {"amenity": "pharmacy", "name": "Coral"}}, {"type": "node", "id": 4953974707, "lat": -17.3848045, "lon": -66.1096211, "tags": {"amenity": "pharmacy", "healthcare": "pharmacy"}}, {"type": "node", "id": 4953974769, "lat": -17.3878595, "lon": -66.1486571, "tags": {"addr:city": "Cochabamba", "addr:housenumber": "380", "addr:neighbourhood": "San Pedro", "addr:street": "Avenida Aniceto Arce", "amenity": "pharmacy", "contact:facebook": "https://www.facebook.com/farmacentercbba/", "contact:whatsapp": "+591 71470209", "dispensing": "yes", "drive_through": "no", "email": "farmacentercbba@gmail.com", "healthcare": "pharmacy", "name": "Farma Center", "opening_hours": "Mo-Fr 08:00-20:00; Sa 08:00-12:00", "operator": "Farmacia Farma Center", "phone": "+591 67529684"}}, {"type": "node", "id": 4965282159, "lat": -17.3789735, "lon": -66.1455276}, {"type": "node", "id": 4965282160, "lat": -17.3791862, "lon": -66.1454698}, {"type": "node", "id": 4965282165, "lat": -17.3786558, "lon": -66.1456154}, {"type": "node", "id": 4965282180, "lat": -17.3788173, "lon": -66.1444866}, {"type": "node", "id": 4965282181, "lat": -17.3790814, "lon": -66.1443799}, {"type": "node", "id": 4965282186, "lat": -17.3787699, "lon": -66.144762}, {"type": "node", "id": 4965282215, "lat": -17.379311, "lon": -66.1443124}, {"type": "node", "id": 4965335916, "lat": -17.3864666, "lon": -66.1483846, "tags": {"addr:city": "Cochabamba", "addr:housenumber": "435", "addr:neighbourhood": "Seminario San Luis", "addr:street": "Avenida Aniceto Arce", "amenity": "hospital", "emergency": "yes", "healthcare": "hospital", "healthcare:speciality": "obstetrics;gynaecology;paediatrics", "name": "Hospital Materno Infantil Germ\u00e1n Urquidi", "wheelchair": "yes"}}, {"type": "node", "id": 4981436363, "lat": -17.3763297, "lon": -66.1558503, "tags": {"addr:city": "Cochabamba", "addr:street": "Calle Pedro Blanco", "amenity": "clinic", "healthcare": "clinic", "healthcare:speciality": "general", "name": "FisioPlus"}}, {"type": "node", "id": 4989092564, "lat": -17.3861472, "lon": -66.1493518, "tags": {"access": "yes", "addr:city": "Cochabamba", "addr:neighbourhood": "Seminario San Luis", "addr:street": "Calle Venezuela", "door": "double", "entrance": "main", "level": "0", "wheelchair": "limited"}}, {"type": "node", "id": 4989092565, "lat": -17.3862448, "lon": -66.149233, "tags": {"access": "yes", "addr:city": "Cochabamba", "addr:neighbourhood": "Seminario San Luis", "addr:street": "Calle Venezuela", "door": "double", "entrance": "main", "level": "0", "wheelchair": "yes"}}, {"type": "node", "id": 4989092573, "lat": -17.3872952, "lon": -66.1485868, "tags": {"barrier": "gate", "emergency": "emergency_ward_entrance", "entrance": "yes", "foot": "yes", "level": "0"}}, {"type": "node", "id": 4989092574, "lat": -17.3860825, "lon": -66.1477269}, {"type": "node", "id": 4989092575, "lat": -17.3860686, "lon": -66.1476992}, {"type": "node", "id": 4989092576, "lat": -17.3859892, "lon": -66.1476536}, {"type": "node", "id": 4989092577, "lat": -17.3859509, "lon": -66.1476456}, {"type": "node", "id": 4989092578, "lat": -17.3859163, "lon": -66.1476657}, {"type": "node", "id": 4989092581, "lat": -17.385055, "lon": -66.148292}, {"type": "node", "id": 4989092582, "lat": -17.3850447, "lon": -66.1483188}, {"type": "node", "id": 4989092583, "lat": -17.3850511, "lon": -66.148347}, {"type": "node", "id": 4989092585, "lat": -17.3873273, "lon": -66.1486065}, {"type": "node", "id": 4989092587, "lat": -17.3873451, "lon": -66.1486009}, {"type": "node", "id": 4989092588, "lat": -17.3888281, "lon": -66.149709}, {"type": "node", "id": 4989092589, "lat": -17.3888397, "lon": -66.1497934}, {"type": "node", "id": 4989092590, "lat": -17.3888479, "lon": -66.1499997, "tags": {"access": "yes", "addr:city": "Cochabamba", "addr:neighbourhood": "Seminario San Luis", "addr:street": "Avenida Aniceto Arce", "barrier": "gate", "entrance": "main", "level": "0", "wheelchair": "yes"}}, {"type": "node", "id": 4989092591, "lat": -17.3888471, "lon": -66.1500558}, {"type": "node", "id": 4989092592, "lat": -17.3887495, "lon": -66.1503161}, {"type": "node", "id": 4989092594, "lat": -17.388203, "lon": -66.1504405}, {"type": "node", "id": 4989092595, "lat": -17.3878517, "lon": -66.1504654}, {"type": "node", "id": 4989092598, "lat": -17.3880333, "lon": -66.1490722, "tags": {"access": "yes", "addr:city": "Cochabamba", "addr:neighbourhood": "Seminario San Luis", "addr:street": "Avenida Aniceto Arce", "door": "hinged", "entrance": "main", "level": "0", "wheelchair": "no"}}, {"type": "node", "id": 4989092599, "lat": -17.3887195, "lon": -66.1495532, "tags": {"barrier": "gate", "entrance": "yes"}}, {"type": "node", "id": 4989092605, "lat": -17.3887911, "lon": -66.1496272}, {"type": "node", "id": 4989092610, "lat": -17.3884487, "lon": -66.1493562}, {"type": "node", "id": 4989092611, "lat": -17.3885703, "lon": -66.1494434}, {"type": "node", "id": 4989092620, "lat": -17.3872732, "lon": -66.1485569}, {"type": "node", "id": 4989094421, "lat": -17.3872656, "lon": -66.1485688}, {"type": "node", "id": 4989094426, "lat": -17.3867316, "lon": -66.1481713}, {"type": "node", "id": 4989094427, "lat": -17.3868301, "lon": -66.1482384}, {"type": "node", "id": 4989094460, "lat": -17.3854814, "lon": -66.1487415, "tags": {"entrance": "yes"}}, {"type": "node", "id": 4989094461, "lat": -17.3856784, "lon": -66.148922, "tags": {"entrance": "main"}}, {"type": "node", "id": 4989094464, "lat": -17.3859937, "lon": -66.1492085}, {"type": "node", "id": 4989094465, "lat": -17.3863275, "lon": -66.14952}, {"type": "node", "id": 4989094478, "lat": -17.3851675, "lon": -66.1482249}, {"type": "node", "id": 4989094479, "lat": -17.3852637, "lon": -66.1481705}, {"type": "node", "id": 4989094489, "lat": -17.3852364, "lon": -66.1485128}, {"type": "node", "id": 4989094490, "lat": -17.3854023, "lon": -66.1486687}, {"type": "node", "id": 4989094511, "lat": -17.3863521, "lon": -66.149069}, {"type": "node", "id": 4989094808, "lat": -17.3879474, "lon": -66.1505299}, {"type": "node", "id": 4989094809, "lat": -17.3878793, "lon": -66.1505302}, {"type": "node", "id": 4989094814, "lat": -17.3883725, "lon": -66.1502331}, {"type": "node", "id": 4989094817, "lat": -17.3884318, "lon": -66.1503576}, {"type": "node", "id": 4989094818, "lat": -17.3883663, "lon": -66.1501352}, {"type": "node", "id": 4989094819, "lat": -17.3881359, "lon": -66.1502634}, {"type": "node", "id": 5002506120, "lat": -17.3883555, "lon": -66.1477723}, {"type": "node", "id": 5039918715, "lat": -17.3781139, "lon": -66.1527149}, {"type": "node", "id": 5039918716, "lat": -17.3781238, "lon": -66.1525505}, {"type": "node", "id": 5057533455, "lat": -17.3856738, "lon": -66.1741928, "tags": {"addr:city": "Cochabamba", "addr:neighbourhood": "Excombatientes", "addr:street": "Avenida Excombatientes", "amenity": "pharmacy", "drive_through": "no", "healthcare": "pharmacy", "level": "0"}}, {"type": "node", "id": 5091127510, "lat": -17.3866896, "lon": -66.1469893}, {"type": "node", "id": 5091127516, "lat": -17.3867275, "lon": -66.1469255}, {"type": "node", "id": 5091127517, "lat": -17.3867966, "lon": -66.1468095}, {"type": "node", "id": 5104335709, "lat": -17.3815601, "lon": -66.1750444, "tags": {"addr:city": "Cochabamba", "addr:street": "Calle Idelfonso Murgu\u00eda", "amenity": "pharmacy", "drive_through": "no", "healthcare": "pharmacy", "name": "Farmacia Shalom"}}, {"type": "node", "id": 5117996748, "lat": -17.3847302, "lon": -66.1599138, "tags": {"addr:city": "Cochabamba", "addr:neighbourhood": "Barba de Padilla", "addr:street": "Calle Baptista", "amenity": "clinic", "healthcare": "clinic", "healthcare:speciality": "general"}}, {"type": "node", "id": 5117996751, "lat": -17.3866792, "lon": -66.1585579, "tags": {"addr:city": "Cochabamba", "addr:neighbourhood": "Barba de Padilla", "amenity": "clinic", "healthcare": "clinic", "healthcare:speciality": "general", "name": "Paracelsus"}}, {"type": "node", "id": 5117996863, "lat": -17.3852979, "lon": -66.1611486, "tags": {"amenity": "clinic", "healthcare": "clinic", "healthcare:speciality": "general", "name": "Fisio"}}, {"type": "node", "id": 5117996881, "lat": -17.3866716, "lon": -66.1584068, "tags": {"addr:city": "Cochabamba", "addr:neighbourhood": "Barba de Padilla", "amenity": "clinic", "healthcare": "clinic", "healthcare:speciality": "general", "name": "Cl\u00ednica La Paz"}}, {"type": "node", "id": 5117996922, "lat": -17.3847668, "lon": -66.159875, "tags": {"addr:city": "Cochabamba", "addr:neighbourhood": "Barba de Padilla", "addr:street": "Calle Baptista", "amenity": "pharmacy", "drive_through": "no", "healthcare": "pharmacy", "name": "InterFarma"}}, {"type": "node", "id": 5183092589, "lat": -17.3720881, "lon": -66.1427943, "tags": {"addr:housenumber": "1399", "addr:street": "Avenida General Galindo", "amenity": "clinic", "contact:phone": "+591 70386309", "healthcare": "clinic", "healthcare:speciality": "immunology;alergies"}}, {"type": "node", "id": 5218987332, "lat": -17.3744931, "lon": -66.1491176, "tags": {"addr:city": "Cochabamba", "addr:housenumber": "926", "addr:street": "Calle Buenos Aires", "amenity": "doctors", "healthcare": "doctor", "name": "Estetica Medica"}}, {"type": "node", "id": 5275305385, "lat": -17.2736386, "lon": -66.2154027, "tags": {"addr:city": "Jampina Huasi", "amenity": "hospital", "description": "Centro de Salud 1er Nivel", "emergency": "yes", "healthcare": "hospital", "healthcare:speciality": "general", "name": "C.S. Jampina Huasi (1er Nivel)", "operator": "Ministerio de Salud y Deportes", "operator:short": "MinSalud", "operator:type": "government", "operator:wikidata": "Q44225411", "operator:wikipedia": "es:Ministerio de Salud y Deportes (Bolivia)"}}, {"type": "node", "id": 5294900421, "lat": -17.373213, "lon": -66.1164991, "tags": {"addr:city": "Cochabamba", "addr:street": "Avenida Circunvalaci\u00f3n Beijing", "amenity": "pharmacy", "healthcare": "pharmacy", "name": "Farmacia Zurich"}}, {"type": "node", "id": 5296636047, "lat": -17.3844521, "lon": -66.1477503, "tags": {"addr:city": "Cochabamba", "addr:neighbourhood": "Seminario San Luis", "addr:street": "Calle Venezuela", "amenity": "pharmacy", "dispensing": "yes", "drive_through": "no", "healthcare": "pharmacy", "name": "Farmacia San Expedito", "operator": "Farmacia San Expedito"}}, {"type": "node", "id": 5296639688, "lat": -17.3847569, "lon": -66.1480535, "tags": {"addr:city": "Cochabamba", "addr:neighbourhood": "Seminario San Luis", "addr:street": "Calle Venezuela", "amenity": "pharmacy", "dispensing": "yes", "drive_through": "no", "healthcare": "pharmacy", "name": "Farmacia Gexis", "operator": "Farmacia Gexis"}}, {"type": "node", "id": 5311511048, "lat": -17.3874937, "lon": -66.145795, "tags": {"addr:city": "Cochabamba", "addr:street": "Pasaje Henry Mettewi", "amenity": "doctors", "healthcare": "doctor", "name": "M\u00e9dico Oftalm\u00f3logo"}}, {"type": "node", "id": 5319274254, "lat": -17.3827198, "lon": -66.1523329, "tags": {"addr:city": "Cochabamba", "addr:neighbourhood": "Central Santa Mar\u00eda", "addr:street": "Plazuela Quintanilla", "amenity": "pharmacy", "branch": "Sucursal Quintanilla", "brand": "Farmacorp", "brand:wikidata": "Q81968937", "contact:website": "https://www.farmacorp.com/", "dispensing": "yes", "drive_through": "no", "healthcare": "pharmacy", "name": "Farmacorp", "opening_hours": "24/7", "operator": "Farmacorp", "wheelchair": "yes"}}, {"type": "node", "id": 5324988603, "lat": -17.3867487, "lon": -66.147894, "tags": {"addr:city": "Cochabamba", "addr:neighbourhood": "San Pedro", "addr:street": "Avenida Aniceto Arce", "amenity": "pharmacy", "drive_through": "no", "healthcare": "pharmacy", "name": "Farmacia Germ\u00e1n Urquidi", "operator": "Farmacia Germ\u00e1n Urquidi"}}, {"type": "node", "id": 5324988636, "lat": -17.3868192, "lon": -66.1478994, "tags": {"addr:city": "Cochabamba", "addr:neighbourhood": "San Pedro", "addr:street": "Avenida Aniceto Arce", "amenity": "doctors", "healthcare": "doctor", "healthcare:speciality": "diagnostic_radiology", "name": "Jose Monta\u00f1o Uzin"}}, {"type": "node", "id": 5350197568, "lat": -17.3876277, "lon": -66.1591205}, {"type": "node", "id": 5350275952, "lat": -17.3843164, "lon": -66.157756}, {"type": "node", "id": 5350275953, "lat": -17.3843829, "lon": -66.1578566}, {"type": "node", "id": 5350275954, "lat": -17.3842214, "lon": -66.1579737}, {"type": "node", "id": 5351187232, "lat": -17.3860149, "lon": -66.1496249, "tags": {"addr:city": "Cochabamba", "addr:neighbourhood": "Seminario San Luis", "addr:street": "Calle Venezuela", "amenity": "pharmacy", "drive_through": "no", "healthcare": "pharmacy", "name": "Farmacia Jesus", "opening_hours": "Mo-Su 09:00-21:00"}}, {"type": "node", "id": 5353106744, "lat": -17.3875038, "lon": -66.1487093}, {"type": "node", "id": 5353106761, "lat": -17.3866999, "lon": -66.1498702, "tags": {"access": "yes", "addr:city": "Cochabamba", "addr:neighbourhood": "Seminario San Luis", "addr:street": "Calle Venezuela", "entrance": "yes", "level": "0", "wheelchair": "yes"}}, {"type": "node", "id": 5377654892, "lat": -17.3769696, "lon": -66.1449004, "tags": {"addr:city": "Cochabamba", "addr:neighbourhood": "Bajo Aranjuez", "addr:street": "Avenida Uyuni", "amenity": "pharmacy", "branch": "Sucursal Home Center F\u00e1cil", "brand": "FarmaEl\u00edas", "brand:wikidata": "Q81969487", "drive_through": "no", "healthcare": "pharmacy", "name": "FarmaEl\u00edas", "opening_hours": "24/7", "operator": "FarmaEl\u00edas"}}, {"type": "node", "id": 5381264821, "lat": -17.3765951, "lon": -66.1737089, "tags": {"addr:city": "Cochabamba", "addr:neighbourhood": "Verbo Divino", "addr:street": "Avenida Juan de la Rosa", "amenity": "clinic", "healthcare": "clinic", "healthcare:speciality": "general;vaccination;dentist;internal;gynaecology;laboratory", "name": "Policonsultorio Parroquial Verbo Divino", "opening_hours": "Mo-Fr 09:00-18:00"}}, {"type": "node", "id": 5402909279, "lat": -17.3745235, "lon": -66.1500482, "tags": {"addr:city": "Cochabamba", "addr:housenumber": "866", "addr:neighbourhood": "Recoleta", "addr:street": "Calle Buenos Aires", "amenity": "clinic", "healthcare": "clinic", "healthcare:speciality": "radiology", "level": "0", "name": "Imagen", "operator": "Imagen", "operator:type": "private"}}, {"type": "node", "id": 5434451754, "lat": -17.379583, "lon": -66.1604424}, {"type": "node", "id": 5434451863, "lat": -17.3774789, "lon": -66.1610242, "tags": {"addr:city": "Cochabamba", "addr:neighbourhood": "Portales", "addr:street": "Avenida Libertador Sim\u00f3n Bol\u00edvar", "amenity": "pharmacy", "brand": "FarmaEl\u00edas", "brand:wikidata": "Q81969487", "contact:mobile": "+591-79951135", "drive_through": "no", "healthcare": "pharmacy", "level": "0", "name": "FarmaEl\u00edas", "operator": "FarmaEl\u00edas", "payment:cash": "yes", "phone": "+591-4-4253522", "wheelchair": "yes"}}, {"type": "node", "id": 5443799408, "lat": -17.2724754, "lon": -66.4922005, "tags": {"addr:city": "Pata Morochata", "addr:street": "RN25: Vinto-Morochata", "amenity": "hospital", "description": "Puesto de Salud 1er Nivel", "fixme": "exact_location", "healthcare": "hospital", "name": "P.S. Pata Morochata (1er Nivel)"}}, {"type": "node", "id": 5481561695, "lat": -17.3797577, "lon": -66.1652871, "tags": {"addr:city": "Cochabamba", "addr:neighbourhood": "Magisterio 6 de Junio", "addr:street": "Avenida Felix Aranibar", "amenity": "pharmacy", "dispensing": "yes", "drive_through": "no", "healthcare": "pharmacy", "name": "Farmacia Gerardo", "operator": "Farmacia Gerardo"}}, {"type": "node", "id": 5481562769, "lat": -17.3808781, "lon": -66.1662416, "tags": {"amenity": "doctors", "name": "Intermedic"}}, {"type": "node", "id": 5517732389, "lat": -17.3776458, "lon": -66.1541411}, {"type": "node", "id": 5517732390, "lat": -17.377949, "lon": -66.1541664}, {"type": "node", "id": 5517732391, "lat": -17.3779307, "lon": -66.1544598}, {"type": "node", "id": 5517732394, "lat": -17.3776543, "lon": -66.1544232}, {"type": "node", "id": 5519533351, "lat": -17.3747859, "lon": -66.2008934, "tags": {"amenity": "clinic", "healthcare": "clinic", "name": "Centro Medico Punata"}}, {"type": "node", "id": 5520577460, "lat": -17.3847853, "lon": -66.1484769, "tags": {"addr:city": "Cochabamba", "addr:neighbourhood": "Seminario San Luis", "addr:street": "Calle Coronel Eduardo Paccieri", "amenity": "pharmacy", "drive_through": "no", "healthcare": "pharmacy", "name": "MaxiFarm", "operator": "MaxiFarm"}}, {"type": "node", "id": 5521142144, "lat": -17.3860482, "lon": -66.1665831, "tags": {"amenity": "pharmacy", "dispensing": "yes", "healthcare": "pharmacy"}}, {"type": "node", "id": 5521168815, "lat": -17.3863713, "lon": -66.1666153, "tags": {"amenity": "pharmacy", "dispensing": "yes", "healthcare": "pharmacy", "name": "Farmacia Tadeo Haenke"}}, {"type": "node", "id": 5521827713, "lat": -17.3852137, "lon": -66.1487615, "tags": {"addr:city": "Cochabamba", "addr:street": "Calle Venezuela", "amenity": "pharmacy", "contact:phone": "+591 4 4532326", "dispensing": "yes", "drive_through": "no", "healthcare": "pharmacy", "name": "Farmacia Ventura"}}, {"type": "node", "id": 5521827822, "lat": -17.3853749, "lon": -66.1488708, "tags": {"addr:city": "Cochabamba", "addr:street": "Calle Venezuela", "amenity": "doctors", "contact:phone": "+591-4-4531273", "healthcare": "doctor", "healthcare:speciality": "pulmonology", "mobile": "+591-70722127", "name": "Dr. Victor H. Garcia Paredes"}}, {"type": "node", "id": 5539303817, "lat": -17.3873396, "lon": -66.1504511}, {"type": "node", "id": 5539303819, "lat": -17.3874263, "lon": -66.1505322}, {"type": "node", "id": 5539304121, "lat": -17.3875057, "lon": -66.1505792}, {"type": "node", "id": 5541052600, "lat": -17.3630943, "lon": -66.1613665, "tags": {"amenity": "pharmacy", "dispensing": "yes", "healthcare": "pharmacy"}}, {"type": "node", "id": 5541740088, "lat": -17.3874586, "lon": -66.1536867}, {"type": "node", "id": 5541740092, "lat": -17.3873644, "lon": -66.1532627}, {"type": "node", "id": 5543865520, "lat": -17.3868161, "lon": -66.1467819}, {"type": "node", "id": 5543915999, "lat": -17.3878888, "lon": -66.1487414}, {"type": "node", "id": 5543916000, "lat": -17.3881013, "lon": -66.1482828}, {"type": "node", "id": 5543916001, "lat": -17.3878382, "lon": -66.1481147}, {"type": "node", "id": 5543916002, "lat": -17.3879874, "lon": -66.1476925}, {"type": "node", "id": 5543916003, "lat": -17.3883319, "lon": -66.1478212}, {"type": "node", "id": 5543916004, "lat": -17.3883657, "lon": -66.1477515}, {"type": "node", "id": 5543916005, "lat": -17.3887984, "lon": -66.1479918}, {"type": "node", "id": 5543916006, "lat": -17.3885166, "lon": -66.1484425}, {"type": "node", "id": 5543916007, "lat": -17.3884057, "lon": -66.1483658}, {"type": "node", "id": 5543916008, "lat": -17.3880328, "lon": -66.1488321}, {"type": "node", "id": 5546249730, "lat": -17.3858589, "lon": -66.1575599}, {"type": "node", "id": 5546249736, "lat": -17.3857452, "lon": -66.1576443}, {"type": "node", "id": 5547049405, "lat": -17.3808747, "lon": -66.167958}, {"type": "node", "id": 5547049410, "lat": -17.3809812, "lon": -66.1680318}, {"type": "node", "id": 5547049413, "lat": -17.3809401, "lon": -66.1680315}, {"type": "node", "id": 5547049414, "lat": -17.3807746, "lon": -66.1681521}, {"type": "node", "id": 5547049415, "lat": -17.3809263, "lon": -66.1681519}, {"type": "node", "id": 5550071016, "lat": -17.3738815, "lon": -66.1372456, "tags": {"addr:city": "Cochabamba", "addr:neighbourhood": "El Pueblito", "addr:street": "Avenida Am\u00e9rica", "amenity": "pharmacy", "brand": "Farmacias Nacionales", "dispensing": "yes", "drive_through": "no", "healthcare": "pharmacy", "name": "Farmacias Nacionales", "operator": "Farmacias Nacionales"}}, {"type": "node", "id": 5557620219, "lat": -17.3818461, "lon": -66.1936175, "tags": {"amenity": "pharmacy", "dispensing": "yes", "healthcare": "pharmacy", "name": "bassanelly"}}, {"type": "node", "id": 5559406750, "lat": -17.3825393, "lon": -66.1500792}, {"type": "node", "id": 5559440133, "lat": -17.382682, "lon": -66.1477894, "tags": {"amenity": "hospital", "healthcare": "doctor"}}, {"type": "node", "id": 5559440135, "lat": -17.3811568, "lon": -66.1483531, "tags": {"addr:city": "Cochabamba", "addr:street": "Calle Fray Domingo de Santo Tom\u00e1s", "amenity": "clinic", "healthcare": "clinic"}}, {"type": "node", "id": 5559490861, "lat": -17.3834071, "lon": -66.1478701, "tags": {"amenity": "doctors", "healthcare": "doctor"}}, {"type": "node", "id": 5559490863, "lat": -17.3809132, "lon": -66.1488044, "tags": {"addr:city": "Cochabamba", "amenity": "clinic", "healthcare": "doctor", "healthcare:speciality": "nephrology", "name": "BIE"}}, {"type": "node", "id": 5562083353, "lat": -17.3851921, "lon": -66.1678379, "tags": {"amenity": "pharmacy", "dispensing": "yes", "healthcare": "pharmacy"}}, {"type": "node", "id": 5562273840, "lat": -17.3752068, "lon": -66.1428865, "tags": {"amenity": "pharmacy", "dispensing": "yes", "healthcare": "pharmacy"}}, {"type": "node", "id": 5562728317, "lat": -17.3582129, "lon": -66.1839565}, {"type": "node", "id": 5562728318, "lat": -17.3582547, "lon": -66.1839712}, {"type": "node", "id": 5562728319, "lat": -17.3582328, "lon": -66.1840109}, {"type": "node", "id": 5562728320, "lat": -17.358169, "lon": -66.1839774}, {"type": "node", "id": 5566724523, "lat": -17.3867169, "lon": -66.1668177}, {"type": "node", "id": 5567037567, "lat": -17.3650362, "lon": -66.1791235}, {"type": "node", "id": 5567037571, "lat": -17.3644211, "lon": -66.1789986}, {"type": "node", "id": 5573652847, "lat": -17.3607702, "lon": -66.1799862}, {"type": "node", "id": 5574208513, "lat": -17.3826389, "lon": -66.1095883}, {"type": "node", "id": 5574208514, "lat": -17.3826853, "lon": -66.1094276}, {"type": "node", "id": 5574208515, "lat": -17.3826076, "lon": -66.1096913}, {"type": "node", "id": 5574208516, "lat": -17.3825853, "lon": -66.1097644}, {"type": "node", "id": 5607875066, "lat": -17.3757736, "lon": -66.1863376}, {"type": "node", "id": 5607875071, "lat": -17.3757629, "lon": -66.1863631}, {"type": "node", "id": 5607875084, "lat": -17.3758214, "lon": -66.1868504}, {"type": "node", "id": 5607875085, "lat": -17.3761213, "lon": -66.186462}, {"type": "node", "id": 5693698521, "lat": -17.3777005, "lon": -66.1646827, "tags": {"addr:city": "Cochabamba", "addr:neighbourhood": "Magisterio 6 de Junio", "addr:street": "Calle Julio Mendez", "amenity": "clinic", "emergency": "yes", "healthcare": "clinic", "healthcare:speciality": "general", "name": "Policonsultorio Norte Caja Petrolera de Salud", "operator": "Caja Petrolera de Salud", "operator:type": "public"}}, {"type": "node", "id": 5752319806, "lat": -17.3610954, "lon": -66.2278098, "tags": {"amenity": "clinic", "healthcare": "clinic", "healthcare:speciality": "general", "name": "Centro de Salud 4 Esquinas"}}, {"type": "node", "id": 5829780818, "lat": -17.3602986, "lon": -66.1584001}, {"type": "node", "id": 5829780819, "lat": -17.3601372, "lon": -66.1583475}, {"type": "node", "id": 5852304254, "lat": -17.3299843, "lon": -66.2423161}, {"type": "node", "id": 5852304259, "lat": -17.3301768, "lon": -66.2419553}, {"type": "node", "id": 5852304260, "lat": -17.3299918, "lon": -66.2419872}, {"type": "node", "id": 5919538197, "lat": -17.2984619, "lon": -66.4584351, "tags": {"addr:city": "Keraya", "addr:street": "Camino RN25 a Keraya", "amenity": "hospital", "description": "Centro de Salud - 1er Nivel", "emergency": "yes", "fixme": "Exact_location", "healthcare": "hospital", "healthcare:speciality": "general", "name": "C.S. Keraya (1er Nivel)"}}, {"type": "node", "id": 5924925881, "lat": -17.0197176, "lon": -66.3467313, "tags": {"addr:city": "Icari", "amenity": "hospital", "description": "Centro de Salud de 1er Nivel (Tiene Ambulancia)\n", "emergency": "yes", "healthcare": "hospital", "healthcare:speciality": "general", "name": "C.S. Icari (1er Nivel)"}}, {"type": "node", "id": 6239957552, "lat": -17.3374814, "lon": -66.2170709, "tags": {"addr:city": "Tiquipaya", "addr:street": "Calle Jun\u00edn", "amenity": "pharmacy", "healthcare": "pharmacy", "name": "Farmacia Tiquipaya", "opening_hours": "PH,Mo-Su 07:00-21:00", "phone": "+591-4-4317179"}}, {"type": "node", "id": 6434908164, "lat": -17.3877336, "lon": -66.1536794}, {"type": "node", "id": 6434908165, "lat": -17.3877237, "lon": -66.1536474}, {"type": "node", "id": 6434908166, "lat": -17.3879512, "lon": -66.1535957}, {"type": "node", "id": 6434908167, "lat": -17.3879166, "lon": -66.1534009}, {"type": "node", "id": 6434908168, "lat": -17.3876968, "lon": -66.153451}, {"type": "node", "id": 6434908169, "lat": -17.3876213, "lon": -66.1531944}, {"type": "node", "id": 6465878371, "lat": -17.3875221, "lon": -66.1505869}, {"type": "node", "id": 6465878373, "lat": -17.38754, "lon": -66.1505836}, {"type": "node", "id": 6465878374, "lat": -17.3875515, "lon": -66.1505758}, {"type": "node", "id": 6465878443, "lat": -17.3862054, "lon": -66.14781, "tags": {"access": "private", "amenity": "parking_entrance", "level": "0", "parking": "surface"}}, {"type": "node", "id": 6465878469, "lat": -17.3866386, "lon": -66.1481058}, {"type": "node", "id": 6465878470, "lat": -17.3858253, "lon": -66.1478086}, {"type": "node", "id": 6465878473, "lat": -17.3855119, "lon": -66.1480143}, {"type": "node", "id": 6465878475, "lat": -17.3884808, "lon": -66.1503769}, {"type": "node", "id": 6525677586, "lat": -17.382898, "lon": -66.1562239, "tags": {"addr:city": "Cochabamba", "addr:housenumber": "748", "addr:street": "Calle Antezana", "amenity": "doctors", "healthcare": "centre", "healthcare:speciality": "gastroenterology;nutrition", "name": "Centro de Gastroenterolog\u00eda y Nutrici\u00f3n Infantil", "phone": "+591 4 4235888"}}, {"type": "node", "id": 6717670513, "lat": -17.336842, "lon": -66.2206866, "tags": {"addr:city": "Tiquipaya", "addr:street": "Avenida Reducto", "amenity": "pharmacy", "healthcare": "pharmacy", "name": "Farmacia"}}, {"type": "node", "id": 6872675360, "lat": -17.3715448, "lon": -66.1510386, "tags": {"amenity": "pharmacy", "healthcare": "pharmacy", "name": "Sanat Pharma"}}, {"type": "node", "id": 6908133953, "lat": -17.3720886, "lon": -66.1610899}, {"type": "node", "id": 6908133954, "lat": -17.3721226, "lon": -66.1606785}, {"type": "node", "id": 6908133955, "lat": -17.371995, "lon": -66.1606719}, {"type": "node", "id": 6908133956, "lat": -17.3719394, "lon": -66.1610821}, {"type": "node", "id": 6908133971, "lat": -17.3720426, "lon": -66.1610865}, {"type": "node", "id": 6908133972, "lat": -17.3720652, "lon": -66.1610879}, {"type": "node", "id": 6908133983, "lat": -17.3721168, "lon": -66.1608013}, {"type": "node", "id": 6908133984, "lat": -17.3721021, "lon": -66.1608005}, {"type": "node", "id": 6908149385, "lat": -17.3719926, "lon": -66.1607223}, {"type": "node", "id": 6908149386, "lat": -17.3719616, "lon": -66.1607207}, {"type": "node", "id": 6909809616, "lat": -17.3368249, "lon": -66.2183703, "tags": {"addr:city": "Tiquipaya", "addr:street": "Calle Toribio Torrico", "amenity": "pharmacy", "dispensing": "yes", "healthcare": "pharmacy", "name": "Farmacia La Fuente"}}, {"type": "node", "id": 6914838740, "lat": -17.3620197, "lon": -66.3409666}, {"type": "node", "id": 6914838741, "lat": -17.3620581, "lon": -66.3405563}, {"type": "node", "id": 6914838742, "lat": -17.3622322, "lon": -66.3405133}, {"type": "node", "id": 6914838743, "lat": -17.3623167, "lon": -66.3408942}, {"type": "node", "id": 7077609287, "lat": -17.3716527, "lon": -66.1422765, "tags": {"amenity": "pharmacy"}}, {"type": "node", "id": 7088098388, "lat": -17.3625236, "lon": -66.1780892, "tags": {"addr:city": "Cochabamba", "addr:neighbourhood": "Santa Ana de Mayorazgo", "addr:street": "Avenida Beijing", "amenity": "pharmacy", "drive_through": "no", "healthcare": "pharmacy"}}, {"type": "node", "id": 7088098390, "lat": -17.37155, "lon": -66.1798111, "tags": {"addr:city": "Cochabamba", "addr:street": "Avenida Am\u00e9rica", "amenity": "pharmacy", "brand": "Farmacia Ch\u00e1vez", "brand:wikidata": "Q81969919", "dispensing": "yes", "drive_through": "no", "healthcare": "pharmacy", "name": "Farmacia Ch\u00e1vez", "operator": "Farmacia Ch\u00e1vez"}}, {"type": "node", "id": 7117063685, "lat": -17.3595521, "lon": -66.1714396, "tags": {"amenity": "pharmacy", "name": "Farmacia"}}, {"type": "node", "id": 7222853585, "lat": -17.3751565, "lon": -66.1957555, "tags": {"addr:city": "Cochabamba", "addr:street": "Avenida Jos\u00e9 Manuel Villavicencio", "amenity": "clinic", "healthcare": "clinic", "healthcare:speciality": "kinesitherapy;applied_kinesiology", "name": "Fisioterapia Violeta", "phone": "+591-70355256"}}, {"type": "node", "id": 7370468391, "lat": -17.388196, "lon": -66.1503993}, {"type": "node", "id": 7436412008, "lat": -17.3832854, "lon": -66.110636, "tags": {"addr:city": "Sacaba", "addr:neighbourhood": "Quintanilla", "addr:street": "Avenida Eliodoro Villaz\u00f3n", "amenity": "pharmacy", "branch": "Sucursal Villaz\u00f3n", "brand": "Farmacorp", "brand:wikidata": "Q81968937", "contact:website": "https://www.farmacorp.com/", "drive_through": "no", "name": "Farmacorp", "opening_hours": "24/7", "operator": "Farmacorp SA"}}, {"type": "node", "id": 7539084670, "lat": -17.3676136, "lon": -66.2360857}, {"type": "node", "id": 7539084671, "lat": -17.3673172, "lon": -66.2360536}, {"type": "node", "id": 7591061416, "lat": -17.3418089, "lon": -66.2679661}, {"type": "node", "id": 7591061417, "lat": -17.3418033, "lon": -66.2676917}, {"type": "node", "id": 7591061418, "lat": -17.3418257, "lon": -66.2676564}, {"type": "node", "id": 7591061419, "lat": -17.3421314, "lon": -66.2676388}, {"type": "node", "id": 7591061420, "lat": -17.3421314, "lon": -66.2679543}, {"type": "node", "id": 7671972311, "lat": -17.3876755, "lon": -66.1593683}, {"type": "node", "id": 7671972312, "lat": -17.3879271, "lon": -66.1593202}, {"type": "node", "id": 7671972313, "lat": -17.3879151, "lon": -66.1591821}, {"type": "node", "id": 7671972314, "lat": -17.387957, "lon": -66.1591821}, {"type": "node", "id": 7671972315, "lat": -17.387943, "lon": -66.1590127}, {"type": "node", "id": 7671972316, "lat": -17.3878312, "lon": -66.1590252}, {"type": "node", "id": 7671972317, "lat": -17.3877913, "lon": -66.1586675}, {"type": "node", "id": 7671972318, "lat": -17.3876556, "lon": -66.1586926}, {"type": "node", "id": 7671972319, "lat": -17.3877095, "lon": -66.158929}, {"type": "node", "id": 7671972320, "lat": -17.3876536, "lon": -66.1589415}, {"type": "node", "id": 7671972321, "lat": -17.387673, "lon": -66.1591101}, {"type": "node", "id": 7671972322, "lat": -17.3876971, "lon": -66.1593642}, {"type": "node", "id": 7671972324, "lat": -17.3876508, "lon": -66.1592371}, {"type": "node", "id": 7671972326, "lat": -17.3878144, "lon": -66.158874}, {"type": "node", "id": 7671972330, "lat": -17.3879083, "lon": -66.1593238}, {"type": "node", "id": 7679280209, "lat": -17.3836825, "lon": -66.1591797}, {"type": "node", "id": 7679280214, "lat": -17.3839951, "lon": -66.1595992}, {"type": "node", "id": 7679280215, "lat": -17.3841058, "lon": -66.1595131}, {"type": "node", "id": 7679280216, "lat": -17.3838032, "lon": -66.1590858}, {"type": "node", "id": 7703868573, "lat": -17.336963, "lon": -66.2176988, "tags": {"addr:city": "Tiquipaya", "addr:street": "Calle Gualberto Villaroel", "emergency": "emergency_ward_entrance", "emergency_ward_entrance": "all", "entrance": "yes", "level": "0"}}, {"type": "node", "id": 7703868574, "lat": -17.3371554, "lon": -66.2175983, "tags": {"access": "yes", "addr:city": "Tiquipaya", "addr:street": "Calle Toribio Torrico", "entrance": "main", "level": "0", "wheelchair": "yes"}}, {"type": "node", "id": 7776434609, "lat": -17.3779324, "lon": -66.1526812}, {"type": "node", "id": 8079027813, "lat": -17.3779505, "lon": -66.1541267}, {"type": "node", "id": 8079027814, "lat": -17.3776434, "lon": -66.1541012}, {"type": "node", "id": 8129565920, "lat": -17.3422314, "lon": -66.1789743, "tags": {"amenity": "pharmacy", "name": "Heydi Fern\u00e1ndez"}}, {"type": "node", "id": 8172704548, "lat": -17.380097, "lon": -66.14197}, {"type": "node", "id": 8172704549, "lat": -17.380042, "lon": -66.1415213}, {"type": "node", "id": 8172704550, "lat": -17.3801648, "lon": -66.141432}, {"type": "node", "id": 8172704551, "lat": -17.3802311, "lon": -66.1419481}, {"type": "node", "id": 8207911014, "lat": -17.3658026, "lon": -66.1245104}, {"type": "node", "id": 8207911015, "lat": -17.3654847, "lon": -66.1240777}, {"type": "node", "id": 8207911016, "lat": -17.365639, "lon": -66.1239204}, {"type": "node", "id": 8207911017, "lat": -17.3660088, "lon": -66.1243255}, {"type": "node", "id": 8207911018, "lat": -17.3657205, "lon": -66.1239251}, {"type": "node", "id": 8221521979, "lat": -17.3484458, "lon": -66.1742553}, {"type": "node", "id": 8221521985, "lat": -17.3486299, "lon": -66.1743685}, {"type": "node", "id": 8281349145, "lat": -17.3732486, "lon": -66.1246055, "tags": {"addr:city": "Cochabamba", "addr:street": "Avenida Circunvalaci\u00f3n Beijing", "amenity": "pharmacy", "dispensing": "yes", "drive_through": "no", "healthcare": "pharmacy", "name": "Farmacia Zurich"}}, {"type": "node", "id": 8343470512, "lat": -17.3388195, "lon": -66.2214985, "tags": {"addr:city": "Tiquipaya", "addr:street": "Avenida Reducto", "amenity": "pharmacy", "name": "Farmacia El Descuento", "phone": "+591-4-4668618", "phone:mobile": "+591-79974498"}}, {"type": "node", "id": 8343523197, "lat": -17.3392719, "lon": -66.221443, "tags": {"addr:city": "Tiquipaya", "addr:street": "Avenida Reducto", "amenity": "pharmacy", "name": "Farmacia Soret"}}, {"type": "node", "id": 8343523394, "lat": -17.3821465, "lon": -66.1536149}, {"type": "node", "id": 8343523395, "lat": -17.3823162, "lon": -66.1535626}, {"type": "node", "id": 8343523396, "lat": -17.3825079, "lon": -66.1534161}, {"type": "node", "id": 8343523397, "lat": -17.38246, "lon": -66.1532948}, {"type": "node", "id": 8343523398, "lat": -17.3820906, "lon": -66.1534517}, {"type": "node", "id": 8343544333, "lat": -17.3386186, "lon": -66.2211733, "tags": {"addr:city": "Tiquipaya", "addr:street": "Calle Cochabamba", "amenity": "pharmacy", "check_date:opening_hours": "2023-07-12", "healthcare": "pharmacy", "name": "Farmacia Aleadri", "opening_hours:signed": "no", "phone": "+591-44667760"}}, {"type": "node", "id": 8344069927, "lat": -17.337201, "lon": -66.2205873, "tags": {"addr:city": "Tiquipaya", "addr:street": "Calle Pablo Jaimes", "amenity": "pharmacy", "dispensing": "yes", "healthcare": "pharmacy", "name": "Farmacia Naya Mira"}}, {"type": "node", "id": 8344069931, "lat": -17.3379082, "lon": -66.2206441, "tags": {"amenity": "pharmacy", "dispensing": "yes", "healthcare": "pharmacy"}}, {"type": "node", "id": 8370221194, "lat": -17.3742458, "lon": -66.143733}, {"type": "node", "id": 8370221195, "lat": -17.3742294, "lon": -66.143996}, {"type": "node", "id": 8370221196, "lat": -17.3738464, "lon": -66.1439735}, {"type": "node", "id": 8370221213, "lat": -17.3739582, "lon": -66.1437119}, {"type": "node", "id": 8370221214, "lat": -17.3740365, "lon": -66.1437178}, {"type": "node", "id": 8370221219, "lat": -17.3738497, "lon": -66.1438789, "tags": {"entrance": "main"}}, {"type": "node", "id": 8372676172, "lat": -17.3741207, "lon": -66.1439883}, {"type": "node", "id": 8372676174, "lat": -17.3741111, "lon": -66.1437235}, {"type": "node", "id": 8388282784, "lat": -17.3783334, "lon": -66.1455455}, {"type": "node", "id": 8388282789, "lat": -17.3784379, "lon": -66.1453916}, {"type": "node", "id": 8388282792, "lat": -17.3785616, "lon": -66.145362}, {"type": "node", "id": 8388282793, "lat": -17.3786922, "lon": -66.1452417}, {"type": "node", "id": 8388301555, "lat": -17.3798412, "lon": -66.1445051, "tags": {"addr:city": "Cochabamba", "addr:neighbourhood": "Seminario San Luis", "addr:street": "Avenida Ram\u00f3n Rivero", "amenity": "pharmacy", "dispensing": "yes", "drive_through": "no", "healthcare": "pharmacy"}}, {"type": "node", "id": 8388301560, "lat": -17.379377, "lon": -66.1454136}, {"type": "node", "id": 8388301569, "lat": -17.3796409, "lon": -66.1447862}, {"type": "node", "id": 8388301596, "lat": -17.3796297, "lon": -66.1453332}, {"type": "node", "id": 8423483589, "lat": -17.3794939, "lon": -66.1597375}, {"type": "node", "id": 8436201439, "lat": -17.3704166, "lon": -66.1233535}, {"type": "node", "id": 8436201440, "lat": -17.3702755, "lon": -66.1233535}, {"type": "node", "id": 8436201487, "lat": -17.3702823, "lon": -66.1236235}, {"type": "node", "id": 8436201501, "lat": -17.3706615, "lon": -66.123525}, {"type": "node", "id": 8436201502, "lat": -17.3706169, "lon": -66.1237432}, {"type": "node", "id": 8447477129, "lat": -17.3490981, "lon": -66.1750944}, {"type": "node", "id": 8447477130, "lat": -17.3480988, "lon": -66.1745096}, {"type": "node", "id": 8447477132, "lat": -17.3481314, "lon": -66.1744388}, {"type": "node", "id": 8447477133, "lat": -17.3492972, "lon": -66.1747329}, {"type": "node", "id": 8497069718, "lat": -17.3554915, "lon": -66.1873151, "tags": {"addr:city": "Cochabamba", "addr:street": "Calle Mar\u00eda Esther Ballivi\u00e1n", "amenity": "doctors", "healthcare:speciality": "general", "name": "Consultorio M\u00e9dico Fanny", "phone": "+591-77906162"}}, {"type": "node", "id": 8498939214, "lat": -17.3841549, "lon": -66.1578731}, {"type": "node", "id": 8546998986, "lat": -17.3607948, "lon": -66.1743699}, {"type": "node", "id": 8546998987, "lat": -17.3605374, "lon": -66.174693}, {"type": "node", "id": 8546998988, "lat": -17.3607536, "lon": -66.1746502}, {"type": "node", "id": 8546998993, "lat": -17.3605649, "lon": -66.1744512}, {"type": "node", "id": 8546998994, "lat": -17.3606881, "lon": -66.1742949}, {"type": "node", "id": 8546998997, "lat": -17.3608094, "lon": -66.1743899, "tags": {"entrance": "main"}}, {"type": "node", "id": 8551840794, "lat": -17.3466315, "lon": -66.1746343}, {"type": "node", "id": 8551840802, "lat": -17.3466269, "lon": -66.175047}, {"type": "node", "id": 8551868656, "lat": -17.3572399, "lon": -66.1777493}, {"type": "node", "id": 8552148797, "lat": -17.3786304, "lon": -66.1885699}, {"type": "node", "id": 8587411336, "lat": -17.3767039, "lon": -66.1630727}, {"type": "node", "id": 8587411337, "lat": -17.3766175, "lon": -66.1627032}, {"type": "node", "id": 8587411338, "lat": -17.3765647, "lon": -66.1626496}, {"type": "node", "id": 8587411339, "lat": -17.3762861, "lon": -66.1626626}, {"type": "node", "id": 8587411340, "lat": -17.3762208, "lon": -66.1627974}, {"type": "node", "id": 8587411341, "lat": -17.3760004, "lon": -66.1628141}, {"type": "node", "id": 8587411356, "lat": -17.3760893, "lon": -66.1630002}, {"type": "node", "id": 8587411359, "lat": -17.3760506, "lon": -66.1629193}, {"type": "node", "id": 8591687953, "lat": -17.3781982, "lon": -66.1645042}, {"type": "node", "id": 8591687954, "lat": -17.3782749, "lon": -66.1648873}, {"type": "node", "id": 8591687974, "lat": -17.3786873, "lon": -66.1649917}, {"type": "node", "id": 8591687975, "lat": -17.3789279, "lon": -66.1649359}, {"type": "node", "id": 8591687981, "lat": -17.3785559, "lon": -66.1649746}, {"type": "node", "id": 8591687982, "lat": -17.3788217, "lon": -66.1644763}, {"type": "node", "id": 8591687983, "lat": -17.3788102, "lon": -66.1644482}, {"type": "node", "id": 8591687984, "lat": -17.3787842, "lon": -66.1644246}, {"type": "node", "id": 8591687985, "lat": -17.3787302, "lon": -66.1644069}, {"type": "node", "id": 8596958568, "lat": -17.3724422, "lon": -66.1368326, "tags": {"addr:city": "Cochabamba", "addr:street": "Avenida Circunvalaci\u00f3n Beijing", "amenity": "pharmacy", "dispensing": "yes", "drive_through": "no", "healthcare": "pharmacy", "name": "Farmacia Danely"}}, {"type": "node", "id": 8618139323, "lat": -17.3375114, "lon": -66.2171, "tags": {"addr:city": "Tiquipaya", "addr:street": "Calle Jun\u00edn", "amenity": "doctors", "healthcare": "doctor", "healthcare:speciality": "general;dentist;x-rays;ecography", "name": "Centro Medico Santa Teresita", "opening_hours": "24/7", "phone": "+591-4-4316878"}}, {"type": "node", "id": 8623452956, "lat": -17.3728133, "lon": -66.3225608}, {"type": "node", "id": 8623452957, "lat": -17.3731292, "lon": -66.3232288}, {"type": "node", "id": 8623452958, "lat": -17.3733132, "lon": -66.323511}, {"type": "node", "id": 8623452959, "lat": -17.3736291, "lon": -66.3238213}, {"type": "node", "id": 8623452960, "lat": -17.3737914, "lon": -66.3239468}, {"type": "node", "id": 8623452961, "lat": -17.3746297, "lon": -66.3222685}, {"type": "node", "id": 8623452962, "lat": -17.3745184, "lon": -66.3222137}, {"type": "node", "id": 8686708764, "lat": -17.3879608, "lon": -66.1487867, "tags": {"access": "yes", "addr:city": "Cochabamba", "addr:housenumber": "374", "addr:neighbourhood": "San Pedro", "addr:street": "Avenida Aniceto Arce", "door": "hinged", "entrance": "main", "level": "0", "wheelchair": "yes"}}, {"type": "node", "id": 8775659956, "lat": -17.3483743, "lon": -66.1746848}, {"type": "node", "id": 8909112197, "lat": -17.3883359, "lon": -66.1447998}, {"type": "node", "id": 8909112198, "lat": -17.3883077, "lon": -66.1446663}, {"type": "node", "id": 8909112199, "lat": -17.3880189, "lon": -66.1447313}, {"type": "node", "id": 8909112200, "lat": -17.3880965, "lon": -66.1448529}, {"type": "node", "id": 8909112203, "lat": -17.3883061, "lon": -66.1448083}, {"type": "node", "id": 8909153764, "lat": -17.3867264, "lon": -66.1467197, "tags": {"addr:city": "Cochabamba", "addr:housenumber": "487", "addr:neighbourhood": "San Pedro", "addr:street": "Calle Aurelio Melean", "entrance": "main"}}, {"type": "node", "id": 8914841245, "lat": -17.3481691, "lon": -66.1745498}, {"type": "node", "id": 8914841247, "lat": -17.3484325, "lon": -66.1747231}, {"type": "node", "id": 8914841249, "lat": -17.3486512, "lon": -66.1743332}, {"type": "node", "id": 8927805100, "lat": -17.364992, "lon": -66.1794543}, {"type": "node", "id": 8927805101, "lat": -17.3644079, "lon": -66.1790356}, {"type": "node", "id": 8927805102, "lat": -17.3644735, "lon": -66.1792131}, {"type": "node", "id": 9005870942, "lat": -17.3765383, "lon": -66.1742812, "tags": {"addr:city": "Cochabamba", "addr:street": "Avenida Juan de la Rosa", "amenity": "pharmacy", "dispensing": "yes", "drive_through": "no", "healthcare": "pharmacy", "name": "Farmacia Mabel"}}, {"type": "node", "id": 9012647582, "lat": -17.3736907, "lon": -66.1244179}, {"type": "node", "id": 9021398230, "lat": -17.3722607, "lon": -66.1634664, "tags": {"addr:city": "Cochabamba", "addr:street": "Avenida Am\u00e9rica", "amenity": "pharmacy", "dispensing": "yes", "drive_through": "no", "healthcare": "pharmacy"}}, {"type": "node", "id": 9021398276, "lat": -17.371955, "lon": -66.160833}, {"type": "node", "id": 9021465335, "lat": -17.3817443, "lon": -66.1767094, "tags": {"addr:city": "Cochabamba", "addr:neighbourhood": "Municipal Sarco", "addr:street": "Avenida Melchor P\u00e9rez de Olgu\u00edn", "amenity": "pharmacy", "dispensing": "yes", "drive_through": "no", "healthcare": "pharmacy", "name": "Farmacia Europea"}}, {"type": "node", "id": 9028209369, "lat": -17.3866782, "lon": -66.1481337, "tags": {"access": "yes", "addr:city": "Cochabamba", "addr:housenumber": "435", "addr:neighbourhood": "Seminario San Luis", "addr:street": "Avenida Aniceto Arce", "barrier": "gate", "entrance": "main", "level": "0", "wheelchair": "yes"}}, {"type": "node", "id": 9028209383, "lat": -17.3860827, "lon": -66.1488843}, {"type": "node", "id": 9028209407, "lat": -17.3863414, "lon": -66.1495331, "tags": {"access": "permit", "door": "double", "entrance": "yes", "level": "0", "wheelchair": "yes"}}, {"type": "node", "id": 9028209410, "lat": -17.3859728, "lon": -66.1491895, "tags": {"access": "permit", "door": "double", "entrance": "exit", "level": "0", "wheelchair": "yes"}}, {"type": "node", "id": 9028237628, "lat": -17.3877849, "lon": -66.1489028, "tags": {"access": "yes", "addr:city": "Cochabamba", "addr:housenumber": "0371", "addr:neighbourhood": "Seminario San Luis", "addr:street": "Avenida Aniceto Arce", "door": "hinged", "entrance": "main", "level": "0", "wheelchair": "no"}}, {"type": "node", "id": 9028237629, "lat": -17.3868063, "lon": -66.1499668, "tags": {"access": "yes", "addr:city": "Cochabamba", "addr:neighbourhood": "Seminario San Luis", "addr:street": "Calle Venezuela", "entrance": "yes", "level": "0", "wheelchair": "no"}}, {"type": "node", "id": 9028237641, "lat": -17.3881831, "lon": -66.1504345}, {"type": "node", "id": 9028237642, "lat": -17.3882184, "lon": -66.1503935, "tags": {"access": "yes", "addr:city": "Cochabamba", "addr:neighbourhood": "Seminario San Luis", "addr:street": "Avenida Oquendo", "door": "double", "entrance": "main", "level": "0", "wheelchair": "yes"}}, {"type": "node", "id": 9028237643, "lat": -17.3881713, "lon": -66.150413}, {"type": "node", "id": 9028237651, "lat": -17.388809, "lon": -66.1501837}, {"type": "node", "id": 9028237681, "lat": -17.388262, "lon": -66.1492308, "tags": {"access": "yes", "addr:city": "Cochabamba", "addr:housenumber": "2876", "addr:neighbourhood": "Seminario San Luis", "addr:street": "Avenida Aniceto Arce", "barrier": "gate", "entrance": "main", "level": "0", "wheelchair": "yes"}}, {"type": "node", "id": 9029921163, "lat": -17.3883648, "lon": -66.1449391}, {"type": "node", "id": 9031318827, "lat": -17.385538, "lon": -66.1479972}, {"type": "node", "id": 9031318886, "lat": -17.3856216, "lon": -66.1488701, "tags": {"entrance": "yes"}}, {"type": "node", "id": 9031318918, "lat": -17.3888399, "lon": -66.1500799}, {"type": "node", "id": 9034180338, "lat": -17.3864791, "lon": -66.1496626}, {"type": "node", "id": 9034180339, "lat": -17.3867944, "lon": -66.149956}, {"type": "node", "id": 9034180346, "lat": -17.387177, "lon": -66.1503034}, {"type": "node", "id": 9034180349, "lat": -17.3868183, "lon": -66.1499777}, {"type": "node", "id": 9034180351, "lat": -17.3870605, "lon": -66.1501976, "tags": {"access": "yes", "addr:city": "Cochabamba", "addr:neighbourhood": "Seminario San Luis", "addr:street": "Calle Venezuela", "entrance": "yes", "level": "0", "wheelchair": "yes"}}, {"type": "node", "id": 9034180352, "lat": -17.3869049, "lon": -66.1500563, "tags": {"access": "yes", "addr:city": "Cochabamba", "addr:neighbourhood": "Seminario San Luis", "addr:street": "Calle Venezuela", "entrance": "yes", "level": "0", "wheelchair": "yes"}}, {"type": "node", "id": 9034180361, "lat": -17.3880387, "lon": -66.1490776}, {"type": "node", "id": 9035366540, "lat": -17.3854306, "lon": -66.1486946, "tags": {"access": "yes", "addr:city": "Cochabamba", "addr:housenumber": "725", "addr:neighbourhood": "Seminario San Luis", "addr:street": "Calle Venezuela", "door": "double", "entrance": "main", "level": "0", "wheelchair": "yes"}}, {"type": "node", "id": 9035366542, "lat": -17.3856306, "lon": -66.1484598, "tags": {"addr:city": "Cochabamba", "addr:housenumber": "725", "addr:neighbourhood": "Seminario San Luis", "addr:street": "Calle Venezuela", "amenity": "hospital", "contact:email": "info@hospitalviedma.org", "contact:facebook": "https://www.facebook.com/hospitalviedma/", "contact:phone": "+591 4 4220228", "contact:website": "http://www.hospitalviedma.org/", "emergency": "yes", "healthcare": "hospital", "healthcare:speciality": "blood_check;clinical_pathology;cardiology;surgery;dermatology;endocrinology;epidemiology;hematology;geriatrics;oncology;internal;nephrology;pneumology;neurology;endodontics;ophthalmology;otolaryngology;psychology;psychiatry;rheumatology;urology;trauma", "loc_name": "Complejo Hospitalario Francisco Viedma", "name": "Hospital Cl\u00ednico Viedma", "start_date": "1884-09-14", "wheelchair": "yes"}}, {"type": "node", "id": 9035366543, "lat": -17.3851122, "lon": -66.1484015}, {"type": "node", "id": 9035366546, "lat": -17.3850671, "lon": -66.1483615}, {"type": "node", "id": 9044427026, "lat": -17.3641588, "lon": -66.1787939, "tags": {"addr:street": "Avenida Sim\u00f3n Lopez", "amenity": "pharmacy", "name": "Framacias Lisam"}}, {"type": "node", "id": 9047064029, "lat": -17.3801519, "lon": -66.1412499}, {"type": "node", "id": 9047064030, "lat": -17.3800813, "lon": -66.1411778}, {"type": "node", "id": 9047064031, "lat": -17.3799069, "lon": -66.1414124}, {"type": "node", "id": 9057381779, "lat": -17.3882063, "lon": -66.1486884}, {"type": "node", "id": 9057381780, "lat": -17.3881273, "lon": -66.1486388}, {"type": "node", "id": 9063309232, "lat": -17.2363237, "lon": -66.5301147}, {"type": "node", "id": 9063309233, "lat": -17.2362039, "lon": -66.5300352}, {"type": "node", "id": 9063309234, "lat": -17.236285, "lon": -66.5299013}, {"type": "node", "id": 9063309235, "lat": -17.236343, "lon": -66.5299398}, {"type": "node", "id": 9063309236, "lat": -17.236328, "lon": -66.5299646}, {"type": "node", "id": 9063309237, "lat": -17.2363964, "lon": -66.5300099}, {"type": "node", "id": 9063309238, "lat": -17.2363779, "lon": -66.5300404}, {"type": "node", "id": 9063309239, "lat": -17.2364029, "lon": -66.530057}, {"type": "node", "id": 9063309240, "lat": -17.2363782, "lon": -66.5300979}, {"type": "node", "id": 9063309241, "lat": -17.2363466, "lon": -66.5300769}, {"type": "node", "id": 9065362050, "lat": -17.38795, "lon": -66.1477985, "tags": {"access": "private", "amenity": "parking_entrance", "level": "0", "parking": "surface"}}, {"type": "node", "id": 9076391409, "lat": -17.3864073, "lon": -66.1559837}, {"type": "node", "id": 9076411820, "lat": -17.3862267, "lon": -66.1559665}, {"type": "node", "id": 9076411821, "lat": -17.3863433, "lon": -66.1558841}, {"type": "node", "id": 9076411822, "lat": -17.3864364, "lon": -66.1560288}, {"type": "node", "id": 9076411823, "lat": -17.3862981, "lon": -66.1560776}, {"type": "node", "id": 9076411824, "lat": -17.3864141, "lon": -66.1559942}, {"type": "node", "id": 9100193271, "lat": -17.3880602, "lon": -66.1449306, "tags": {"access": "yes", "addr:city": "Cochabamba", "addr:housenumber": "1518", "addr:neighbourhood": "San Pedro", "addr:street": "Calle Carlos D'avis", "entrance": "main", "level": "0"}}, {"type": "node", "id": 9112306646, "lat": -17.3768597, "lon": -66.1535414}, {"type": "node", "id": 9112306647, "lat": -17.3767299, "lon": -66.1535333}, {"type": "node", "id": 9112306648, "lat": -17.3767106, "lon": -66.1538709}, {"type": "node", "id": 9112306650, "lat": -17.3768543, "lon": -66.1536428}, {"type": "node", "id": 9141410718, "lat": -17.3795207, "lon": -66.1599712}, {"type": "node", "id": 9141410727, "lat": -17.379505, "lon": -66.1599712}, {"type": "node", "id": 9169042301, "lat": -17.3833198, "lon": -66.1489373}, {"type": "node", "id": 9169042302, "lat": -17.3832657, "lon": -66.1490901}, {"type": "node", "id": 9169042303, "lat": -17.3832687, "lon": -66.1491153}, {"type": "node", "id": 9169042304, "lat": -17.3832822, "lon": -66.1491437}, {"type": "node", "id": 9169042305, "lat": -17.3833032, "lon": -66.149172}, {"type": "node", "id": 9169042306, "lat": -17.3833303, "lon": -66.1491909}, {"type": "node", "id": 9169042307, "lat": -17.3833664, "lon": -66.1492035}, {"type": "node", "id": 9169042308, "lat": -17.3834009, "lon": -66.1491988}, {"type": "node", "id": 9269416021, "lat": -17.3585468, "lon": -66.1550551}, {"type": "node", "id": 9269416022, "lat": -17.3584397, "lon": -66.1553879}, {"type": "node", "id": 9269416023, "lat": -17.3586711, "lon": -66.1554696}, {"type": "node", "id": 9269416024, "lat": -17.3587781, "lon": -66.1551367}, {"type": "node", "id": 9278275276, "lat": -17.3809816, "lon": -66.1681521}, {"type": "node", "id": 9278275277, "lat": -17.3808493, "lon": -66.167928}, {"type": "node", "id": 9278275278, "lat": -17.3808111, "lon": -66.1679814}, {"type": "node", "id": 9278275279, "lat": -17.3807691, "lon": -66.1680547}, {"type": "node", "id": 9287273630, "lat": -17.3792093, "lon": -66.145464}, {"type": "node", "id": 9287273631, "lat": -17.3794151, "lon": -66.1454021}, {"type": "node", "id": 9351779436, "lat": -17.3826219, "lon": -66.1498498}, {"type": "node", "id": 9351779437, "lat": -17.3824939, "lon": -66.1497992}, {"type": "node", "id": 9351779438, "lat": -17.3823979, "lon": -66.1500658}, {"type": "node", "id": 9429787456, "lat": -17.38248, "lon": -66.1534374}, {"type": "node", "id": 9429787457, "lat": -17.3824176, "lon": -66.1533128}, {"type": "node", "id": 9520929515, "lat": -17.3839852, "lon": -66.1596069}, {"type": "node", "id": 9520953517, "lat": -17.3836949, "lon": -66.15917, "tags": {"addr:city": "Cochabamba", "addr:housenumber": "785", "addr:neighbourhood": "Barba de Padilla", "addr:street": "Avenida Jos\u00e9 Ballivi\u00e1n", "entrance": "main", "level": "0", "wheelchair": "yes"}}, {"type": "node", "id": 9531168686, "lat": -17.3829974, "lon": -66.1564256, "tags": {"addr:city": "Cochabamba", "addr:flats": "3-1", "addr:floor": "3", "addr:housenumber": "748", "addr:street": "Calle Antezana", "amenity": "clinic", "contact:facebook": "https://www.facebook.com/cmax3d/", "healthcare": "clinic", "healthcare:speciality": "oral_surgery", "level": "2", "name": "Cirug\u00eda M\u00e1xilo Facial 3D"}}, {"type": "node", "id": 9546186303, "lat": -17.3377146, "lon": -66.2181254, "tags": {"amenity": "pharmacy", "dispensing": "yes", "healthcare": "pharmacy"}}, {"type": "node", "id": 9564927815, "lat": -17.3874445, "lon": -66.1536327}, {"type": "node", "id": 9564927816, "lat": -17.3874058, "lon": -66.1534854}, {"type": "node", "id": 9564951918, "lat": -17.3873348, "lon": -66.1532705}, {"type": "node", "id": 9564951919, "lat": -17.3878418, "lon": -66.1534179}, {"type": "node", "id": 9564951922, "lat": -17.3875963, "lon": -66.1532011, "tags": {"access": "yes", "addr:city": "Cochabamba", "addr:neighbourhood": "Central Santa Mar\u00eda", "addr:street": "Calle Antezana", "entrance": "main", "level": "0", "wheelchair": "yes"}}, {"type": "node", "id": 9612259270, "lat": -17.3844516, "lon": -66.1546036}, {"type": "node", "id": 9612259271, "lat": -17.3843948, "lon": -66.1546468}, {"type": "node", "id": 9612259272, "lat": -17.3844478, "lon": -66.1547233}, {"type": "node", "id": 9612259289, "lat": -17.3844864, "lon": -66.1546939, "tags": {"addr:city": "Cochabamba", "addr:housenumber": "734", "addr:neighbourhood": "Central Santa Mar\u00eda", "addr:street": "Calle Antezana", "entrance": "yes"}}, {"type": "node", "id": 9686979837, "lat": -17.3868054, "lon": -66.1667461}, {"type": "node", "id": 9686979838, "lat": -17.3868817, "lon": -66.1666843}, {"type": "node", "id": 9686979850, "lat": -17.386646, "lon": -66.1663647}, {"type": "node", "id": 9686979851, "lat": -17.3865212, "lon": -66.1665523}, {"type": "node", "id": 9686979852, "lat": -17.3866841, "lon": -66.1664164}, {"type": "node", "id": 9762318484, "lat": -17.3376138, "lon": -66.2196168, "tags": {"addr:city": "Tiquipaya", "addr:street": "Calle Pablo Jaimes", "amenity": "pharmacy", "brand": "Farmacorp", "brand:wikidata": "Q81968937", "dispensing": "yes", "healthcare": "pharmacy", "name": "Farmacorp", "operator": "Farmacorp", "phone": "+591-4-4527846"}}, {"type": "node", "id": 9776113214, "lat": -17.3728681, "lon": -66.170884, "tags": {"addr:city": "Cochabamba", "addr:neighbourhood": "Salom\u00f3n Klein", "addr:street": "Calle A. Virreira", "amenity": "clinic", "healthcare": "clinic", "healthcare:speciality": "dentist;orthodontics", "name": "Cl\u00ednica San Ignacio", "operator": "Universidad del Valle", "operator:type": "private"}}, {"type": "node", "id": 9827106662, "lat": -17.3737876, "lon": -66.1561509, "tags": {"addr:city": "Cochabamba", "addr:floor": "2", "addr:housenumber": "465", "addr:neighbourhood": "Portales", "addr:street": "Calle Buenos Aires", "amenity": "doctors", "branch": "Sucursal 2", "contact:email": "contact@derma-medic.com", "contact:facebook": "https://facebook.com/derma.medic.fanpage/", "contact:phone": "+591 79386943;+591 4 4489327", "contact:website": "http://www.derma-medic.com/", "healthcare": "doctor", "healthcare:speciality": "dermatology", "level": "1", "name": "Derma Medic", "opening_hours": "Mo-Fr 08:00-16:00; Sa 08:00-11:30", "operator": "Derma Medic"}}, {"type": "node", "id": 9873615172, "lat": -17.387696, "lon": -66.1710807, "tags": {"addr:city": "Cochabamba", "addr:neighbourhood": "El Progreso", "addr:street": "Avenida d'Orbigny", "amenity": "pharmacy", "dispensing": "yes", "drive_through": "no", "healthcare": "pharmacy", "name": "Farmacia Se\u00f1or de la Exaltaci\u00f3n", "operator": "Farmacia Se\u00f1or de la Exaltaci\u00f3n"}}, {"type": "node", "id": 9873615178, "lat": -17.3877796, "lon": -66.1718333, "tags": {"addr:city": "Cochabamba", "addr:neighbourhood": "El Progreso", "addr:street": "Avenida d'Orbigny", "amenity": "pharmacy", "dispensing": "yes", "drive_through": "no", "healthcare": "pharmacy", "name": "Farmacia Lux", "operator": "Farmacia Lux"}}, {"type": "node", "id": 9875534138, "lat": -17.3720767, "lon": -66.1664669, "tags": {"addr:city": "Cochabamba", "addr:neighbourhood": "Santa Ana de Cala Cala", "addr:street": "Avenida Am\u00e9rica", "amenity": "pharmacy", "dispensing": "yes", "drive_through": "no", "healthcare": "pharmacy", "level": "0"}}, {"type": "node", "id": 9879821226, "lat": -17.3714064, "lon": -66.1831382, "tags": {"amenity": "pharmacy", "dispensing": "yes", "healthcare": "pharmacy"}}, {"type": "node", "id": 9879821227, "lat": -17.3709934, "lon": -66.1837519, "tags": {"amenity": "pharmacy", "dispensing": "yes", "healthcare": "pharmacy"}}, {"type": "node", "id": 9882271348, "lat": -17.3801767, "lon": -66.1415142}, {"type": "node", "id": 9882271389, "lat": -17.3800069, "lon": -66.1414931}, {"type": "node", "id": 9882271390, "lat": -17.3800616, "lon": -66.1416778}, {"type": "node", "id": 9889059629, "lat": -17.3866968, "lon": -66.1481478}, {"type": "node", "id": 9898754125, "lat": -17.3779307, "lon": -66.1527077}, {"type": "node", "id": 9915932706, "lat": -17.3781362, "lon": -66.164621, "tags": {"addr:city": "Cochabamba", "addr:housenumber": "1263", "addr:neighbourhood": "Magisterio 6 de Junio", "addr:street": "Calle Julio M\u00e9ndez", "amenity": "pharmacy", "branch": "Sucursal 2", "brand": "Farmacia Cosmos", "contact:facebook": "https://es-la.facebook.com/farmaciacosmoscbba/", "delivery": "yes", "dispensing": "yes", "drive_through": "no", "healthcare": "pharmacy", "level": "0", "name": "Farmacia Cosmos", "operator": "Farmacia Cosmos", "phone": "+591 4 4582607"}}, {"type": "node", "id": 9915932711, "lat": -17.3784582, "lon": -66.1644516}, {"type": "node", "id": 9915932712, "lat": -17.378252, "lon": -66.1644941}, {"type": "node", "id": 9915957554, "lat": -17.3764394, "lon": -66.1631325}, {"type": "node", "id": 9915957556, "lat": -17.3766815, "lon": -66.1629772}, {"type": "node", "id": 9922011423, "lat": -17.3782189, "lon": -66.1880146, "tags": {"addr:city": "Cochabamba", "addr:street": "Calle Chiman\u00e9", "amenity": "pharmacy", "dispensing": "yes", "drive_through": "no", "healthcare": "pharmacy"}}, {"type": "node", "id": 9924260240, "lat": -17.3853265, "lon": -66.1658083}, {"type": "node", "id": 9934789812, "lat": -17.3605547, "lon": -66.1801497}, {"type": "node", "id": 9934789813, "lat": -17.3607194, "lon": -66.1802543}, {"type": "node", "id": 9934789814, "lat": -17.3607457, "lon": -66.1802543}, {"type": "node", "id": 9934789815, "lat": -17.3607702, "lon": -66.1802543}, {"type": "node", "id": 9934789816, "lat": -17.3608876, "lon": -66.1801589}, {"type": "node", "id": 9960583672, "lat": -17.3853664, "lon": -66.1509883, "tags": {"addr:city": "Cochabamba", "addr:neighbourhood": "Seminario San Luis", "addr:street": "Avenida Oquendo", "amenity": "doctors", "healthcare": "doctor", "name": "Salud M\u00e9dica Integral SAMI"}}, {"type": "node", "id": 9960618084, "lat": -17.3879977, "lon": -66.1505038}, {"type": "node", "id": 9970391151, "lat": -17.3639577, "lon": -66.1660796, "tags": {"addr:city": "Cochabamba", "addr:neighbourhood": "Maryknoll", "addr:street": "Avenida Circunvalaci\u00f3n Beijing", "amenity": "pharmacy", "branch": "Farmacia Hipermaxi Circunvalaci\u00f3n", "brand": "Farmacia Hipermaxi", "brand:wikidata": "Q81970238", "dispensing": "yes", "drive_through": "no", "healthcare": "pharmacy", "level": "0", "name": "Farmacia Hipermaxi", "operator": "Farmacia Hipermaxi", "wheelchair": "yes"}}, {"type": "node", "id": 9976027034, "lat": -17.3803807, "lon": -66.1418675, "tags": {"addr:city": "Cochabamba", "addr:neighbourhood": "Mart\u00edn C\u00e1rdenas", "addr:street": "Avenida General Galindo", "amenity": "pharmacy", "dispensing": "yes", "drive_through": "no", "healthcare": "pharmacy", "name": "Farmacia"}}, {"type": "node", "id": 9976027035, "lat": -17.3801108, "lon": -66.1419677, "tags": {"access": "customers", "amenity": "parking_entrance", "level": "0", "parking": "surface"}}, {"type": "node", "id": 10030849491, "lat": -17.3374908, "lon": -66.2208885, "tags": {"amenity": "pharmacy", "dispensing": "yes", "healthcare": "pharmacy"}}, {"type": "node", "id": 10080501060, "lat": -17.3453179, "lon": -66.2038623, "tags": {"addr:city": "Tiquipaya", "addr:street": "Avenida Ecologica", "amenity": "pharmacy", "brand": "Farmacorp", "brand:wikidata": "Q81968937", "healthcare": "pharmacy", "name": "Farmacorp", "opening_hours": "24/7"}}, {"type": "node", "id": 10080510267, "lat": -17.3458801, "lon": -66.2027629, "tags": {"addr:city": "Tiquipaya", "addr:street": "Avenida Ecol\u00f3gica", "amenity": "pharmacy", "brand": "FarmaEl\u00edas", "brand:wikidata": "Q81969487", "dispensing": "yes", "healthcare": "pharmacy", "name": "FarmaEl\u00edas"}}, {"type": "node", "id": 10112549106, "lat": -17.3719852, "lon": -66.1606727, "tags": {"addr:city": "Cochabamba", "addr:street": "Calle Tupack Amaru", "amenity": "pharmacy", "healthcare": "pharmacy", "name": "Farmacia Hospital Univalle"}}, {"type": "node", "id": 10155973341, "lat": -17.3751185, "lon": -66.1570392, "tags": {"addr:city": "Cochabamba", "addr:housenumber": "1393", "addr:neighbourhood": "Portales", "addr:street": "Avenida Santa Cruz", "amenity": "pharmacy", "dispensing": "yes", "healthcare": "pharmacy", "name": "Farmalux Srl", "opening_hours": "24/7", "operator": "Farmalux"}}, {"type": "node", "id": 10210231696, "lat": -17.3644301, "lon": -66.1782027, "tags": {"addr:city": "Cochabamba", "addr:street": "Avenida Sim\u00f3n L\u00f3pez", "amenity": "pharmacy", "brand": "FarmaEl\u00edas", "brand:wikidata": "Q81969487", "dispensing": "yes", "healthcare": "pharmacy", "name": "FarmaEl\u00edas"}}, {"type": "node", "id": 10264282049, "lat": -17.372751, "lon": -66.1512653, "tags": {"addr:city": "Cochabamba", "addr:housenumber": "IC Norte", "addr:street": "Avenida Am\u00e9rica", "amenity": "pharmacy", "healthcare": "pharmacy", "name": "Farmacia IC Norte"}}, {"type": "node", "id": 10294604194, "lat": -17.3758175, "lon": -66.1729549, "tags": {"addr:city": "Cochabamba", "addr:housenumber": "1108", "addr:neighbourhood": "Pulacayo", "addr:street": "Avenida Gabriel Ren\u00e9 Moreno", "amenity": "pharmacy", "dispensing": "yes", "drive_through": "no", "healthcare": "pharmacy", "level": "0", "name": "FarmaLux", "operator": "FarmaLux", "operator:type": "private"}}, {"type": "node", "id": 10593553647, "lat": -17.3738658, "lon": -66.1451002, "tags": {"addr:city": "Cochabamba", "addr:housenumber": "1254", "addr:neighbourhood": "Bajo Aranjuez", "addr:street": "Avenida Am\u00e9rica", "amenity": "clinic", "brand": "Centro L\u00e1ser de Piel", "contact:facebook": "https://www.facebook.com/CentroLaserDePielCochabamba/", "healthcare": "clinic", "healthcare:speciality": "dermatology;plastic_surgery", "name": "Centro L\u00e1ser de Piel", "opening_hours": "Mo-Fr 08:30-19:30; Sa 08:30-18:30", "operator": "Centro L\u00e1ser de Piel", "operator:type": "private", "phone": "+591 4 4798703;+591 68473566;+591 61351345"}}, {"type": "node", "id": 10733732487, "lat": -17.3789086, "lon": -66.1648524}, {"type": "node", "id": 10733732488, "lat": -17.3788571, "lon": -66.1646293}, {"type": "node", "id": 10733732500, "lat": -17.3786976, "lon": -66.1644088}, {"type": "node", "id": 10733732501, "lat": -17.3787577, "lon": -66.1644095}, {"type": "node", "id": 10733874384, "lat": -17.3832803, "lon": -66.1480351, "tags": {"addr:city": "Cochabamba", "addr:door": "H", "addr:housenumber": "1151", "addr:neighbourhood": "Seminario San Luis", "addr:street": "Avenida Papa Paulo III", "amenity": "doctors", "contact:facebook": "https://www.facebook.com/people/Masajes-y-Acupuntura-China/100057407890762/", "contact:whatsapp": "+591 70736178", "description": "Medicina tradicional china a base de la acupuntura y masajes.", "healthcare": "alternative", "healthcare:speciality": "acupuncture;massage_therapy", "level": "2", "massage": "chinese", "name": "Masajes y Acupuntura China", "opening_hours": "Mo-Fr 09:00-12:30,15:00-19:30; Sa-Su 09:00-12:00", "operator": "Shi Yong Qian", "phone": "+591 4 4318298;+591 70736178"}}, {"type": "node", "id": 10733910234, "lat": -17.3805518, "lon": -66.1496544, "tags": {"addr:city": "Cochabamba", "addr:door": "E", "addr:housenumber": "945", "addr:neighbourhood": "Seminario San Luis", "addr:street": "Avenida Ram\u00f3n Rivero", "amenity": "clinic", "contact:facebook": "https://www.facebook.com/centro.molinaestetica", "contact:whatsapp": "+591 72294432", "description": "El centro realiza rejuvenecimiento facial, escultura labial, rinomodelaci\u00f3n, dermapen, plasma rico en plaquetas, tratamiento para acn\u00e9, eliminaci\u00f3n de manchas, micropigmentaci\u00f3n de cejas y labios.", "healthcare": "clinic", "healthcare:speciality": "dermatology", "level": "1", "name": "Centro de Especialidades MOLINA EST\u00c9TICA", "opening_hours": "Mo,Th 09:00-12:30-14:00-18:00; Tu,Fr 09:00-12:30,14:30-18:00; We 09:00-12:00,14:00-19:30; Sa 09:00-12:30", "operator": "Centro de Especialidades MOLINA EST\u00c9TICA", "operator:type": "private", "phone": "+591 72294432"}}, {"type": "node", "id": 10733910248, "lat": -17.379709, "lon": -66.1449744}, {"type": "node", "id": 10733910249, "lat": -17.3797982, "lon": -66.145228}, {"type": "node", "id": 10749474718, "lat": -17.3709575, "lon": -66.1602728, "tags": {"addr:city": "Cochabamba", "addr:housenumber": "1722", "addr:neighbourhood": "Santa Ana de Cala Cala", "addr:street": "Calle Tupak Amaru", "amenity": "doctors", "branch": "Norte", "brand": "Audioprot", "contact:whatsapp": "+591 70770270;+591 78780654", "description": "Centro audiol\u00f3gico especializado en diagn\u00f3stico y rehabilitaci\u00f3n auditiva, provisto de equipos e insumos m\u00e9dicos de \u00faltima tecnolog\u00eda.", "email": "oir@audioprot.com;info@audioprot.net", "healthcare": "audiologist", "healthcare:speciality": "otolaryngology", "level": "0", "name": "Audioprot", "opening_hours": "Mo-Fr 08:30-12:30,14:30-18:30; Sa 09:00-12:30", "operator": "Audioprot", "operator:type": "private", "payment:cash": "yes", "phone": "+591 4 4069994;+591 70770270;+591 78780654", "start_date": "1988", "website": "https://www.audioprot.com/", "wheelchair": "yes"}}, {"type": "node", "id": 10765280529, "lat": -17.3643927, "lon": -66.1635697, "tags": {"addr:city": "Cochabamba", "addr:street": "Avenida Circunvalaci\u00f3n Beijing", "amenity": "pharmacy", "drive_through": "no", "healthcare": "pharmacy", "level": "0", "name": "Farmacia V - Carmi", "operator": "Farmacia V - Carmi"}}, {"type": "node", "id": 10765280634, "lat": -17.3637641, "lon": -66.1653858, "tags": {"addr:city": "Cochabamba", "addr:street": "Avenida Circunvalaci\u00f3n", "amenity": "pharmacy", "drive_through": "no", "healthcare": "pharmacy", "level": "0"}}, {"type": "node", "id": 10783741693, "lat": -17.3844464, "lon": -66.2231002}, {"type": "node", "id": 10783741694, "lat": -17.3854657, "lon": -66.2231661}, {"type": "node", "id": 10783741695, "lat": -17.3855107, "lon": -66.2231661}, {"type": "node", "id": 10783741696, "lat": -17.3855256, "lon": -66.2229085}, {"type": "node", "id": 10783741697, "lat": -17.3854957, "lon": -66.2228803}, {"type": "node", "id": 10783741698, "lat": -17.3844674, "lon": -66.2228049}, {"type": "node", "id": 10786531309, "lat": -17.3672772, "lon": -66.2364599}, {"type": "node", "id": 10786531310, "lat": -17.3675735, "lon": -66.236492}, {"type": "node", "id": 10841430405, "lat": -17.3855003, "lon": -66.1515487, "tags": {"addr:city": "Cochabamba", "addr:door": "7-8", "addr:housenumber": "609", "addr:neighbourhood": "Central Santa Mar\u00eda", "addr:street": "Calle Juan Cris\u00f3stomo Carrillo", "amenity": "doctors", "contact:facebook": "https://www.facebook.com/people/FisioCare/100063762861413/", "contact:whatsapp": "+591 70737023", "email": "fisiocarecochabamba123@gmail.com", "healthcare": "doctor", "healthcare:speciality": "dermatology", "level": "0", "name": "FisioCare", "opening_hours": "Mo-Fr 11:00-19:00, Sa 09:00-14:00", "operator": "FisioCare", "phone": "+591 70737023", "reservation": "yes", "wheelchair": "no"}}, {"type": "node", "id": 10961856144, "lat": -17.3600594, "lon": -66.1583226}, {"type": "node", "id": 10965829779, "lat": -17.3603462, "lon": -66.1584161}, {"type": "node", "id": 10965829780, "lat": -17.3604036, "lon": -66.1582225}, {"type": "node", "id": 10965829781, "lat": -17.3603908, "lon": -66.158159}, {"type": "node", "id": 10965829782, "lat": -17.3598936, "lon": -66.1579887}, {"type": "node", "id": 10994930684, "lat": -17.3302701, "lon": -66.2423472}, {"type": "node", "id": 10994930685, "lat": -17.3301528, "lon": -66.2423344, "tags": {"access": "yes", "door": "hinged", "entrance": "main", "level": "0", "wheelchair": "limited"}}, {"type": "node", "id": 11068064531, "lat": -17.3760215, "lon": -66.142109, "tags": {"addr:city": "Cochabamba", "addr:housenumber": "11", "addr:neighbourhood": "El Pueblito", "addr:street": "Calle Antonio Aranibar Urquidi", "amenity": "clinic", "contact:facebook": "https://www.facebook.com/FisioActiveBolivia/", "contact:whatsapp": "+591 62656596", "description": "Centro de fisioterapia y rehabilitaci\u00f3n corporal en \u00e1reas de traumatolog\u00eda, lesiones musculares, post cirug\u00eda, rehabilitaci\u00f3n deportiva.", "healthcare": "clinic", "healthcare:speciality": "physiatry", "level": "0", "name": "Fisio Active", "opening_hours": "Mo,We-Fr 08:00-12:30,14:30-20:00; Tu 08:00-12:00,14:00-20:00; Sa 08:00-12:00", "phone": "+591 4 4322230;+591 62656596"}}, {"type": "node", "id": 11082324544, "lat": -17.3766342, "lon": -66.1630885}, {"type": "node", "id": 11098456184, "lat": -17.3832094, "lon": -66.158648, "tags": {"addr:city": "Cochabamba", "addr:housenumber": "838", "addr:neighbourhood": "Central Santa Mar\u00eda", "addr:street": "Avenida Jos\u00e9 Ballivi\u00e1n", "amenity": "clinic", "contact:facebook": "https://www.facebook.com/Avandsalud/", "contact:whatsapp": "+591 72222616", "email": "avandsaludsrl@gmail.com", "healthcare": "clinic", "healthcare:speciality": "paediatrics", "level": "0", "name": "Avandsalud", "opening_hours": "Mo-Fr 08:30-12:30,15:30-20:00; Sa 08:30-12:30", "operator": "Avandsalud", "operator:type": "private", "phone": "+591 4 4520489;+591 4 4521879;+591 72222616"}}, {"type": "node", "id": 11098456186, "lat": -17.3832611, "lon": -66.1586067, "tags": {"addr:city": "Cochabamba", "addr:housenumber": "838", "addr:neighbourhood": "Central Santa Mar\u00eda", "addr:street": "Avenida Jos\u00e9 Ballivi\u00e1n", "amenity": "doctors", "contact:facebook": "https://www.facebook.com/MiPediatraVale/", "contact:whatsapp": "+591 76996075", "email": "mipediatravale@gmail.com", "healthcare": "doctor", "healthcare:speciality": "paediatrics;vaccination", "level": "0", "name": "Doctora Valerie Le Noir", "opening_hours": "24/7", "operator": "Doctora Valerie Le Noir", "phone": "+591 76996075"}}, {"type": "node", "id": 11121793285, "lat": -17.3655833, "lon": -66.1719306, "tags": {"addr:city": "Cochabamba", "addr:neighbourhood": "Calampampa Mayorazgo", "addr:street": "Avenida Sim\u00f3n L\u00f3pez", "amenity": "pharmacy", "drive_through": "no", "healthcare": "pharmacy", "level": "0", "name": "Farmacia Madre de Dios", "operator": "Farmacia Madre de Dios"}}, {"type": "node", "id": 11225380268, "lat": -17.3777098, "lon": -66.176356, "tags": {"access": "private", "addr:city": "Cochabamba", "addr:neighbourhood": "Municipal Sarco", "addr:street": "Avenida Melchor P\u00e9rez de Olgu\u00edn", "amenity": "clinic", "branch": "Centro M\u00e9dico Los Olivos", "brand": "Cl\u00ednica Los Olivos", "contact:facebook": "https://www.facebook.com/ClinicaLosOlivosBo/", "contact:whatsapp": "+591 79966996", "description": "Centro cl\u00ednico de especialidades en consulta externa, enfermer\u00eda y toma de muestras.", "email": "administracion@clinicalosolivos.com", "healthcare": "hospital", "healthcare:speciality": "general", "level": "0", "name": "Centro Cl\u00ednico Los Olivos", "opening_hours": "Mo-Fr 08:00-19:00; Sa 08:00-13:00", "operator": "Cl\u00ednica Los Olivos", "operator:type": "private", "payment:cash": "yes", "phone": "+591 4 4408181;+591 79966996", "website": "https://www.clinicalosolivos.com/"}}, {"type": "node", "id": 11261784033, "lat": -17.3811368, "lon": -66.1991783, "tags": {"addr:city": "Cochabamba", "addr:neighbourhood": "San Gabriel", "addr:street": "Avenida Tadeo Haenke", "amenity": "pharmacy", "drive_through": "no", "healthcare": "pharmacy", "name": "Farmacia Farma Zen", "operator": "Farmacia Farma Zen"}}, {"type": "node", "id": 11310645822, "lat": -17.3881473, "lon": -66.1504269, "tags": {"access": "permissive", "barrier": "gate", "material": "metal", "wheelchair": "yes"}}, {"type": "node", "id": 11310736923, "lat": -17.3878265, "lon": -66.1504737, "tags": {"barrier": "gate"}}, {"type": "node", "id": 11310743158, "lat": -17.3861677, "lon": -66.1477856}, {"type": "node", "id": 11375884707, "lat": -17.3727524, "lon": -66.1558596, "tags": {"addr:city": "Cochabamba", "addr:housenumber": "435", "addr:neighbourhood": "Queru Queru Central", "addr:street": "Avenida Am\u00e9rica", "amenity": "pharmacy", "contact:facebook": "https://www.facebook.com/farmabeth/", "contact:whatsapp": "+591 60000246", "delivery": "yes", "dispensing": "yes", "drive_through": "no", "email": "info@farmabeth.com", "healthcare": "pharmacy", "level": "0", "name": "FarmaBeth", "opening_hours": "Mo-Su 08:00-22:00", "operator": "FarmaBeth", "payment:cash": "yes", "website": "https://farmabeth.com/"}}, {"type": "node", "id": 11378893852, "lat": -17.3785232, "lon": -66.1649808}, {"type": "node", "id": 11378893853, "lat": -17.3785655, "lon": -66.16502}, {"type": "node", "id": 11378893854, "lat": -17.3788595, "lon": -66.1649517}, {"type": "node", "id": 11378893856, "lat": -17.3782136, "lon": -66.1645796}, {"type": "node", "id": 11406748189, "lat": -17.3876744, "lon": -66.158775}, {"type": "node", "id": 11406748190, "lat": -17.3876886, "lon": -66.1588375}, {"type": "node", "id": 11406748206, "lat": -17.3877656, "lon": -66.1586729, "tags": {"access": "yes", "addr:city": "Cochabamba", "addr:housenumber": "541", "addr:neighbourhood": "Barba de Padilla", "addr:street": "Calle Mariano Baptista", "door": "double", "entrance": "main", "level": "0", "wheelchair": "yes"}}, {"type": "node", "id": 11406748211, "lat": -17.3877259, "lon": -66.1587176, "tags": {"addr:city": "Cochabamba", "addr:housenumber": "541", "addr:neighbourhood": "Barba de Padilla", "addr:street": "Calle Mariano Baptista", "amenity": "pharmacy", "dispensing": "yes", "drive_through": "no", "healthcare": "pharmacy", "name": "Farmacia San Vicente", "operator": "Hospital San Vicente de Paul"}}, {"type": "node", "id": 11406748212, "lat": -17.3876334, "lon": -66.1591445}, {"type": "node", "id": 11406748214, "lat": -17.3876653, "lon": -66.1593142}, {"type": "node", "id": 11552058814, "lat": -17.3581849, "lon": -66.1839705}, {"type": "node", "id": 11560957033, "lat": -17.373596, "lon": -66.1237622, "tags": {"amenity": "pharmacy", "brand": "Farmacorp", "brand:wikidata": "Q81968937", "healthcare": "pharmacy", "name": "Farmacorp"}}, {"type": "node", "id": 11593103663, "lat": -17.3871829, "lon": -66.1542304, "tags": {"addr:city": "Cochabamba", "addr:housenumber": "617", "addr:neighbourhood": "Central Santa Mar\u00eda", "addr:street": "Calle Coronel Eduardo Paccieri", "amenity": "clinic", "contact:facebook": "https://www.facebook.com/CentroMedicoAnghela/", "email": "centromedicoangela@gmail.com", "healthcare": "clinic", "healthcare:speciality": "general;gynaecology;orthodontics;radiology;nursery;clinical_pathology", "name": "Centro M\u00e9dico Anghela", "opening_hours": "Mo-Fr 08:00-19:00; Sa 08:00-13:00", "operator": "Centro M\u00e9dico Anghela", "operator:type": "private", "phone": "+591 4 4250705"}}, {"type": "node", "id": 11606340955, "lat": -17.3842925, "lon": -66.1511898, "tags": {"addr:city": "Cochabamba", "addr:neighbourhood": "Seminario San Luis", "addr:street": "Avenida Oquendo", "amenity": "pharmacy", "drive_through": "no", "healthcare": "pharmacy", "level": "0", "name": "Farmacia Robles", "operator": "Farmacia Robles", "wheelchair": "no"}}, {"type": "node", "id": 11690828324, "lat": -17.362397, "lon": -66.1810834, "tags": {"amenity": "pharmacy", "healthcare": "pharmacy", "name": "Tu Aliada"}}, {"type": "node", "id": 11827172338, "lat": -17.3882903, "lon": -66.1485271}, {"type": "node", "id": 11827181900, "lat": -17.3879793, "lon": -66.1477155, "tags": {"access": "private", "amenity": "parking_entrance", "level": "0", "parking": "surface"}}, {"type": "node", "id": 11827181902, "lat": -17.3879601, "lon": -66.1477698}, {"type": "node", "id": 11836786371, "lat": -17.3715414, "lon": -66.1753988}, {"type": "node", "id": 11836786372, "lat": -17.3715309, "lon": -66.1755949}, {"type": "node", "id": 11836786373, "lat": -17.3714949, "lon": -66.1756387}, {"type": "node", "id": 11853064056, "lat": -17.3882751, "lon": -66.1503952}, {"type": "node", "id": 11853064057, "lat": -17.3882669, "lon": -66.1503809}, {"type": "node", "id": 11853064058, "lat": -17.3882309, "lon": -66.1504342, "tags": {"access": "yes", "addr:city": "Cochabamba", "addr:neighbourhood": "Seminario San Luis", "addr:street": "Avenida Oquendo", "door": "hinged", "entrance": "yes", "level": "0", "wheelchair": "yes"}}, {"type": "node", "id": 11853064059, "lat": -17.388404, "lon": -66.150217}, {"type": "node", "id": 11853064060, "lat": -17.3881434, "lon": -66.1502447}, {"type": "node", "id": 11871357015, "lat": -17.3875675, "lon": -66.144971}, {"type": "node", "id": 11871357016, "lat": -17.3879658, "lon": -66.1448892}, {"type": "node", "id": 11871357017, "lat": -17.3879371, "lon": -66.144749}, {"type": "node", "id": 11871357018, "lat": -17.3875739, "lon": -66.1447473}, {"type": "node", "id": 11871357042, "lat": -17.3879412, "lon": -66.1447705}, {"type": "node", "id": 11871357043, "lat": -17.38795, "lon": -66.1448179, "tags": {"access": "yes", "addr:city": "Cochabamba", "addr:housenumber": "1483", "addr:neighbourhood": "San Pedro", "addr:street": "Calle Carlos D'avis", "door": "double", "entrance": "main", "level": "0"}}, {"type": "node", "id": 11871357044, "lat": -17.3877364, "lon": -66.1447481}, {"type": "node", "id": 11871357046, "lat": -17.387755, "lon": -66.1449257}, {"type": "node", "id": 11871357047, "lat": -17.3877584, "lon": -66.1449417}, {"type": "node", "id": 11871357048, "lat": -17.3875703, "lon": -66.1448741}, {"type": "node", "id": 11871357051, "lat": -17.3879615, "lon": -66.1448699}, {"type": "node", "id": 11930143158, "lat": -17.3461778, "lon": -66.165335}, {"type": "node", "id": 11930143159, "lat": -17.3459306, "lon": -66.1658002}, {"type": "node", "id": 11930143160, "lat": -17.3461546, "lon": -66.1659345}, {"type": "node", "id": 11930143164, "lat": -17.3461973, "lon": -66.1653463}, {"type": "node", "id": 11930143165, "lat": -17.3461961, "lon": -66.1658551}, {"type": "node", "id": 11961369370, "lat": -17.3659015, "lon": -66.1894, "tags": {"addr:city": "Cochabamba", "addr:neighbourhood": "Hallein", "addr:street": "Avenida Segunda", "amenity": "pharmacy", "drive_through": "no", "healthcare": "pharmacy", "level": "0", "name": "Farmacia Vida Plus", "operator": "Farmacia Vida Plus", "wheelchair": "yes"}}, {"type": "node", "id": 11989848465, "lat": -17.3795548, "lon": -66.1599732}, {"type": "node", "id": 11989848466, "lat": -17.3794483, "lon": -66.1597355}, {"type": "node", "id": 11989848467, "lat": -17.3794728, "lon": -66.1602186}, {"type": "node", "id": 11989848468, "lat": -17.3795204, "lon": -66.1602129}, {"type": "node", "id": 11989849669, "lat": -17.3795395, "lon": -66.1604552}, {"type": "node", "id": 11989849670, "lat": -17.3795648, "lon": -66.1604477, "tags": {"access": "yes", "addr:city": "Cochabamba", "addr:housenumber": "1140", "addr:neighbourhood": "Portales", "addr:street": "Avenida Libertador Sim\u00f3n Bol\u00edvar", "door": "hinged", "entrance": "main", "level": "0", "wheelchair": "yes"}}, {"type": "node", "id": 12016109025, "lat": -17.3527433, "lon": -66.2002801, "tags": {"access": "yes", "addr:city": "Tiquipaya", "door": "hinged", "entrance": "main", "level": "0", "wheelchair": "yes"}}, {"type": "node", "id": 12048653107, "lat": -17.387391, "lon": -66.1534291}, {"type": "node", "id": 12048653108, "lat": -17.387377, "lon": -66.1534344}, {"type": "node", "id": 12048653109, "lat": -17.3874515, "lon": -66.1536597}, {"type": "node", "id": 12048653111, "lat": -17.3874004, "lon": -66.153465}, {"type": "node", "id": 12072161437, "lat": -17.385248, "lon": -66.1673481, "tags": {"addr:housenumber": "o1366", "addr:street": "Avenida Tadeo Haenke", "amenity": "pharmacy", "name": "Farmacia Tadeo Haenke", "phone": "+591-44404731"}}, {"type": "node", "id": 12080024846, "lat": -17.3837927, "lon": -66.1601153, "tags": {"amenity": "pharmacy", "healthcare": "pharmacy", "name": "Farmacia Manchester"}}, {"type": "node", "id": 12080048378, "lat": -17.3834949, "lon": -66.1551394, "tags": {"amenity": "clinic", "name": "Capilea"}}, {"type": "node", "id": 12080060388, "lat": -17.3839553, "lon": -66.1560635, "tags": {"amenity": "pharmacy", "name": "Farmacia Sandarey"}}, {"type": "node", "id": 12096329270, "lat": -17.373942, "lon": -66.1419729, "tags": {"addr:city": "Cochabamba", "addr:neighbourhood": "El Pueblito", "addr:street": "Avenida Am\u00e9rica", "amenity": "pharmacy", "drive_through": "no", "healthcare": "pharmacy", "level": "0", "name": "Mag\u00fci Pharmacy", "operator": "Mag\u00fci Pharmacy", "payment:cash": "yes", "wheelchair": "yes"}}, {"type": "node", "id": 12329337603, "lat": -17.3814101, "lon": -66.1536363, "tags": {"amenity": "pharmacy", "name": "Farmacia Pharmaprada", "wheelchair": "yes"}}, {"type": "node", "id": 12348682465, "lat": -17.3728676, "lon": -66.1429328, "tags": {"addr:street": "Avenida Galindo", "amenity": "pharmacy", "name": "Farmacia Zurich"}}, {"type": "node", "id": 12361966013, "lat": -17.3843287, "lon": -66.1578959, "tags": {"access": "yes", "door": "hinged", "entrance": "main", "level": "0", "wheelchair": "no"}}, {"type": "node", "id": 12361966017, "lat": -17.3858684, "lon": -66.1578094}, {"type": "node", "id": 12361966018, "lat": -17.3857202, "lon": -66.1576107}, {"type": "node", "id": 12361966019, "lat": -17.3858254, "lon": -66.1575289}, {"type": "node", "id": 12361966020, "lat": -17.3860243, "lon": -66.1577128}, {"type": "node", "id": 12410976761, "lat": -17.3838284, "lon": -66.1591213}, {"type": "node", "id": 12614210547, "lat": -17.3839907, "lon": -66.1550507, "tags": {"amenity": "pharmacy", "name": "Farmacia Saturno", "wheelchair": "no"}}, {"type": "node", "id": 12671045257, "lat": -17.3728083, "lon": -66.1608739, "tags": {"addr:housenumber": "S/N", "addr:street": "Avenida Am\u00e9rica", "amenity": "pharmacy", "name": "FarmaElias"}}, {"type": "node", "id": 12714404086, "lat": -17.3717116, "lon": -66.1577326, "tags": {"addr:city": "Cochabamba", "addr:neighbourhood": "Santa Ana de Cala Cala", "addr:street": "Calle Juan Capriles", "amenity": "pharmacy", "drive_through": "no", "healthcare": "pharmacy", "level": "0", "name": "Pharma V & R", "operator": "Pharma V & R"}}, {"type": "node", "id": 12748996051, "lat": -17.3460308, "lon": -66.2033092, "tags": {"addr:city": "Tiquipaya", "addr:street": "Avenida Ecol\u00f3gica", "amenity": "pharmacy", "healthcare": "pharmacy", "name": "Farmacia Farmabienestar", "opening_hours": "24/7"}}, {"type": "node", "id": 12834970401, "lat": -17.3756367, "lon": -66.1609903, "tags": {"addr:city": "Cochabamba", "addr:housename": "Edificio Hel\u00e9nica", "addr:housenumber": "1411", "addr:neighbourhood": "Portales", "addr:street": "Calle Tarija", "amenity": "clinic", "branch": "Multisalud Cochabamba", "brand": "Mutisalud", "contact:facebook": "https://www.facebook.com/MultisaludLP", "contact:whatsapp": "+591 76715467", "email": "info@multisalud.com.bo", "healthcare": "clinic", "healthcare:speciality": "general", "level": "0", "name": "Centro M\u00e9dico Multisalud", "operator": "Centro de Especialidades M\u00e9dicas Multisalud", "operator:type": "private", "payment:cash": "yes", "phone": "+591 62745502;+591 76715467", "start_date": "2024-09-06", "website": "http://multisalud.com.bo/", "wheelchair": "yes"}}, {"type": "node", "id": 12953999323, "lat": -17.3855779, "lon": -66.1656973}, {"type": "node", "id": 12953999324, "lat": -17.3854409, "lon": -66.1658954}, {"type": "node", "id": 12954782937, "lat": -17.3855255, "lon": -66.1656576}, {"type": "node", "id": 12956628478, "lat": -17.38543, "lon": -66.1658871, "tags": {"access": "private", "amenity": "parking_entrance", "level": "0", "parking": "surface"}}, {"type": "node", "id": 12956628479, "lat": -17.3853992, "lon": -66.1658636, "tags": {"access": "yes", "addr:city": "Cochabamba", "addr:housenumber": "866", "addr:neighbourhood": "Villa Montenegro", "addr:street": "Pasaje Del Mitayo", "door": "hinged", "entrance": "main", "level": "0", "wheelchair": "no"}}, {"type": "node", "id": 12979124175, "lat": -17.3789093, "lon": -66.1816981, "tags": {"addr:city": "Cochabamba", "addr:neighbourhood": "Sarco Central", "addr:street": "Avenida Beijing", "amenity": "pharmacy", "branch": "Sucursal Beijing", "brand": "Farmacia Hipermaxi", "brand:wikidata": "Q81970238", "drive_through": "no", "healthcare": "pharmacy", "level": "0", "name": "Farmacia Hipermaxi", "opening_hours": "Mo-Su 07:00-22:30; PH Off", "operator": "Hipermaxi", "payment:cash": "yes", "payment:credit_cards": "yes", "payment:debit_cards": "yes", "start_date": "2025-07-04", "website": "https://www.hipermaxi.com/", "wheelchair": "yes"}}, {"type": "way", "id": 159398359, "nodes": [1715141585, 2956787178, 5574208516, 5574208515, 5574208513, 2956787182, 5574208514, 1715141611, 1715141594, 1715141600, 1715141548, 2956787209, 1715143504, 2956787206, 1715141619, 1715141585], "tags": {"addr:city": "Sacaba", "addr:neighbourhood": "Quintanilla", "addr:street": "Avenida Maximiliano Kolbe", "amenity": "hospital", "barrier": "yes", "emergency": "yes", "healthcare": "hospital", "healthcare:speciality": "general", "name": "Hospital Salomon Klein"}}, {"type": "way", "id": 225195036, "nodes": [2340084691, 4586488270, 2340084692, 2340084693, 2340084694, 2340084691], "tags": {"addr:city": "Colcapirhua", "addr:neighbourhood": "Colcapirhua Central", "addr:street": "Avenida La Paz", "amenity": "hospital", "barrier": "yes", "emergency": "yes", "healthcare": "hospital", "healthcare:speciality": "general", "name": "Hospital Andr\u00e9s Cushieri"}}, {"type": "way", "id": 226975239, "nodes": [4806293648, 9012647582, 2357109621, 3290784350, 3290784352, 2357109623, 3290784353, 3290784351, 2357109625, 3290784348, 3290784347, 3290784346, 3290784344, 3290784339, 2357109629, 3290784340, 3290784341, 3290784345, 4806293648], "tags": {"addr:city": "Cochabamba", "addr:street": "Avenida Circunvalaci\u00f3n Beijing", "amenity": "clinic", "barrier": "wall", "healthcare": "clinic", "healthcare:speciality": "general;endodontics", "name": "Centro de Salud Pacata", "operator": "Gobierno Aut\u00f3nomo Municipal de Cochabamba", "operator:short": "GAMC", "operator:type": "government"}}, {"type": "way", "id": 226975279, "nodes": [2357110128, 8546998987, 2357110130, 8546998993, 2357110131, 8546998994, 2357110132, 8546998986, 8546998997, 2357110133, 2357110134, 8546998988, 2357110128], "tags": {"addr:city": "Cochabamba", "addr:neighbourhood": "Beato Salom\u00f3n", "addr:street": "Calle Damian Rejas", "amenity": "clinic", "barrier": "wall", "healthcare": "clinic", "healthcare:speciality": "general;endodontics;blood_check;clinical_pathology", "name": "Centro de Salud Beato Salom\u00f3n", "opening_hours": "Mo-Su 08:00-16:00", "operator": "Gobierno Aut\u00f3nomo Municipal de Cochabamba", "operator:short": "GAMC", "operator:type": "government"}}, {"type": "way", "id": 226978863, "nodes": [2357140534, 2357140537, 2357140539, 2357140541, 3268302882, 3268302881, 2357140543, 2357140545, 2357140549, 2357140551, 8552148797, 2357140553, 2357140554, 2357140534], "tags": {"addr:city": "Cochabamba", "addr:street": "Avenida Thunupa", "amenity": "clinic", "barrier": "wall", "healthcare": "clinic", "healthcare:speciality": "general;endodontics;gynaecology;paediatrics;blood_check;clinical_pathology;radiology", "name": "Maternol\u00f3gico Sarcobamba", "opening_hours": "24/7", "operator": "Gobierno Aut\u00f3nomo Municipal de Cochabamba", "operator:short": "GAMC", "operator:type": "government"}}, {"type": "way", "id": 231406777, "nodes": [2398009475, 8388301596, 2398009476, 4437402917, 9287273631, 8388301560, 9287273630, 4965282160, 4965282159, 2442129477, 4965282165, 2442129464, 2398009478, 8388282784, 2442129478, 8388282789, 8388282792, 2398009479, 8388282793, 4965282186, 4965282180, 2398009480, 4965282181, 2398009481, 4965282215, 2398009482, 8388301569, 2442129579, 2442129582, 10733910248, 10733910249, 2398009475], "tags": {"addr:city": "Cochabamba", "addr:neighbourhood": "Seminario San Luis", "addr:street": "Avenida Ram\u00f3n Rivero", "alt_name": "Hospital COSSMIL", "amenity": "hospital", "barrier": "wall", "branch": "Regional Cochabamba", "contact:website": "http://www.cossmil.mil.bo/", "emergency": "yes", "healthcare": "hospital", "healthcare:speciality": "general", "name": "Hospital Corporaci\u00f3n de Seguro Social Militar 1", "operator": "Ej\u00e9rcito de Bolivia", "operator:type": "military"}}, {"type": "way", "id": 321323184, "nodes": [3280635025, 8551840802, 3280635030, 3280635031, 3280635033, 3280635036, 3280635037, 3280635041, 3280635043, 3280635042, 3280635040, 3280635039, 3280635027, 8551840794, 3280635025], "tags": {"addr:city": "Cochabamba", "addr:neighbourhood": "Urbanizaci\u00f3n Dora Halkier", "addr:street": "Calle Yanapay", "amenity": "clinic", "barrier": "wall", "healthcare": "clinic", "healthcare:speciality": "general;endodontics;blood_check;clinical_pathology;paediatrics;gynaecology", "name": "Centro de Salud Edgar Monta\u00f1o R.", "opening_hours": "24/7", "operator": "Gobierno Aut\u00f3nomo Municipal de Cochabamba", "operator:short": "GAMC", "operator:type": "government"}}, {"type": "way", "id": 348505311, "nodes": [3546321702, 12016109025, 2938502765, 3546321696, 3546321695, 3546321692, 3546321669, 3546321681, 3546321699, 3546321700, 3546321701, 3546321702], "tags": {"addr:city": "Tiquipaya", "addr:neighbourhood": "Tika Kathu", "amenity": "hospital", "barrier": "yes", "contact:facebook": "https://www.facebook.com/people/Instituto-Oncologico-Nacional-Caja-Petrolera-de-Salud/100093310912510/", "email": "oncologico_cps@yahoo.es", "health_facility:type": "hospital", "healthcare": "hospital", "healthcare:speciality": "urology;radiology;oncology;internal;general;clinical_pathology;haematology;gynaecology;anaesthetics", "name": "Instituto Oncol\u00f3gico Nacional", "office": "research", "opening_hours": "24/7", "operator": "Caja Petrolera de Salud", "operator:short": "CPS", "operator:type": "public", "phone": "+591 4 4288039;+591 4288754;+591 4 4488754", "short_name": "ION"}}, {"type": "way", "id": 364815615, "nodes": [3688559606, 4989092565, 3688559589, 3688559591, 3688559586, 9028209383, 3688559593, 3688559602, 3688559601, 3688559607, 4989094511, 3688559611, 3688559616, 3688560631, 3688559614, 3688559610, 3688559606], "tags": {"addr:city": "Cochabamba", "addr:neighbourhood": "Seminario San Luis", "addr:street": "Calle Venezuela", "amenity": "hospital", "building": "hospital", "building:levels": "2", "emergency": "yes", "healthcare": "hospital", "healthcare:speciality": "gastroenterology;emergency", "name": "Instituto Gastroenterol\u00f3gico Boliviano-Japon\u00e9s", "office": "research", "short_name": "IGBJ", "start_date": "1981", "wheelchair": "yes"}}, {"type": "way", "id": 424476737, "nodes": [4238852981, 7703868573, 4238852982, 4238852984, 4238852985, 7703868574, 4238852981], "tags": {"addr:city": "Tiquipaya", "addr:street": "Calle Toribio Torrico", "amenity": "hospital", "barrier": "wall", "building": "yes", "emergency": "yes", "healthcare": "hospital", "healthcare:speciality": "general", "name": "Hospital de Tiquipaya", "operator": "Gobierno Aut\u00f3nomo Municipal de Tiquipaya", "operator:type": "government", "phone": "+591 4 4316729;+591 4 4316301"}}, {"type": "way", "id": 429793473, "nodes": [9898754125, 5039918715, 5039918716, 4289864133, 7776434609, 9898754125], "tags": {"addr:city": "Cochabamba", "addr:neighbourhood": "Recoleta", "addr:street": "Calle Beni", "amenity": "pharmacy", "branch": "Sucursal Recoleta", "brand": "FarmaEl\u00edas", "brand:wikidata": "Q81969487", "building": "retail", "building:levels": "2", "contact:email": "info@farmaelias.com", "contact:facebook": "farmaciaseliasbo", "contact:phone": "+591-4-4549033;+591 78336000", "contact:website": "https://www.farmaelias.com/", "contact:whatsapp": "+591 78336000", "delivery": "yes", "dispensing": "yes", "drive_through": "no", "healthcare": "pharmacy", "name": "FarmaEl\u00edas", "opening_hours": "Mo-Su 08:00-22:00", "opening_hours:delivery": "Mo-Su 08:00-22:00", "operator": "FarmaEl\u00edas", "payment:cash": "yes"}}, {"type": "way", "id": 509712935, "nodes": [4989094465, 4989092564, 4989094464, 9028209410, 4989094461, 9031318886, 4989094460, 9035366540, 4989094490, 4989094489, 9035366543, 9035366546, 4989092583, 4989092582, 4989092581, 4989094478], "tags": {"barrier": "fence"}}, {"type": "way", "id": 509712936, "nodes": [5539304121, 5539303819, 5539303817, 9034180346, 9034180351, 9034180352, 9034180349, 9028237629, 9034180339, 5353106761, 9034180338, 9028209407, 4989094465], "tags": {"barrier": "fence"}}, {"type": "way", "id": 509712937, "nodes": [4989094479, 6465878473, 9031318827, 6465878470, 4989092578, 4989092577, 4989092576, 4989092575, 4989092574, 11310743158, 6465878443, 6465878469, 9028209369, 9889059629, 4989094426, 4989094427, 4989092620, 4989094421, 4989092573, 4989092585, 4989092587, 5353106744, 9028237628, 4989092598, 9034180361, 9028237681, 4989092610, 4989092611, 4989092599, 4989092605, 4989092588, 4129426665, 4989092589, 4989092590, 4989092591, 9031318918, 9028237651, 4989092592, 6465878475, 11853064058, 4989092594, 9028237641, 9028237643], "tags": {"barrier": "fence"}}, {"type": "way", "id": 509712938, "nodes": [5539304121, 6465878371, 6465878373, 6465878374, 2164812163, 11310736923, 4989092595], "tags": {"barrier": "fence"}}, {"type": "way", "id": 509712976, "nodes": [7370468391, 4989094819, 11853064060, 4989094818, 11853064059, 4989094814, 4989094817, 11853064056, 11853064057, 9028237642, 7370468391], "tags": {"addr:city": "Cochabamba", "addr:neighbourhood": "Seminario San Luis", "addr:street": "Avenida Oquendo", "alt_name": "Oncolog\u00eda Pedi\u00e1trica", "amenity": "hospital", "building": "hospital", "building:levels": "4", "emergency": "yes", "healthcare": "hospital", "healthcare:speciality": "oncology;paediatrics", "name": "Hospital del Ni\u00f1o Manuel Ascencio Villarroel", "start_date": "1914", "wheelchair": "yes"}}, {"type": "way", "id": 554380798, "nodes": [8498939214, 5350275952, 5350275953, 12361966013, 5350275954, 8498939214], "tags": {"addr:city": "Cochabamba", "addr:housenumber": "883-1", "addr:neighbourhood": "Central Santa Mar\u00eda", "addr:street": "Avenida Jos\u00e9 Ballivi\u00e1n", "amenity": "pharmacy", "branch": "Sucursal Pando", "brand": "FarmaEl\u00edas", "brand:wikidata": "Q81969487", "building": "retail", "building:levels": "1", "contact:facebook": "farmaciaseliasbo", "contact:whatsapp": "+591 62607979", "delivery": "yes", "dispensing": "yes", "drive_through": "yes", "email": "info@farmaelias.com", "healthcare": "pharmacy", "name": "FarmaEl\u00edas", "opening_hours": "24/7", "opening_hours:delivery": "08:00-22:00", "operator": "FarmaEl\u00edas", "operator:type": "private", "payment:cash": "yes", "phone": "+591 4 4416565;+591 62607979", "website": "https://www.farmaelias.com/", "wheelchair": "no"}}, {"type": "way", "id": 578658472, "nodes": [5543915999, 5543916000, 5543916001, 9065362050, 11827181902, 11827181900, 5543916002, 5543916003, 5002506120, 5543916004, 5543916005, 5543916006, 5543916007, 11827172338, 9057381779, 9057381780, 5543916008, 8686708764, 5543915999], "tags": {"addr:city": "Cochabamba", "addr:housenumber": "374", "addr:neighbourhood": "San Pedro", "addr:street": "Avenida Aniceto Arce", "amenity": "hospital", "barrier": "wall", "contact:facebook": "https://www.facebook.com/ssucbba/", "email": "info@ssucbba.org", "emergency": "yes", "healthcare": "hospital", "healthcare:speciality": "general;psycology;infectious_desease;nutrition;physical_therapy;urology;dermatology;otorhinolaryngology;anesthesiology;trauma;cardiology;endocrinology;rheumatology;gynaecology;endodontics;nephrology;gastroenterology;neurology;paediatrics", "name": "Seguro Social Universitario Cochabamba", "opening_hours": "24/7", "operator": "Ministerio de Salud y Deportes", "operator:short": "MinSalud", "operator:type": "government", "operator:wikidata": "Q44225411", "phone": "+591 4 4232989;+591 4 4533550", "reservation": "yes", "short_name": "SSU CBBA", "start_date": "1974-05-06", "website": "https://ssucbba.org/", "wheelchair": "yes"}}, {"type": "way", "id": 581351789, "nodes": [11552058814, 5562728317, 5562728318, 5562728319, 5562728320, 11552058814], "tags": {"amenity": "pharmacy", "building": "yes", "dispensing": "yes", "healthcare": "pharmacy", "name": "Farmacia"}}, {"type": "way", "id": 587025679, "nodes": [2357140575, 5607875084, 5607875085, 5607875066, 5607875071, 2357140575], "tags": {"addr:city": "Cochabamba", "addr:neighbourhood": "Fabril de Sarcobamba", "addr:street": "Calle 23 de Enero", "amenity": "clinic", "barrier": "wall", "healthcare": "clinic", "healthcare:speciality": "general", "name": "Posta M\u00e9dica Sarcobamba"}}, {"type": "way", "id": 686522943, "nodes": [4106075093, 6434908164, 6434908165, 6434908166, 6434908167, 9564951919, 6434908168, 6434908169, 9564951922, 5541740092, 9564951918, 12048653108, 12048653107, 12048653111, 9564927816, 9564927815, 12048653109, 5541740088, 4106075093], "tags": {"addr:city": "Cochabamba", "addr:neighbourhood": "Central Santa Mar\u00eda", "addr:street": "Calle Antezana", "amenity": "hospital", "barrier": "wall", "email": "administracion@cmqbb.com", "emergency": "yes", "healthcare": "hospital", "healthcare:speciality": "general", "name": "Hospital Belga CMQBB", "operator": "Hospital Belga CMQBB", "operator:type": "private", "website": "https://www.cmqbb.com/"}}, {"type": "way", "id": 689245677, "nodes": [4129426680, 9960618084, 4989094808, 4989094809, 4989092595]}, {"type": "way", "id": 693667478, "nodes": [4989094479, 4989094478]}, {"type": "way", "id": 737804744, "nodes": [6908133953, 6908133984, 6908133983, 6908133954, 6908133955, 6908149385, 6908149386, 9021398276, 6908133956, 6908133971, 6908133972, 6908133953], "tags": {"addr:city": "Cochabamba", "addr:neighbourhood": "Santa Ana de Cala Cala", "addr:street": "Calle T\u00fapac Amaru", "amenity": "hospital", "building": "hospital", "building:levels": "8", "emergency": "yes", "healthcare": "hospital", "healthcare:speciality": "general;maternity", "name": "Hospital UniValle Norte", "opening_hours": "24/7", "operator": "UniValle", "operator:type": "private", "phone": "+591 76448990", "website": "http://hospitalunivalle.com.bo/", "wheelchair": "yes"}}, {"type": "way", "id": 738459330, "nodes": [6914838740, 6914838741, 6914838742, 6914838743, 6914838740], "tags": {"addr:city": "Combuyo", "amenity": "clinic", "barrier": "wall", "check_date": "2024-12-05", "emergency": "yes", "healthcare": "clinic", "healthcare:speciality": "general", "name": "Centro de Salud Combuyo", "operator": "Gobierno Aut\u00f3nomo Municipal de Quillacollo", "operator:short": "GAMQ", "operator:type": "government"}}, {"type": "way", "id": 812721602, "nodes": [7591061416, 7591061417, 7591061418, 7591061419, 7591061420, 7591061416], "tags": {"addr:city": "Quillacollo", "amenity": "hospital", "barrier": "wall", "emergency": "yes", "healthcare": "hospital", "healthcare:speciality": "general", "name": "Centro de Salud El Paso", "operator": "Minsalud", "operator:type": "public"}}, {"type": "way", "id": 821656784, "nodes": [7671972311, 7671972322, 7671972330, 7671972312, 7671972313, 7671972314, 7671972315, 7671972316, 7671972326, 7671972317, 11406748206, 7671972318, 11406748189, 11406748190, 7671972319, 7671972320, 7671972321, 5350197568, 11406748212, 7671972324, 11406748214, 7671972311], "tags": {"addr:city": "Cochabamba", "addr:housenumber": "541", "addr:neighbourhood": "Barba de Padilla", "addr:street": "Calle Mariano Baptista", "amenity": "hospital", "barrier": "wall", "emergency": "yes", "healthcare": "hospital", "healthcare:speciality": "general;oncology;gynaecology;cardiology;dermatology;paediatrics;surgery;radiology;clinical_pathology;trauma;otolaryngology;intensive;neonatology", "name": "Hospital San Vicente", "opening_hours": "Mo-Su 08:00-18:30", "operator": "Hospital San Vicente de Paul", "operator:type": "private", "phone": "+591 4 4254321;591 4 4254352"}}, {"type": "way", "id": 866768602, "nodes": [5517732394, 5517732391, 5517732390, 8079027813, 8079027814, 5517732389, 5517732394], "tags": {"addr:city": "Cochabamba", "addr:housenumber": "1253", "addr:neighbourhood": "Portales", "addr:street": "Calle Potos\u00ed", "amenity": "hospital", "barrier": "wall", "contact:facebook": "https://www.facebook.com/clinicacopacabana/", "contact:whatsapp": "+591 79959570", "email": "informaciones@clinicacopacabana.com", "emergency": "yes", "healthcare": "hospital", "healthcare:speciality": "cardiology;surgery;oncology;plastic_surgery;dermatology;endocrinology;physiatry;gastroenterology;gynaecology;laboratory;internal;general;nephrology;neurology;ophthalmology;paediatrics;psychiatry;radiology;intensive;trauma;urology", "name": "Cl\u00ednica Copacabana", "opening_hours": "24/7", "operator": "Cl\u00ednica Copacabana", "operator:type": "private", "phone": "+591 79959570;+591 4 4242362;+591 4 4281125", "short_name": "CC", "start_date": "~1948", "website": "https://www.clinicacopacabana.com/"}}, {"type": "way", "id": 878493310, "nodes": [8172704548, 9882271390, 8172704549, 9882271389, 9047064031, 9047064030, 9047064029, 8172704550, 2361168099, 9882271348, 2361168100, 8172704551, 9976027035, 8172704548], "tags": {"addr:city": "Cochabamba", "addr:housenumber": "1036", "addr:neighbourhood": "Mart\u00edn C\u00e1rdenas", "addr:street": "Avenida General Galindo", "amenity": "clinic", "barrier": "wall", "emergency": "yes", "healthcare": "clinic", "healthcare:speciality": "general", "name": "Cl\u00ednica Luis Morales Arnez"}}, {"type": "way", "id": 882588381, "nodes": [8207911014, 8207911015, 8207911016, 8207911018, 8207911017, 8207911014], "tags": {"addr:city": "Cochabamba", "addr:neighbourhood": "Primavera", "addr:street": "Avenida Ram\u00f3n Espinoza", "amenity": "clinic", "barrier": "wall", "healthcare": "clinic", "healthcare:speciality": "general", "name": "Centro de Salud Pacata", "operator": "Gobierno Aut\u00f3noo Municipal de Cochabamba", "operator:type": "government"}}, {"type": "way", "id": 897742246, "nodes": [8343523394, 8343523395, 9429787456, 8343523396, 8343523397, 9429787457, 8343523398, 8343523394], "tags": {"addr:city": "Cochabamba", "addr:neighbourhood": "Central Santa Mar\u00eda", "addr:street": "Calle Juan Cris\u00f3stomo Carrillo", "amenity": "hospital", "barrier": "wall", "emergency": "yes", "healthcare": "hospital", "healthcare:speciality": "general", "name": "Hospital Aranjuez", "operator": "Hospital Aranjuez", "operator:type": "private", "wheelchair": "yes"}}, {"type": "way", "id": 901022141, "nodes": [8370221196, 8372676172, 8370221195, 8370221194, 8372676174, 8370221214, 8370221213, 2126674133, 8370221219, 8370221196], "tags": {"addr:city": "Cochabamba", "addr:neighbourhood": "Bajo Aranjuez", "addr:street": "Avenida Am\u00e9rica", "amenity": "clinic", "barrier": "wall", "healthcare": "clinic", "healthcare:speciality": "general", "name": "Centro de Salud San Vicente"}}, {"type": "way", "id": 908559949, "nodes": [8436201487, 4608664733, 4608664730, 4607916615, 8436201502, 8436201501, 8436201439, 8436201440, 8436201487], "tags": {"addr:city": "Cochabamba", "addr:street": "Avenida General Bernardino Bilbao Rioja", "amenity": "clinic", "barrier": "yes", "healthcare": "clinic", "healthcare:speciality": "general", "name": "Centro M\u00e9dico Maria Inmaculada"}}, {"type": "way", "id": 909813715, "nodes": [8447477129, 8914841247, 8775659956, 8914841245, 8447477130, 8447477132, 8221521979, 8221521985, 8914841249, 8447477133, 8447477129], "tags": {"addr:city": "Cochabamba", "addr:neighbourhood": "Urbanizaci\u00f3n Dora Halkier", "addr:street": "Calle Urpila", "amenity": "hospital", "barrier": "yes", "check_date": "2025-02-23", "contact:phone": "+591 4 4066607", "emergency": "yes", "healthcare": "hospital", "healthcare:speciality": "general;internal;intensive;surgery;trauma;laboratory;physiatry;emergency", "name": "Hospital del Norte", "opening_hours": "24/7", "operator": "Gobierno Aut\u00f3nomo Municipal de Cochabamba", "operator:type": "public"}}, {"type": "way", "id": 921103190, "nodes": [3539964205, 3539964202, 3539964203, 8551868656, 3539964204, 3539964205], "tags": {"addr:city": "Cochabamba", "addr:street": "Avenida Lluq'i Yupanqui", "amenity": "clinic", "barrier": "wall", "healthcare": "clinic;centre", "healthcare:speciality": "general;endodontics;blood_check;clinical_pathology", "name": "Centro de Salud Santa Ana de Condebamba", "opening_hours": "Mo-Fr 08:00-16:00", "operator": "Gobierno Aut\u00f3nomo Municipal de Cochabamba", "operator:short": "GAMC", "operator:type": "government"}}, {"type": "way", "id": 925301287, "nodes": [2422613364, 9915957554, 11082324544, 8587411336, 9915957556, 8587411337, 8587411338, 8587411339, 8587411340, 8587411341, 8587411359, 8587411356, 2422613364], "tags": {"addr:city": "Cochabamba", "addr:neighbourhood": "Magisterio 6 de Junio", "addr:street": "Calle Obispo Anaya", "amenity": "hospital", "barrier": "yes", "branch": "Policl\u00ednico Central", "contact:facebook": "https://www.facebook.com/cajacordescochabamba/", "email": "info@cajacordescba.bo", "emergency": "yes", "healthcare": "hospital", "healthcare:speciality": "general", "name": "Caja de Salud CORDES", "opening_hours": "24/7", "operator": "Caja de Salud CORDES", "operator:type": "private", "phone": "+591 4 4417000;+591 4 4417002;+591 4 4417003", "start_date": "1973-09-11", "website": "https://cajacordescba.bo/", "wheelchair": "yes"}}, {"type": "way", "id": 925789550, "nodes": [8591687954, 3928838408, 11378893852, 8591687981, 11378893853, 8591687974, 11378893854, 8591687975, 10733732487, 10733732488, 8591687982, 8591687983, 8591687984, 10733732501, 8591687985, 10733732500, 9915932711, 9915932712, 8591687953, 11378893856, 8591687954], "tags": {"addr:city": "Cochabamba", "addr:neighbourhood": "Magisterio 6 de Junio", "addr:street": "Avenida Juan de la Rosa", "amenity": "hospital", "contact:email": "info@cla.com.bo", "contact:facebook": "https://www.facebook.com/ClinicaLosAngelesCochabamba/", "contact:phone": "+591 4 4012370", "contact:website": "http://clinicalosangeles.com.bo/", "emergency": "yes", "healthcare": "hospital", "healthcare:speciality": "general;clinical_laboratory;cardiology;surgery;dermatology;physical therapy;gastroenterology;geriatrics;gynaecology;internal;nephrology;oncology;radiology", "name": "Cl\u00ednica Los Angeles", "opening_hours": "24/7", "operator": "Cl\u00ednica Los Angeles", "operator:type": "private"}}, {"type": "way", "id": 929901823, "nodes": [8623452956, 8623452957, 8623452958, 8623452959, 8623452960, 8623452961, 8623452962, 8623452956], "tags": {"addr:city": "Vinto", "addr:neighbourhood": "Anocaraire", "addr:street": "Calle Anocaraire", "amenity": "hospital", "barrier": "yes", "healthcare": "hospital", "healthcare:speciality": "general", "name": "Hospital Anocaraire", "operator": "Gobierno Aut\u00f3nomo Municipal de Vinto", "operator:short": "GAMV", "operator:type": "government"}}, {"type": "way", "id": 963128458, "nodes": [4218223058, 8909112200, 8909112203, 8909112197, 8909112198, 8909112199, 4218223058], "tags": {"addr:city": "Cochabamba", "addr:housenumber": "1532", "addr:neighbourhood": "San Pedro", "addr:street": "Calle Carlos D'avis", "amenity": "clinic", "barrier": "wall", "healthcare": "clinic", "healthcare:speciality": "orthodontics", "name": "Policl\u00ednico Especialidades Odontol\u00f3gicas CORDES", "operator": "Cordes", "operator:type": "private"}}, {"type": "way", "id": 963128471, "nodes": [5091127510, 3250373479, 5091127516, 5091127517, 5543865520, 8909153764, 2590640169, 2164839484, 5091127510], "tags": {"addr:city": "Cochabamba", "addr:housenumber": "487", "addr:neighbourhood": "San Pedro", "addr:street": "Calle Aurelio Melean", "amenity": "clinic", "barrier": "wall", "blood:whole": "yes", "contact:facebook": "https://www.facebook.com/BSRCBBA/", "description": "Centro de donaci\u00f3n voluntaria de sangre, captaci\u00f3n de donadores voluntarios, procesamiento, fraccionamiento y distribuci\u00f3n de hemocomponentes seguros y de calidad y en forma oportuna a todos los centros de salud de Cochabamba.", "email": "bancodesangrecbba@gmail.com", "healthcare": "blood_donation", "healthcare:speciality": "blood_donation", "name": "Banco de Sangre de Referencia Cochabamba", "old_name": "Servicio Transfusional", "opening_hours": "Mo-Sa 08:00-20:00", "operator": "Banco de Sangre de Referencia Cochabamba", "phone": "+591 4 4532708;+591 4 4664238", "short_name": "BSR CBBA", "start_date": "1999", "website": "https://www.bancodesangrecbba.org.bo/"}}, {"type": "way", "id": 965094784, "nodes": [2468432968, 8927805100, 5567037567, 5567037571, 8927805101, 8927805102, 2468432968], "tags": {"addr:city": "Cochabamba", "addr:neighbourhood": "San Lorenzo", "addr:street": "Calle Daniel Pe\u00f1a Sarmiento", "amenity": "clinic", "barrier": "wall", "contact:phone": "+591 4 4309475;4023848;+591+591 4  4 4510512", "contact:website": "https://www.prosalud.org/", "emergency": "yes", "health_facility:type": "hospital", "healthcare": "clinic", "healthcare:speciality": "general;paediatrics;gynaecology;trauma;urology;neurology;dermatology;psicology;surgery;internal", "name": "Cl\u00ednica Cochabamba ProSalud", "opening_hours": "24/7", "operator": "ProSalud", "operator:type": "private_non_profit"}}, {"type": "way", "id": 975818811, "nodes": [4218223058, 9100193271, 2590032426, 9029921163, 8909112197, 8909112203, 8909112200, 4218223058], "tags": {"addr:city": "Cochabamba", "addr:housenumber": "1518", "addr:neighbourhood": "San Pedro", "addr:street": "Calle Carlos D'avis", "amenity": "clinic", "barrier": "wall", "contact:facebook": "https://www.facebook.com/LosLiriosClinica", "email": "contacto@clinicaloslirios.com", "emergency": "yes", "healthcare": "clinic", "healthcare:speciality": "general", "name": "Cl\u00ednica Los Lirios", "old_name": "Cl\u00ednica Nuestra Se\u00f1ora de Lourdes", "opening_hours": "24/7", "operator": "Cl\u00ednica Los Lirios", "operator:type": "private", "phone": "+591 4 4233674", "website": "https://clinicaloslirios.com/"}}, {"type": "way", "id": 979733224, "nodes": [9063309232, 9063309233, 9063309234, 9063309235, 9063309236, 9063309237, 9063309238, 9063309239, 9063309240, 9063309241, 9063309232], "tags": {"addr:city": "Morochata", "amenity": "hospital", "building": "yes", "emergency": "yes", "healthcare": "hospital", "healthcare:speciality": "general", "name": "P.S. Morochata", "operator": "Ministerio de Salud y Deportes", "operator:short": "MinSalud", "operator:type": "public", "operator:wikidata": "Q44225411", "operator:wikipedia": "es:Ministerio de Salud y Deportes (Bolivia)"}}, {"type": "way", "id": 981207623, "nodes": [3306972560, 9076411823, 9076411820, 9076411821, 9076391409, 9076411824, 9076411822, 3306972560], "tags": {"addr:city": "Cochabamba", "addr:housenumber": "464", "addr:neighbourhood": "Central Santa Mar\u00eda", "addr:street": "Calle Chuquisaca", "amenity": "clinic", "healthcare": "clinic", "healthcare:speciality": "ophthalmology", "name": "Cl\u00ednica de Ojos", "operator": "Cl\u00ednica de Ojos", "operator:type": "private"}}, {"type": "way", "id": 985675908, "nodes": [2380943053, 9112306650, 9112306646, 9112306647, 9112306648, 2380943053], "tags": {"addr:city": "Cochabamba", "addr:housenumber": "1326", "addr:neighbourhood": "Recoleta", "addr:street": "Avenida Potos\u00ed", "amenity": "clinic", "barrier": "wall", "branch": "PAISE", "brand": "Caja Nacional de Salud", "emergency": "yes", "healthcare": "clinic", "healthcare:speciality": "paediatrics;dermatology;endocrinology;trauma;psychiatry;neurology;otolaryngology;ophthalmology;rheumatology;gynaecology", "name": "Policl\u00ednico de Atenci\u00f3n Integral en Salud de Especialidades", "opening_hours": "Mo-Su 08:00-14:00,14:00-20:00", "operator": "Caja Nacional de Salud", "operator:type": "public", "short_name": "PAISE", "start_date": "2015-07"}}, {"type": "way", "id": 992398472, "nodes": [2590640017, 2361168056, 2361168050, 2361168051, 9169042301, 9169042302, 9169042303, 9169042304, 9169042305, 9169042306, 9169042307, 9169042308, 2590640017], "tags": {"addr:city": "Cochabamba", "addr:housenumber": "1102", "addr:neighbourhood": "Seminario San Luis", "addr:street": "Avenida Papa Paulo III", "amenity": "clinic", "emergency": "yes", "healthcare": "clinic", "healthcare:speciality": "general;laboratory;radiology;intensive", "name": "Cl\u00ednica Santa Mar\u00eda de los \u00c1ngeles", "opening_hours": "24/7", "phone": "+591 4 4535213"}}, {"type": "way", "id": 1004654813, "nodes": [9269416023, 9269416024, 9269416021, 9269416022, 9269416023], "tags": {"addr:city": "Cochabamba", "addr:street": "Calle Federico Garc\u00eda Lorca", "amenity": "clinic", "barrier": "yes", "healthcare": "clinic", "healthcare:speciality": "general"}}, {"type": "way", "id": 1005625431, "nodes": [3664675393, 5547049414, 5547049415, 9278275276, 5547049410, 5547049413, 5547049405, 9278275277, 9278275278, 9278275279, 3664675393], "tags": {"addr:city": "Cochabamba", "addr:neighbourhood": "Magisterio 6 de Junio", "addr:street": "Avenida Calancha", "amenity": "clinic", "barrier": "wall", "healthcare": "clinic", "healthcare:speciality": "general", "name": "Caja de Salud de Caminos y Ramas Anexas", "phone": "+591 4 4666866", "short_name": "CSC y RA"}}, {"type": "way", "id": 1013629027, "nodes": [5559406750, 9351779436, 9351779437, 9351779438, 5559406750], "tags": {"addr:city": "Cochabamba", "addr:neighbourhood": "Seminario San Luis", "addr:street": "Calle Teodomiro Beltr\u00e1n", "amenity": "clinic", "barrier": "wall", "healthcare": "birthing_centre", "healthcare:speciality": "gynaecology", "name": "Centro de Partos"}}, {"type": "way", "id": 1033390670, "nodes": [7679280209, 9520953517, 7679280216, 12410976761, 7679280215, 7679280214, 9520929515, 2312198365, 7679280209], "tags": {"addr:city": "Cochabamba", "addr:housenumber": "785", "addr:neighbourhood": "Barba de Padilla", "addr:street": "Avenida Jos\u00e9 Ballivi\u00e1n", "amenity": "clinic", "barrier": "wall", "healthcare": "clinic", "healthcare:speciality": "general", "level": "0", "name": "Caja de Seguro Social de Choferes", "phone": "+591 4 4523915;+591 4 4523916", "wheelchair": "yes"}}, {"type": "way", "id": 1044657049, "nodes": [4491061048, 9612259270, 9612259271, 9612259272, 9612259289, 4491061048], "tags": {"addr:city": "Cochabamba", "addr:housenumber": "734", "addr:neighbourhood": "Central Santa Mar\u00eda", "addr:street": "Calle Antezana", "amenity": "clinic", "building": "clinic", "building:levels": "2", "contact:phone": "+591 4252012;+591 71468439", "healthcare": "clinic", "healthcare:speciality": "ophthalmology", "name": "Cl\u00ednica de Ojos Santa Luc\u00eda", "operator": "Cl\u00ednica Santa Luc\u00eda", "operator:type": "private"}}, {"type": "way", "id": 1054101380, "nodes": [5566724523, 9686979851, 2086047269, 9686979850, 9686979852, 9686979838, 9686979837, 5566724523], "tags": {"addr:city": "Cochabamba", "addr:housenumber": "1178", "addr:neighbourhood": "Villa Montenegro", "addr:street": "Avenida Tadeo Haenke", "amenity": "clinic", "barrier": "wall", "emergency": "yes", "healthcare": "clinic", "healthcare:speciality": "general", "name": "Clinica Cobija", "opening_hours": "24/7", "operator": "Clinica Cobija", "operator:type": "private", "phone": "+591 4 4668694"}}, {"type": "way", "id": 1084140723, "nodes": [5573652847, 9934789812, 9934789813, 9934789814, 9934789815, 9934789816, 5573652847], "tags": {"addr:city": "Cochabamba", "addr:neighbourhood": "Santa Ana de Mayorazgo", "addr:street": "Calle Chimpu Ojjllu", "amenity": "clinic", "barrier": "wall", "healthcare": "clinic", "healthcare:speciality": "general", "name": "Cl\u00ednica V\u00edctor Arano", "operator": "Cl\u00ednica V\u00edctor Arano", "operator:type": "private"}}, {"type": "way", "id": 1159586035, "nodes": [10783741693, 10783741694, 10783741695, 10783741696, 10783741697, 10783741698, 10783741693], "tags": {"addr:city": "Colcapirhua", "addr:neighbourhood": "Capacachi Central", "amenity": "hospital", "barrier": "wall", "emergency": "yes", "healthcare": "hospital", "healthcare:speciality": "nephrology", "name": "Hospital de Hemodi\u00e1lisis"}}, {"type": "way", "id": 1159834084, "nodes": [7539084671, 10786531309, 10786531310, 7539084670, 7539084671], "tags": {"addr:city": "Colcapirhua", "addr:neighbourhood": "San Jos\u00e9 Kami", "addr:street": "Avenida La Paz", "amenity": "clinic", "barrier": "wall", "healthcare": "clinic", "healthcare:speciality": "general", "name": "Centro de Salud San Jos\u00e9 Kami", "operator": "Gobierno Aut\u00f3nomo Municipal de Colcapirhua", "operator:type": "government"}}, {"type": "way", "id": 1180710450, "nodes": [2886226412, 10961856144, 5829780819, 5829780818, 10965829779, 10965829780, 10965829781, 10965829782, 2886226414, 2886226412], "tags": {"addr:city": "Cochabamba", "addr:neighbourhood": "Magisterio IV Centenario", "addr:street": "Calle Jack London", "amenity": "clinic", "barrier": "wall", "healthcare": "clinic", "healthcare:speciality": "general;endodontics;blood_check;clinical_pathology", "name": "Centro de Salud Temporal", "operator": "Gobierno Aut\u00f3nomo Municipal de Cochabamba", "operator:short": "GAMC", "operator:type": "government"}}, {"type": "way", "id": 1183959615, "nodes": [5852304254, 10994930685, 10994930684, 5852304259, 5852304260, 5852304254], "tags": {"addr:city": "Quillacollo", "addr:neighbourhood": "Apote", "amenity": "clinic", "barrier": "wall", "healthcare": "centre", "healthcare:speciality": "general", "name": "Centro de Salud Apote", "operator": "Gobierno Aut\u00f3nomo Municipal de Quillacollo", "operator:type": "government"}}, {"type": "way", "id": 1274807977, "nodes": [2409436984, 4665940077, 4665940078, 4665940079, 11836786371, 11836786372, 11836786373, 2409436984], "tags": {"addr:city": "Cochabamba", "addr:neighbourhood": "Pulacayo", "addr:street": "Avenida Melchor P\u00e9rez de Olgu\u00edn", "amenity": "pharmacy", "branch": "Sucursal Melchor Perez", "brand": "Farmacorp", "brand:wikidata": "Q81968937", "dispensing": "yes", "drive_through": "no", "healthcare": "pharmacy", "level": "0", "name": "Farmacorp", "opening_hours": "24/7", "operator": "Farmacorp", "payment:cash": "yes", "payment:credit_cards": "yes", "payment:debit_cards": "yes", "website": "https://www.farmacorp.com/", "wheelchair": "yes"}}, {"type": "way", "id": 1276692519, "nodes": [9028237643, 11310645822, 4129426680]}, {"type": "way", "id": 1278739060, "nodes": [11871357015, 11871357047, 11871357046, 11871357016, 11871357051, 11871357043, 11871357042, 11871357017, 11871357044, 11871357018, 11871357048, 11871357015], "tags": {"addr:city": "Cochabamba", "addr:housenumber": "1529", "addr:neighbourhood": "San Pedro", "addr:street": "Calle Carlos D'avis", "amenity": "clinic", "barrier": "wall", "description": "Centro de Rehabilitaci\u00f3n Integral que trabaja de forma conjunta con diferentes especialidades e instalaciones como gimnasio, sauna, piscina, hidroterapia y cafeter\u00eda.", "healthcare": "clinic", "healthcare:speciality": "cardiology", "name": "Servicardio", "opening_hours": "Mo-Fr 08:00-18:00; Sa 08:00-12:00; Su Off", "operator": "Servicardio", "operator:type": "private", "payment:cash": "yes", "sauna": "yes", "swimming_pool": "yes", "wheelchair": "yes"}}, {"type": "way", "id": 1286196200, "nodes": [11930143158, 11930143159, 11930143160, 11930143165, 3278551958, 11930143164, 11930143158], "tags": {"addr:city": "Cochabamba", "amenity": "clinic", "barrier": "wall", "building:levels": "3", "emergency": "yes", "healthcare": "clinic", "healthcare:speciality": "paediatrics;gynecology;imaging_diagnostic", "name": "Centro de Salud Ticti Norte", "opening_hours": "Mo-Su 07:00-15:00", "operator": "Gobierno Aut\u00f3nomo Departamental de Cochabamba", "operator:short": "GADC", "operator:type": "government"}}, {"type": "way", "id": 1293383081, "nodes": [5434451754, 11989848465, 9141410718, 9141410727, 8423483589, 11989848466, 11989848467, 11989848468, 11989849669, 11989849670, 5434451754], "tags": {"addr:city": "Cochabamba", "addr:housenumber": "1140", "addr:neighbourhood": "Portales", "addr:street": "Avenida Libertador Sim\u00f3n Bol\u00edvar", "amenity": "clinic", "barrier": "wall", "contact:facebook": "https://www.facebook.com/people/Centro-M%C3%A9dico-Quir%C3%BArgico-Bol%C3%ADvar/100091344493453/", "email": "cmqb.2023@gmail.com", "healthcare": "clinic", "healthcare:speciality": "general;cardiology;trauma;gynaecology;paediatrics;surgery", "level": "0", "name": "Centro M\u00e9dico Quir\u00fargico Bol\u00edvar", "opening_hours": "24/7", "operator": "Centro M\u00e9dico Quir\u00fargico Bol\u00edvar", "operator:type": "private", "payment:cash": "yes", "phone": "+591 4 4244078", "start_date": "1989", "wheelchair": "yes"}}, {"type": "way", "id": 1336508536, "nodes": [2327839010, 12361966017, 5546249736, 12361966018, 12361966019, 5546249730, 12361966020, 2327839010], "tags": {"addr:city": "Cochabamba", "addr:neighbourhood": "Barba de Padilla", "addr:street": "Avenida Jos\u00e9 Ballivi\u00e1n", "amenity": "pharmacy", "branch": "Sucursal El Prado", "brand": "Farmacorp", "brand:wikidata": "Q81968937", "contact:facebook": "https://www.facebook.com/Farmacorp/", "drive_through": "yes", "healthcare": "pharmacy", "level": "0", "name": "Farmacorp", "opening_hours": "24/7", "operator": "Farmacorp", "operator:type": "private", "payment:cash": "yes", "payment:credit_cards": "yes", "payment:debit_cards": "yes", "phone": "+591 4 44524228;+591 4 4524244", "website": "https://www.farmacorp.com/", "wheelchair": "limited"}}, {"type": "way", "id": 1409748579, "nodes": [4478187050, 12954782937, 12953999323, 12953999324, 12956628478, 12956628479, 9924260240, 4478187050], "tags": {"addr:city": "Cochabamba", "addr:housename": "IpDH Salud", "addr:housenumber": "866", "addr:neighbourhood": "Villa Montenegro", "addr:street": "Pasaje Del Mitayo", "alt_name": "Centro de Atenci\u00f3n en Salud del Instituto para el Desarollo Humano Bolivia", "amenity": "clinic", "barrier": "wall", "description": "Atenci\u00f3n en servicios de salud b\u00e1sicos, VIH y sida, PREP y PPE, infecciones de transmisi\u00f3n sexual, salud anal, ginecolog\u00eda, densitometr\u00eda y servicios psicol\u00f3gicos.", "healthcare": "clinic", "healthcare:speciality": "infectious_diseases;gynaecology;proctology;community;humanistic;general", "lgbtq": "primary", "lgbtq:signed": "yes", "name": "IpDH Salud", "opening_hours": "Mo,Fr 08:00-18:00; Tu-Th 08:00-16:00; Sa,Su,PH Off", "operator": "Instituto para el Desarollo Humano Bolivia", "operator:short": "IpDH Bolivia", "operator:type": "ngo", "payment:cash": "yes", "phone": "+591 4 4118315", "source:lgbtq": "https://idhbolivia.org/", "website": "https://idhbolivia.org/servicios/", "wheelchair": "limited"}}, {"type": "relation", "id": 9578239, "members": [{"type": "way", "ref": 509712938, "role": "outer"}, {"type": "way", "ref": 689245677, "role": "outer"}, {"type": "way", "ref": 1276692519, "role": "outer"}, {"type": "way", "ref": 509712937, "role": "outer"}, {"type": "way", "ref": 693667478, "role": "outer"}, {"type": "way", "ref": 509712935, "role": "outer"}, {"type": "way", "ref": 509712936, "role": "outer"}], "tags": {"addr:city": "Cochabamba", "addr:neighbourhood": "Seminario San Luis", "addr:street": "Calle Venezuela", "amenity": "hospital", "emergency": "yes", "healthcare": "hospital", "healthcare:speciality": "general;paediatrics;dialysis;gynaecology;emergency;surgery;maternity", "name": "Complejo Hospitalario Viedma", "operator": "Complejo Hospitalario Viedma", "operator:type": "public", "type": "multipolygon", "wheelchair": "yes"}}]}