{"version": 0.6, "generator": "Overpass API 0.7.62.8 e802775f", "osm3s": {"timestamp_osm_base": "2025-09-13T03:04:09Z", "copyright": "The data included in this document is from www.openstreetmap.org. The data is made available under ODbL."}, "elements": [{"type": "node", "id": 836799053, "lat": -16.9713685, "lon": -65.4185804, "tags": {"addr:city": "Villa Tunari", "addr:street": "Calle Tarija", "amenity": "hospital", "emergency": "yes", "healthcare": "hospital", "name": "Posta de Salud Villa Tunari"}}, {"type": "node", "id": 836799103, "lat": -16.9720175, "lon": -65.4151411, "tags": {"addr:city": "Villa Tunari", "addr:street": "Avenida A. Benigno Paz", "amenity": "pharmacy", "healthcare": "pharmacy", "name": "Farmacia Chapare"}}, {"type": "node", "id": 4441365470, "lat": -16.9677123, "lon": -65.340001}, {"type": "node", "id": 4561279189, "lat": -16.8329636, "lon": -65.5169614, "tags": {"addr:city": "Eterazama", "addr:postcode": "CBA", "addr:street": "RN24: Villa Tunari-Isinuta", "amenity": "hospital", "fixme": "exact location", "healthcare": "hospital", "healthcare:speciality": "general", "name": "C.S. Eterazama (1er Nivel)", "operator": "MinSalud", "operator:type": "public"}}, {"type": "node", "id": 5937855298, "lat": -16.766725, "lon": -65.333485, "tags": {"addr:city": "San Francisco", "addr:postcode": "CBA", "amenity": "hospital", "emergency": "yes", "healthcare": "hospital", "healthcare:speciality": "general", "name": "Centro de Salud Km 21 (1er Nivel)"}}, {"type": "node", "id": 7040424289, "lat": -16.9677062, "lon": -65.3391322}, {"type": "node", "id": 7040424290, "lat": -16.969083, "lon": -65.3391845}, {"type": "node", "id": 7040424291, "lat": -16.9690568, "lon": -65.3400045}, {"type": "node", "id": 8203736990, "lat": -16.8443724, "lon": -65.348233}, {"type": "node", "id": 8203736991, "lat": -16.8442608, "lon": -65.348354}, {"type": "node", "id": 8203736992, "lat": -16.8442186, "lon": -65.348437}, {"type": "node", "id": 8203736993, "lat": -16.8440868, "lon": -65.3487376}, {"type": "node", "id": 8203736994, "lat": -16.8437403, "lon": -65.3485936}, {"type": "node", "id": 8203736995, "lat": -16.8438241, "lon": -65.3483171}, {"type": "node", "id": 8203736996, "lat": -16.8440814, "lon": -65.3478767}, {"type": "node", "id": 8203736997, "lat": -16.8442308, "lon": -65.3480405}, {"type": "node", "id": 8203736998, "lat": -16.8443215, "lon": -65.3481509}, {"type": "node", "id": 8203827524, "lat": -16.8458761, "lon": -65.3470738, "tags": {"amenity": "doctors", "healthcare": "doctor", "name": "Doctor Hugo"}}, {"type": "node", "id": 8203851636, "lat": -16.8465914, "lon": -65.3473237, "tags": {"amenity": "pharmacy", "dispensing": "yes", "healthcare": "pharmacy", "name": "Dr. Chapatin"}}, {"type": "node", "id": 8815417019, "lat": -16.8464908, "lon": -65.3470769, "tags": {"amenity": "pharmacy", "name": "Aline"}}, {"type": "node", "id": 11380234201, "lat": -16.8176255, "lon": -65.5749402, "tags": {"addr:city": "Samuzabety", "amenity": "hospital", "healthcare": "hospital", "healthcare:speciality": "general", "name": "C.S. Samuzabety", "operator": "Ministerio de Salud y Deportes", "operator:short": "MinSalud", "operator:type": "public", "operator:wikidata": "Q44225411"}}, {"type": "node", "id": 11442308679, "lat": -16.8439853, "lon": -65.3478208}, {"type": "way", "id": 753515444, "nodes": [4441365470, 7040424289, 7040424290, 7040424291, 4441365470], "tags": {"addr:city": "Ibuelo", "amenity": "hospital", "barrier": "wall", "emergency": "yes", "healthcare": "hospital", "healthcare:speciality": "general", "name": "Hospital San Mart\u00edn de Porres"}}, {"type": "way", "id": 882155720, "nodes": [8203736990, 8203736991, 8203736992, 8203736993, 8203736994, 8203736995, 11442308679, 8203736996, 8203736997, 8203736998, 8203736990], "tags": {"addr:city": "Villa 14 de Septiembre", "amenity": "hospital", "barrier": "fence", "healthcare": "hospital", "healthcare:speciality": "general", "name": "Centro de Salud Villa 14 de Septiembre"}}]}