{"version": 0.6, "generator": "Overpass API 0.7.62.8 e802775f", "osm3s": {"timestamp_osm_base": "2025-09-13T03:04:09Z", "copyright": "The data included in this document is from www.openstreetmap.org. The data is made available under ODbL."}, "elements": [{"type": "node", "id": 813388995, "lat": -17.739372, "lon": -65.1906409}, {"type": "node", "id": 813389067, "lat": -17.7353071, "lon": -65.1908396, "tags": {"amenity": "pharmacy", "healthcare": "pharmacy"}}, {"type": "node", "id": 813389149, "lat": -17.7402128, "lon": -65.1911125}, {"type": "node", "id": 813389457, "lat": -17.7393678, "lon": -65.1910918}, {"type": "node", "id": 813389492, "lat": -17.7401628, "lon": -65.1912564}, {"type": "node", "id": 813389543, "lat": -17.7401584, "lon": -65.1906639}, {"type": "node", "id": 813389674, "lat": -17.7394482, "lon": -65.1910732}, {"type": "node", "id": 851426322, "lat": -17.6505895, "lon": -65.1806094, "tags": {"addr:city": "Rodeo Chico", "addr:postcode": "CBA", "addr:street": "RN7: Epizana-Comarapa", "amenity": "hospital", "emergency": "yes", "healthcare": "hospital", "healthcare:speciality": "general", "name": "P.S. Rodeo Chico", "operator": "MinSalud", "operator:type": "public"}}, {"type": "node", "id": 851427211, "lat": -17.6370999, "lon": -65.2289803, "tags": {"addr:city": "Epizana", "addr:street": "RN7: Epizana-Comarapa", "amenity": "doctors", "healthcare": "doctor", "healthcare:speciality": "general", "name": "Puesto de Salud de Epizana Cruce"}}, {"type": "node", "id": 851503159, "lat": -17.714189, "lon": -65.2071171, "tags": {"amenity": "hospital", "healthcare": "hospital", "name": "PS de Moya Pampa"}}, {"type": "node", "id": 1158997164, "lat": -17.8094911, "lon": -65.2260518, "tags": {"addr:city": "Tika Pampa", "amenity": "hospital", "emergency": "yes", "healthcare": "hospital", "healthcare:speciality": "general", "name": "C.S. Tejawasi (1er Nivel)"}}, {"type": "node", "id": 4391174669, "lat": -17.5392549, "lon": -65.461027, "tags": {"amenity": "hospital", "fixme": "exact location", "name": "PS Misca Mayu (1er Nivel)", "operator": "Ministerio de Salud Bolivia"}}, {"type": "node", "id": 4391181037, "lat": -17.5521812, "lon": -65.4079756, "tags": {"amenity": "hospital", "fixme": "exact_location", "name": "CS Huayapacha (1er Nivel)", "operator": "Ministerio de Salud"}}, {"type": "node", "id": 5324089387, "lat": -17.7402034, "lon": -65.1907049}, {"type": "node", "id": 5324089388, "lat": -17.7397732, "lon": -65.1912456}, {"type": "node", "id": 5675769029, "lat": -17.5713207, "lon": -65.5796344}, {"type": "node", "id": 5675769030, "lat": -17.5714044, "lon": -65.5792958}, {"type": "node", "id": 5675769031, "lat": -17.5717192, "lon": -65.579392}, {"type": "node", "id": 5675769032, "lat": -17.5719105, "lon": -65.5794797}, {"type": "node", "id": 5675769033, "lat": -17.571779, "lon": -65.5797765}, {"type": "node", "id": 6852853725, "lat": -17.7393392, "lon": -65.1912219}, {"type": "node", "id": 7651129309, "lat": -17.7633419, "lon": -65.5361948, "tags": {"addr:city": "Quturi", "amenity": "hospital", "description": "Puesto de Salud 1er Nivel Minsalud CODSNIS 300374", "emergency": "yes", "healthcare": "hospital", "healthcare:speciality": "general", "name": "P.S. Quturi", "operator": "Minsalud", "operator:type": "public"}}, {"type": "node", "id": 9298054435, "lat": -17.6768394, "lon": -65.4188306, "tags": {"addr:city": "Pocona", "amenity": "hospital", "emergency": "yes", "healthcare": "hospital", "healthcare:speciality": "general;paediatrics;gynaecology", "name": "Materno Infantil Pocona", "operator": "Ministerio de Salud y Deportes", "operator:short": "MinSalud", "operator:type": "public", "operator:wikidata": "Q44225411", "operator:wikipedia": "es:Ministerio de Salud y Deportes (Bolivia)"}}, {"type": "node", "id": 11536236939, "lat": -17.6766095, "lon": -65.419133}, {"type": "node", "id": 11536236940, "lat": -17.6771105, "lon": -65.4188067}, {"type": "node", "id": 11536236941, "lat": -17.6769487, "lon": -65.4185331}, {"type": "node", "id": 11536236942, "lat": -17.6764477, "lon": -65.4188592}, {"type": "node", "id": 11536236943, "lat": -17.6767468, "lon": -65.4186646, "tags": {"entrance": "main"}}, {"type": "node", "id": 11536236946, "lat": -17.6519653, "lon": -65.3669277}, {"type": "node", "id": 11536236947, "lat": -17.6522675, "lon": -65.3670646}, {"type": "node", "id": 11536236948, "lat": -17.6523695, "lon": -65.3667936}, {"type": "node", "id": 11536236949, "lat": -17.6520751, "lon": -65.3666581}, {"type": "node", "id": 11536236950, "lat": -17.6521461, "lon": -65.366799, "tags": {"addr:city": "Laimi\u00f1a", "amenity": "hospital", "emergency": "yes", "healthcare": "hospital", "healthcare:speciality": "general", "name": "C.S. Laimi\u00f1a"}}, {"type": "node", "id": 11536236951, "lat": -17.6520493, "lon": -65.3667312, "tags": {"entrance": "main"}}, {"type": "way", "id": 67340244, "nodes": [813388995, 813389543, 5324089387, 813389149, 813389492, 5324089388, 6852853725, 813389457, 813389674, 813388995], "tags": {"addr:city": "Totora", "amenity": "hospital", "barrier": "yes", "healthcare": "hospital", "healthcare:speciality": "general", "name": "Hospital Aurelio Melean"}}, {"type": "way", "id": 595549616, "nodes": [5675769029, 5675769030, 5675769031, 5675769032, 5675769033, 5675769029], "tags": {"addr:city": "Vacas", "amenity": "hospital", "barrier": "yes", "emergency": "yes", "healthcare": "hospital", "healthcare:speciality": "general", "name": "Hospital de Vacas"}}, {"type": "way", "id": 1241574419, "nodes": [11536236939, 11536236940, 11536236941, 11536236943, 11536236942, 11536236939], "tags": {"amenity": "hospital", "barrier": "wall", "healthcare": "hospital"}}, {"type": "way", "id": 1241574420, "nodes": [11536236946, 11536236947, 11536236948, 11536236949, 11536236951, 11536236946], "tags": {"amenity": "hospital", "barrier": "wall", "healthcare": "hospital"}}]}