{"version": 0.6, "generator": "Overpass API 0.7.62.8 e802775f", "osm3s": {"timestamp_osm_base": "2025-09-13T03:04:09Z", "copyright": "The data included in this document is from www.openstreetmap.org. The data is made available under ODbL."}, "elements": [{"type": "node", "id": 6594862176, "lat": -18.5040903, "lon": -64.3979889, "tags": {"addr:city": "Quinori", "addr:postcode": "CBA", "amenity": "hospital", "description": "Puesto de Salud 1er Nivel\nMinSalud CODSNIS 300096", "emergency": "yes", "healthcare": "hospital", "healthcare:speciality": "general", "name": "P.S. Quinori (1er Nivel)"}}, {"type": "node", "id": 6595102075, "lat": -18.3209174, "lon": -64.6772004, "tags": {"addr:city": "Pasorapa", "amenity": "hospital", "healthcare": "hospital", "healthcare:speciality": "general", "name": "Centro de Salud Pasorapa", "ref:minsal:snis": "30095"}}, {"type": "node", "id": 6725304448, "lat": -18.5465684, "lon": -64.2944913, "tags": {"addr:city": "Espinal", "addr:postcode": "CBA", "amenity": "hospital", "description": "Puesto Salud 1er Nivel\nMinsalud CODSNIS 300574", "emergency": "yes", "healthcare": "hospital", "healthcare:speciality": "general", "name": "P.S. Espinal", "operator": "MinSalud", "operator:type": "public"}}, {"type": "node", "id": 7495153796, "lat": -18.493632, "lon": -64.5742392, "tags": {"addr:city": "Seibas", "amenity": "hospital", "description": "Puesto de Salud 1er Nivel \nMinSalud CODSNIS 300097", "emergency": "yes", "healthcare": "hospital", "healthcare:speciality": "general", "name": "P.S. Seibas"}}, {"type": "node", "id": 8076098713, "lat": -18.4944685, "lon": -64.5753647, "tags": {"addr:city": "Seibas", "amenity": "hospital", "emergency": "yes", "healthcare": "hospital", "healthcare:speciality": "general", "name": "P.S. Seibas", "operator": "MinSalud", "operator:type": "public"}}]}