{"version": 0.6, "generator": "Overpass API 0.7.62.8 e802775f", "osm3s": {"timestamp_osm_base": "2025-09-13T03:04:09Z", "copyright": "The data included in this document is from www.openstreetmap.org. The data is made available under ODbL."}, "elements": [{"type": "node", "id": 880990948, "lat": -17.6778366, "lon": -65.0892426, "tags": {"addr:city": "Abra Punta", "amenity": "hospital", "emergency": "yes", "fixme": "exact location", "healthcare": "hospital", "healthcare:speciality": "general", "name": "C.S. Abra Punta"}}, {"type": "node", "id": 880993621, "lat": -17.6711013, "lon": -65.0967491, "tags": {"addr:city": "Teraki", "amenity": "hospital", "healthcare": "hospital", "healthcare:speciality": "general", "name": "P.S. Teraki"}}, {"type": "node", "id": 5239826153, "lat": -17.757072, "lon": -64.8648345}, {"type": "node", "id": 6685689041, "lat": -17.7170518, "lon": -65.0904194, "tags": {"addr:city": "Copa Chuncho A", "addr:postcode": "CBA", "addr:street": "RN7: Epizana-Comarapa", "amenity": "hospital", "description": "Centro de Salud 1er Nivel \nMinSalud CODSNIS 300305", "emergency": "yes", "healthcare": "hospital", "healthcare:speciality": "general", "name": "C.S. Copachuncho (1er Nivel)", "operator": "MinSalud", "operator:type": "public"}}, {"type": "node", "id": 9133322382, "lat": -17.7570277, "lon": -64.8643421}, {"type": "node", "id": 9133322383, "lat": -17.7566755, "lon": -64.8643928}, {"type": "node", "id": 9133322384, "lat": -17.7567198, "lon": -64.8648366}, {"type": "way", "id": 988125099, "nodes": [5239826153, 9133322382, 9133322383, 9133322384, 5239826153], "tags": {"addr:city": "Pojo", "amenity": "clinic", "barrier": "wall", "emergency": "yes", "healthcare": "clinic", "healthcare:speciality": "general", "name": "Centro de Salud Pojo"}}]}