{"version": 0.6, "generator": "Overpass API 0.7.62.8 e802775f", "osm3s": {"timestamp_osm_base": "2025-09-13T03:04:09Z", "copyright": "The data included in this document is from www.openstreetmap.org. The data is made available under ODbL."}, "elements": [{"type": "node", "id": 4053609754, "lat": -18.541396, "lon": -65.4261478, "tags": {"addr:city": "Poroma", "alt_name": "CS Poroma (1er Nivel)", "amenity": "hospital", "emergency": "yes", "healthcare": "hospital", "healthcare:speciality": "general", "name": "C.S. Virgen del Rosario", "note": "Centro de Salud", "opening_hours": "Mo-Fr 08:30-12:30, 14:30-18:00", "phone": "+591-68660621", "survey:date": "2018-01-02"}}, {"type": "node", "id": 4723169767, "lat": -18.5796502, "lon": -65.3342111, "tags": {"addr:city": "Pomanaza", "amenity": "hospital", "healthcare": "hospital", "name": "C.S. Pomanasa", "note": "Centro de Salud 1er Nivel", "operator": "Ministerio de Salud y Deportes", "operator:short": "MinSalud", "operator:type": "public", "operator:wikidata": "Q44225411", "operator:wikipedia": "es:Ministerio de Salud y Deportes (Bolivia)", "survey:date": "2018-01-02"}}, {"type": "node", "id": 4729615499, "lat": -18.4586652, "lon": -65.594244, "tags": {"addr:city": "Thola Pampa", "amenity": "hospital", "description": "Centro de Salud 1er Nivel", "emergency": "yes", "healthcare": "hospital", "healthcare:speciality": "general", "name": "C.S. Thola Pampa", "operator": "Ministerio de Salud y Deportes", "operator:short": "MinSalud", "operator:type": "public", "operator:wikidata": "Q44225411"}}, {"type": "node", "id": 4987383421, "lat": -18.4882036, "lon": -65.3522874, "tags": {"amenity": "hospital", "healthcare": "hospital", "name": "Puesto de Salud Calizaya", "name:es": "Puesto de Salud Calizaya"}}, {"type": "node", "id": 4987383422, "lat": -18.4513741, "lon": -65.4661162, "tags": {"addr:city": "Palajla", "amenity": "hospital", "description": "Puesto de Salud 1er Nivel", "emergency": "yes", "healthcare": "hospital", "healthcare:speciality": "general", "name": "P.S. Palajla"}}, {"type": "node", "id": 4987383423, "lat": -18.5025048, "lon": -65.507325, "tags": {"addr:city": "Soicoco", "amenity": "hospital", "description": "Puesto de Salud de 1er Nivel. Minsalud CODSNIS 100419", "emergency": "yes", "healthcare": "hospital", "healthcare:speciality": "general", "name": "P.S. Soicoco (1er Nivel)", "operator": "Ministerio de Salud y Deportes", "operator:short": "MinSalud", "operator:wikidata": "Q44225411"}}, {"type": "node", "id": 5070536927, "lat": -18.5280849, "lon": -65.2920086, "tags": {"amenity": "hospital", "name": "Puesto de Salud Aguila Orko", "name:es": "Puesto de Salud Aguila Orko"}}, {"type": "node", "id": 5070542025, "lat": -18.4969124, "lon": -65.2889519, "tags": {"amenity": "hospital", "name": "Puesto de Salud El Ajial"}}]}