{"version": 0.6, "generator": "Overpass API 0.7.62.8 e802775f", "osm3s": {"timestamp_osm_base": "2025-09-13T03:05:08Z", "copyright": "The data included in this document is from www.openstreetmap.org. The data is made available under ODbL."}, "elements": [{"type": "node", "id": 784185038, "lat": -17.084742, "lon": -66.8198271, "tags": {"addr:city": "Independencia", "addr:street": "Calle Colon", "amenity": "clinic", "healthcare": "clinic", "healthcare:speciality": "general", "name": "Centro de Salud San Juan de Dios"}}, {"type": "node", "id": 4981565218, "lat": -16.9771668, "lon": -66.9573675, "tags": {"addr:city": "Kuti", "addr:postcode": "CBA", "amenity": "hospital", "description": "Puesto de Salud 1er Nivel \nCODSNIS 300111", "emergency": "yes", "fixme": "Exact_Location", "healthcare": "hospital", "healthcare:speciality": "general", "name": "P.S. Kuti", "population": "118"}}, {"type": "node", "id": 5891216386, "lat": -17.084159, "lon": -66.8191637, "tags": {"amenity": "pharmacy", "healthcare": "pharmacy", "name": "Farmacia"}}, {"type": "node", "id": 7072289574, "lat": -17.211817, "lon": -66.6560191, "tags": {"addr:city": "Yayani Alto", "amenity": "hospital", "description": "Centro de Salud 1er Nivel  CODSNIS 300133", "emergency": "yes", "healthcare": "hospital", "healthcare:speciality": "general", "name": "C.S. Yayani", "operator": "MinSalud", "operator:type": "public"}}, {"type": "node", "id": 7075988564, "lat": -17.1145612, "lon": -66.7304303, "tags": {"addr:city": "Tiquirpaya", "addr:street": "RN25: Independencia-Morochata", "amenity": "hospital", "description": "Puesto de Salud 1er Nivel CODSNIS 300117", "emergency": "yes", "healthcare": "hospital", "healthcare:speciality": "general", "name": "P.S. Tiquirpaya", "operator": "MinEdu", "operator:type": "public"}}, {"type": "node", "id": 8899596939, "lat": -17.012844, "lon": -66.5525862, "tags": {"addr:city": "Calientes", "addr:street": "Camino RN25 a Calientes", "amenity": "hospital", "description": "Puesto de Salud 1er Nivel, Minsakud CODSNIS 300556", "emergency": "yes", "fixme": "Exact_Location", "healthcare": "hospital", "healthcare:speciality": "general", "name": "P.S. Calientes (1er Nivel)", "operator": "Ministerio de Salud y Deportes", "operator:short": "MinSalud", "operator:type": "public", "operator:wikidata": "Q44225411", "operator:wikipedia": "es:Ministerio de Salud y Deportes (Bolivia)"}}, {"type": "node", "id": 11962923111, "lat": -17.3117974, "lon": -66.8698849, "tags": {"alt_name": "Centro Integral de Salud CIS", "amenity": "hospital", "healthcare": "hospital", "image": "https://imgur.com/k0QjLNa", "name": "CIS Chicote Grande La Aguada", "operator": "Caja Nacional de Salud", "start_date": "2015-04-01"}}]}